{"type":"FeatureCollection","features":[{"type":"Feature","properties":{"المرحلة":"الحي 39","GlobalID":"{E6F14DC7-6795-4E65-B3C8-D30DEAA7DC29}","SHAPE_Length":15327.73207674639,"SHAPE_Area":11043696.103134563,"__networkId":"roads","__networkName":"الطرق والقطاعات","__layerId":"admin_boundaries","__layerName":"التقسيم الإداري","__assetName":"الأحياء/المراحل","__geometryKind":"polygon","__featureIndex":1,"__length_m":15327.73,"__area_m2":11043696.1,"__typeValue":"الحي 39"},"geometry":{"type":"Polygon","coordinates":[[[31.53644090161546,30.279120779025],[31.536836872704505,30.26379446678546],[31.537065621505093,30.260491155636373],[31.536527966332812,30.260493354575935],[31.53570537543389,30.26003757868204],[31.535622089928957,30.25999375175699],[31.535536505635186,30.259953362129195],[31.535448813893797,30.25991650058542],[31.53535920874082,30.25988324704918],[31.535267889602313,30.259853677564173],[31.535175059497487,30.259827855759124],[31.53508092414055,30.259805839830946],[31.53498569194066,30.259787679441004],[31.534889575798516,30.25977341338736],[31.53479278771652,30.259763074260366],[31.534695543290386,30.259756685338903],[31.534598059014073,30.25975425981431],[31.53450054958493,30.259755803894272],[31.534403233293567,30.25976131369901],[31.534306325735656,30.259770777589026],[31.53421004160856,30.25978417383743],[31.533584440471675,30.259884403167856],[31.533472141179686,30.259905263735934],[31.533361348362437,30.25993145097809],[31.533252397989838,30.259962882642757],[31.533145625133464,30.25999946483877],[31.533041354085174,30.260041085052443],[31.53293990374687,30.260087616026954],[31.532841583139017,30.260138916538516],[31.532746694095582,30.260194829068723],[31.532655524975695,30.26025518290826],[31.53256835425715,30.260319794157006],[31.53248544784126,30.260388465724272],[31.53240705995127,30.260460987328834],[31.532333429539015,30.26053713860282],[31.532264781183326,30.260616685212053],[31.53220132419163,30.260699386615602],[31.531232298019916,30.26216262104171],[31.52912282915399,30.261374773890182],[31.52903728887771,30.26134475017275],[31.52895028344917,30.261318052760537],[31.528861985344935,30.26129473519373],[31.528772570634843,30.26127484480527],[31.52868221718525,30.261258420392462],[31.52859110555754,30.261245494545275],[31.52849941631313,30.261236093645934],[31.528407333606598,30.261230236317203],[31.528315038897677,30.261227933422443],[31.528222718137634,30.2612291903933],[31.528130553684434,30.26123400490188],[31.52803872969269,30.261242366084968],[31.52794742941879,30.261254259199365],[31.52785683432241,30.261269658638913],[31.527767124964868,30.261288534917433],[31.527678481009257,30.261310850013476],[31.52502426297527,30.262034754098966],[31.52199527678786,30.261199550705935],[31.52199398770543,30.261203071777118],[31.51147697678795,30.258302484923128],[31.511478324260892,30.258298979266605],[31.508874621190255,30.25589359527726],[31.506520108982787,30.25782718410317],[31.505247172869,30.258905040092795],[31.5035320401583,30.260712771098692],[31.503218405054923,30.26105700851379],[31.50286099594612,30.26142162157849],[31.502488830212087,30.26180705388246],[31.502158585259142,30.262170507294634],[31.501893516673306,30.26244068478494],[31.50098070347883,30.263271590819908],[31.50090729944201,30.263350793822024],[31.500830547384133,30.26342759382723],[31.500750553306403,30.263501883768345],[31.500667425904965,30.26357356200958],[31.50058128106247,30.263642530018682],[31.500492235559918,30.263708693919],[31.500400411568215,30.263771961385462],[31.500305936648104,30.26383224630017],[31.49914429910307,30.264527204598625],[31.498140951897618,30.265046354320063],[31.494470900075694,30.266907828821427],[31.494035318672534,30.26713889375783],[31.49384422635034,30.267244593155826],[31.493656238605784,30.267354365702698],[31.49347147042322,30.26746814233327],[31.493290035888656,30.267585853982347],[31.4931836690708,30.267664661696557],[31.49308029723611,30.26774638734362],[31.49298002818242,30.26783094712374],[31.492882965215973,30.2679182541339],[31.492789209846375,30.268008215264253],[31.49269885909174,30.26810073973263],[31.4926120063768,30.268195729774238],[31.492528742431436,30.268293086848768],[31.49231562431681,30.268502495316934],[31.492097389398317,30.268707934871717],[31.491874135592337,30.26890931166049],[31.491645965306777,30.26910653415858],[31.49130898119257,30.269383038187637],[31.490962324917685,30.269650474180175],[31.49006159316544,30.270398650087955],[31.489517974077998,30.270842021989633],[31.489096956162218,30.271197000160612],[31.48899901105015,30.271266560978564],[31.488981054625935,30.271281968933526],[31.488964558862406,30.271298551490254],[31.488936355355733,30.271334819907654],[31.48891509941948,30.271374465489934],[31.488907249042214,30.271395249137512],[31.488897348709465,30.27143809343126],[31.48889536522931,30.271481749221184],[31.488901348907408,30.271525131900738],[31.488915149725152,30.2715671630719],[31.489010629860044,30.271955337651224],[31.489025527520745,30.27200148748147],[31.48904581686972,30.272095648274014],[31.489051139387783,30.272143337268513],[31.489052046686222,30.2722391116325],[31.489039981413644,30.272334320330163],[31.489022041159107,30.272406116254277],[31.487895607691723,30.2737507614615],[31.48720789523946,30.274524215137642],[31.487197358899508,30.27458425372702],[31.487188362271908,30.274660422751737],[31.487184214750243,30.274736902813626],[31.487184928012606,30.274813463499225],[31.487190500262297,30.27488987594727],[31.487200915329712,30.27496590974575],[31.487216140875454,30.27504133525903],[31.48723613198379,30.275115926731388],[31.487260828467562,30.27518945995908],[31.48729015486834,30.27526171229079],[31.4873240249478,30.275332468057904],[31.48736233450142,30.275401513919874],[31.487404970341423,30.27546864196696],[31.487451803110467,30.275533650496612],[31.48750269267131,30.275596343236973],[31.48755748541207,30.275656533226098],[31.48844914867151,30.276537921145326],[31.488494583661943,30.276604904118912],[31.488534783270918,30.276674338530164],[31.48856957053028,30.276745918714475],[31.488598793624792,30.2768193312501],[31.48862232499366,30.276894253406727],[31.488640059533996,30.276970356248686],[31.488651920889,30.277047306962388],[31.48865785695639,30.277124766528896],[31.488658555845696,30.277172598151143],[31.488653178530406,30.27726813642493],[31.48863880368922,30.277362978730682],[31.48861552564527,30.277456493585763],[31.48860059384861,30.277502558596826],[31.501117144095744,30.27611509617869],[31.506004065479644,30.276673206658607],[31.5076373517865,30.27686367897365],[31.51113227075556,30.27727765603525],[31.51817060514263,30.27810464761396],[31.52174762653538,30.278517782383567],[31.52509461992664,30.27883424380918],[31.528641540570845,30.279320525514656],[31.535145168056406,30.28008186681554],[31.5352219326907,30.28008857014824],[31.535299045871312,30.280090763218578],[31.535390189838346,30.280087521322223],[31.535477159334278,30.28007848683383],[31.535563067919828,30.28006370940035],[31.535647408945216,30.280043275904248],[31.53572968204885,30.280017307360385],[31.5358094021404,30.279985956589112],[31.535886096706122,30.279949409767642],[31.535996272380768,30.279884128768074],[31.536066733536703,30.27983287891341],[31.536132211737772,30.279776917833534],[31.536192286572394,30.279716605473787],[31.53624657086669,30.27965232893157],[31.536294716074337,30.279584502456416],[31.536336412276576,30.279513562795888],[31.53637139177542,30.279439965316545],[31.536408702402436,30.279333386920886],[31.536425327523386,30.279263245341408],[31.53643607856071,30.279192254248038],[31.53644090161546,30.279120779025]]]}},{"type":"Feature","properties":{"المرحلة":"حي 16","GlobalID":"{C673AEC6-89D2-4528-B5F5-2BE56B58D158}","SHAPE_Length":6893.031008384814,"SHAPE_Area":2697343.5186694874,"__networkId":"roads","__networkName":"الطرق والقطاعات","__layerId":"admin_boundaries","__layerName":"التقسيم الإداري","__assetName":"الأحياء/المراحل","__geometryKind":"polygon","__featureIndex":2,"__length_m":6893.03,"__area_m2":2697343.52,"__typeValue":"حي 16"},"geometry":{"type":"Polygon","coordinates":[[[31.552881343329304,30.246205078123623],[31.552827866620426,30.24650035347684],[31.552712366631084,30.247089692482774],[31.55258549756351,30.247677281144266],[31.55251781040518,30.247970368373768],[31.552373955992223,30.248555024666352],[31.551935054415754,30.250268337725277],[31.551842025783245,30.250641857320375],[31.551754065445554,30.251016290386023],[31.551671186877442,30.251391586472597],[31.551593400858675,30.251767693579353],[31.551520717270723,30.252144560482225],[31.55145314779168,30.25252213440617],[31.55139070050639,30.25290036490462],[31.551333384398017,30.253279199979897],[31.55128120755137,30.25365858685922],[31.551234176254663,30.254038474322552],[31.551192297694445,30.25441880959857],[31.551155577260563,30.254799540692797],[31.551124020342957,30.255180616387573],[31.55109763143316,30.255561983138172],[31.551076413226145,30.25594358895244],[31.551060369315184,30.2563253818392],[31.551017374149044,30.2575451880391],[31.550990676218806,30.258127030460933],[31.568783351031517,30.259017996273705],[31.57064746304388,30.254867990316008],[31.570835899047793,30.254441293863138],[31.57101894875321,30.25401221256844],[31.571260638683786,30.253421247528067],[31.571377479857855,30.25312456130613],[31.571580487433952,30.252590064160362],[31.571698292500315,30.252267761925665],[31.571905059525896,30.25167778740948],[31.57201909076975,30.25133768882278],[31.572129652719976,30.25099673624707],[31.571757268695354,30.250998206745802],[31.571397794359687,30.250994135132725],[31.571054057609466,30.250985184101697],[31.570682087708207,30.250969923503668],[31.570315940686598,30.250949233307427],[31.569965820507974,30.250924161871072],[31.569616239318538,30.250893954929467],[31.56924018747263,30.250855655956496],[31.568165852698446,30.250712742572542],[31.567803735519217,30.250653234908096],[31.567442903829168,30.250588162569183],[31.56708347171433,30.250517547272608],[31.566725553260703,30.250441409958132],[31.566455037290996,30.25037995981725],[31.566185507671474,30.25031535987779],[31.565917012012843,30.25024762099741],[31.56564960062075,30.25017675558559],[31.56538332110589,30.25010277760338],[31.565118221977347,30.250025699459822],[31.56485435264244,30.249945535115426],[31.56459176071183,30.24986230008271],[31.564330493796277,30.24977600909783],[31.564070599506486,30.249686677672674],[31.56381212635148,30.249594322870948],[31.56355512014532,30.24949896020411],[31.563299628498743,30.249400608287523],[31.563045697225785,30.24929928496021],[31.562793373038904,30.249195007285053],[31.561227419954157,30.24851660294825],[31.5610466214268,30.248445340523265],[31.560862790187077,30.24838012548832],[31.560769821741673,30.24834981610727],[31.5605819507781,30.248293848721843],[31.56039173072005,30.248244151469603],[31.560199442740252,30.248200798081132],[31.560005370706254,30.248163852197727],[31.559809806570573,30.248133295202305],[31.557875301674223,30.24786389860205],[31.557742962764888,30.247841277029654],[31.55753700691802,30.24779983789004],[31.55740671167595,30.247769615243556],[31.557266912258157,30.24773365085643],[31.557059531683258,30.247673349852292],[31.556841718074637,30.24760072335632],[31.55665439867665,30.24753027430802],[31.556470438079508,30.24745350067292],[31.55629012464239,30.247370523494812],[31.554399267987367,30.246458418667956],[31.552881343329304,30.246205078123623]]]}},{"type":"Feature","properties":{"المرحلة":"حي 15","GlobalID":"{0DF274F8-25AE-4584-9C4E-D9D2E5571EEE}","SHAPE_Length":6885.687321691057,"SHAPE_Area":2616101.1541221514,"__networkId":"roads","__networkName":"الطرق والقطاعات","__layerId":"admin_boundaries","__layerName":"التقسيم الإداري","__assetName":"الأحياء/المراحل","__geometryKind":"polygon","__featureIndex":3,"__length_m":6885.69,"__area_m2":2616101.15,"__typeValue":"حي 15"},"geometry":{"type":"MultiPolygon","coordinates":[[[[31.572129652719976,30.25099673624707],[31.5720055289039,30.25099786996665],[31.5720882781146,30.250997180888646],[31.572129652719976,30.25099673624707]]],[[[31.572129652719976,30.25099673624707],[31.572019089871414,30.25133768882278],[31.57190505862756,30.25167778740948],[31.571812957954748,30.251944615917896],[31.571636390492394,30.252438292414183],[31.571491641357422,30.252827097437887],[31.571327856921563,30.25325149316489],[31.571123877368308,30.253759235255146],[31.57101894605828,30.254012211792457],[31.57083589814946,30.254441293863138],[31.57064746304388,30.254867990316008],[31.568783351031517,30.259017996273705],[31.588701086768538,30.260012485511893],[31.588866392950486,30.259721536176386],[31.5889982539561,30.259482000894213],[31.589252670319286,30.258999197151287],[31.589504033308835,30.258450495987642],[31.589742126385,30.25789739376319],[31.589966846241506,30.257340129392883],[31.590074159883667,30.257060012035122],[31.59027863800191,30.256496956689578],[31.5903757809184,30.256214080761456],[31.59055981966899,30.2556457844424],[31.590730130365394,30.255074299533693],[31.590886640244097,30.254499875063335],[31.59102928103311,30.25392275928886],[31.591157991647,30.25334320124935],[31.591217105284265,30.25305258444898],[31.591324816880103,30.25246983433759],[31.59141846984173,30.25188527040385],[31.591498023744986,30.251299147139054],[31.591563443555543,30.250711717488407],[31.591590844866673,30.250417592397433],[31.591635013232562,30.249828679975565],[31.573283240461752,30.250955336461814],[31.57299512290236,30.250970903577738],[31.57270678076415,30.25098299426112],[31.57241827243758,30.250991605409272],[31.572129652719976,30.25099673624707]]]]}},{"type":"Feature","properties":{"المرحلة":"الحي 14","GlobalID":"{EA068E9C-8240-4382-A054-51B70AC14419}","SHAPE_Length":7949.7286512610735,"SHAPE_Area":3889368.4516547797,"__networkId":"roads","__networkName":"الطرق والقطاعات","__layerId":"admin_boundaries","__layerName":"التقسيم الإداري","__assetName":"الأحياء/المراحل","__geometryKind":"polygon","__featureIndex":4,"__length_m":7949.73,"__area_m2":3889368.45,"__typeValue":"الحي 14"},"geometry":{"type":"Polygon","coordinates":[[[31.562483203635928,30.280923046545457],[31.56673070240393,30.277151752888525],[31.567364056001736,30.276608298184428],[31.568018756265634,30.276083738730218],[31.568693752166748,30.275578932081963],[31.569388251391022,30.27509446970282],[31.570101442759693,30.27463091978116],[31.570832375855247,30.274188892396566],[31.571323165020818,30.273909708300053],[31.57410918207669,30.27236351676635],[31.570951205899323,30.269188087143544],[31.570162738404775,30.26844270283161],[31.570032576113373,30.268326173056444],[31.56920211327762,30.26763178164396],[31.569120925338876,30.267569503555816],[31.568281658115005,30.266949169899902],[31.56817757032302,30.266875326360843],[31.567198629445542,30.26623728998739],[31.5661395300986,30.26563138691443],[31.565039649034393,30.265082967209242],[31.563903121198194,30.264594090248327],[31.562734218977436,30.264166594992137],[31.561537336930552,30.263802088329687],[31.560316972922134,30.263501939632448],[31.55907771734326,30.263267278413192],[31.55782271609413,30.263098783272152],[31.55186142849505,30.2624600325845],[31.5504279391855,30.262320984544786],[31.550324569147428,30.262786663459984],[31.550213143017896,30.263250951320153],[31.550093685051404,30.263713745727845],[31.54996622219745,30.264174941959553],[31.549830783202033,30.264634436845647],[31.54968739770966,30.265092127218278],[31.549536098957926,30.26554791146317],[31.54937692018455,30.266001686416008],[31.54920989732208,30.26645335201784],[31.549035067201473,30.266902805883866],[31.548852469348635,30.267349947958454],[31.548662145085995,30.267794677411825],[31.54846413573615,30.268236895743573],[31.548258487113085,30.268676502902913],[31.54804524413263,30.269113401168475],[31.547824456202083,30.269547492820113],[31.548849277634417,30.27017317730041],[31.54883320138409,30.27020239067196],[31.562483203635928,30.280923046545457]]]}},{"type":"Feature","properties":{"المرحلة":"الحي 13","GlobalID":"{994DF126-F01D-454C-B55F-B526C5C3A18E}","SHAPE_Length":8091.907013981188,"SHAPE_Area":3972966.3858025526,"__networkId":"roads","__networkName":"الطرق والقطاعات","__layerId":"admin_boundaries","__layerName":"التقسيم الإداري","__assetName":"الأحياء/المراحل","__geometryKind":"polygon","__featureIndex":5,"__length_m":8091.91,"__area_m2":3972966.39,"__typeValue":"الحي 13"},"geometry":{"type":"Polygon","coordinates":[[[31.548849277634417,30.27017317730041],[31.547824456202083,30.269547492820113],[31.54759848678901,30.269974596123983],[31.547365181733312,30.27039874473987],[31.54712459223898,30.270819845606187],[31.546876771306582,30.27123780488688],[31.546621773733406,30.271652530298716],[31.546359657011596,30.272063929559867],[31.546090478633335,30.27247191271702],[31.54581429788744,30.272876387490765],[31.545531176757663,30.273277266257487],[31.545241177227748,30.273674458291595],[31.544944363976416,30.274067877523155],[31.544640802580652,30.274457435556094],[31.544330560414142,30.27484304709814],[31.544013706647128,30.27522462530658],[31.543690310449893,30.275602087218463],[31.543360444585986,30.275975348319896],[31.543024181818954,30.27634432642526],[31.542681595810613,30.276708939349547],[31.542332763816123,30.27706910645995],[31.54197776129394,30.27742474790015],[31.541616669092438,30.277775785365765],[31.541249566263378,30.278122141328716],[31.54087653365512,30.278463738261426],[31.540497654811016,30.278800500963932],[31.540113012376,30.279132355012468],[31.539722693486762,30.279459226759144],[31.53932678348315,30.279781044107988],[31.538925369501825,30.2800977349632],[31.538518541374263,30.28040922955623],[31.538106389830336,30.280715459670265],[31.537689004701548,30.28101635631262],[31.537266479412736,30.281311853593703],[31.540296854395557,30.284566444550677],[31.540523746378444,30.28480450138468],[31.540701366666305,30.28498339813524],[31.54088255865572,30.28515957566526],[31.54106726575288,30.285332981240707],[31.541255432262194,30.285503565230293],[31.54144699979315,30.285671271021688],[31.54164191354857,30.285836050535316],[31.5418401106463,30.285997851813296],[31.542041532695958,30.286156625224784],[31.542246117713688,30.286312325017686],[31.542453802817505,30.286464901561207],[31.542664526023604,30.28661430832757],[31.542878220856633,30.286760500340225],[31.54309482443457,30.286903433398415],[31.54611880520921,30.28886363740544],[31.54640315972587,30.289059176897208],[31.546679479710615,30.289263208213587],[31.546947426498622,30.28947548308245],[31.547206675798062,30.28969574547498],[31.54970015737997,30.291889419716053],[31.561617590621406,30.281686205398383],[31.562480002040235,30.280920532332324],[31.54883320138409,30.27020239067196],[31.548849277634417,30.27017317730041]]]}},{"type":"Feature","properties":{"المرحلة":"حي 37","GlobalID":"{3837D485-3B81-429A-B5B0-4FA41502AFE1}","SHAPE_Length":7180.304513736176,"SHAPE_Area":2635337.170842587,"__networkId":"roads","__networkName":"الطرق والقطاعات","__layerId":"admin_boundaries","__layerName":"التقسيم الإداري","__assetName":"الأحياء/المراحل","__geometryKind":"polygon","__featureIndex":6,"__length_m":7180.3,"__area_m2":2635337.17,"__typeValue":"حي 37"},"geometry":{"type":"Polygon","coordinates":[[[31.53781256707057,30.260485448014627],[31.537065621505093,30.260491155636373],[31.536836872704505,30.26379446678546],[31.53644090161546,30.279120779025],[31.53643607856071,30.279192254248038],[31.536425327523386,30.279263245341408],[31.536408702402436,30.279333386920886],[31.53637139177542,30.279439965316545],[31.536354756773,30.27947706699883],[31.536316388828876,30.27954939375032],[31.53627143174217,30.27961883306014],[31.53624657086669,30.27965232893157],[31.536192286572394,30.279716605473787],[31.53616294939185,30.27974728141856],[31.536132211737772,30.279776917833534],[31.536066733536703,30.27983287891341],[31.536032098092612,30.279859114367774],[31.535959313893354,30.2799078825515],[31.537266479412736,30.281311853593703],[31.537783136465233,30.280949472543355],[31.538292035666963,30.280578994375798],[31.538605725567532,30.28034358968711],[31.53891629292419,30.280105117083707],[31.539223697312732,30.27986360679781],[31.53952789830896,30.279619090613284],[31.539828857285332,30.279371599538322],[31.540126535614306,30.27912116613252],[31.540420893769973,30.278867822179883],[31.540711894921415,30.278611601791802],[31.540999500441103,30.278352536752486],[31.541283672599782,30.2780906611734],[31.541564375464798,30.27782600916628],[31.541841572205286,30.277558614067154],[31.54211522778691,30.277288511539563],[31.542385305378758,30.277015736471427],[31.54265177174318,30.276740323750694],[31.54291459004922,30.27646230826574],[31.543173727957555,30.27618172800811],[31.54342915223048,30.275898617866403],[31.543680828732057,30.27561301428113],[31.543928725122914,30.275324955244603],[31.544172809063724,30.275034477197647],[31.544413049113416,30.2747416181331],[31.544649414729296,30.274446416044093],[31.544881874470295,30.274148908923905],[31.545110398692078,30.273849135542],[31.54533495775017,30.273547133892407],[31.545555522898496,30.273242944296783],[31.545772064492702,30.27293660552566],[31.54598455558325,30.27262815712555],[31.546192968322416,30.272317639419224],[31.546397275760743,30.272005091954117],[31.546597450948795,30.27169055582953],[31.546866082253022,30.271254769158777],[31.546997437507127,30.271035530583735],[31.547126808382785,30.270815413277067],[31.547379565557634,30.27037259597768],[31.547624291793866,30.269926424279678],[31.547743623996194,30.269702114169032],[31.547860926904306,30.26947700675533],[31.548089414295145,30.269024452754437],[31.54820058530314,30.26879703486288],[31.548416746909965,30.268339983218404],[31.548677928485564,30.267758623374593],[31.548829279339564,30.267405287677953],[31.548975756833148,30.267050422261715],[31.54911733850845,30.266694075988692],[31.54925400550083,30.266336300050167],[31.54938573804736,30.26597714486208],[31.549512518181714,30.265616660841026],[31.549634327937635,30.26525489995615],[31.549751149348744,30.264891911849546],[31.549862966245417,30.264527749267724],[31.549969762457984,30.264162462630033],[31.550071523613347,30.26379610313253],[31.55016823533853,30.263428724299764],[31.550259884158766,30.26306037655335],[31.550346455701018,30.262691112643374],[31.5504279391855,30.262320984544786],[31.547642458423834,30.262050746980712],[31.54727756904363,30.262025721828447],[31.546913188109876,30.261995668049934],[31.546549409945683,30.26196059339946],[31.546186326179214,30.261920507182587],[31.545824030235227,30.26187541870399],[31.545462613741936,30.261825339595294],[31.545102168327436,30.26177028226336],[31.544742787416563,30.26171026221786],[31.544384560840797,30.261645293416002],[31.544027582025,30.26157539291786],[31.543671939902346,30.26150057855882],[31.54331772610098,30.26142086972517],[31.542965031350736,30.26133628502685],[31.542613944584907,30.26124684850435],[31.54226455563491,30.26115258109406],[31.541668881871693,30.260983392540528],[31.541419161900798,30.2609177885631],[31.54116790311584,30.26085672439647],[31.54091521600957,30.26080022643004],[31.54066121287141,30.260748319500916],[31.540406004194146,30.260701026893823],[31.540149703165483,30.26065836956487],[31.539892422973146,30.260620366142145],[31.53963427590658,30.260587032925223],[31.539375376051808,30.260558384661174],[31.539115837494872,30.260534434544613],[31.5388557743218,30.260515192665835],[31.538595300618645,30.260500668338643],[31.538334531369788,30.260490866220554],[31.53807358245784,30.260485792520345],[31.53781256707057,30.260485448014627]]]}}]}