{"type":"FeatureCollection","features":[{"type":"Feature","properties":{"Gas_Facility_Type":"غرفة","Easting":"031° 34' 2.78\" E","Northing":"30° 16' 28.07\" N","Description":null,"GlobalID":"{9F2E54C9-7C31-4427-A5A1-DFA6E935C758}","sectors":"القطاع الاول","Implementing":"غاز مصر","ID":"1","SHAPE_Length":11.702327594282494,"SHAPE_Area":8.31667374596698,"__networkId":"gas","__networkName":"شبكة الغاز","__layerId":"gas_facilities","__layerName":"منشآت الغاز","__assetName":"منشآت الغاز","__geometryKind":"polygon","__featureIndex":1,"__length_m":11.7,"__area_m2":8.32,"__typeValue":"غرفة"},"geometry":{"type":"Polygon","coordinates":[[[31.569135553504946,30.274627008187334],[31.569118871790113,30.27461415392229],[31.569098159334605,30.274632194423887],[31.569112663533204,30.274646013784118],[31.569135553504946,30.274627008187334]]]}},{"type":"Feature","properties":{"Gas_Facility_Type":"غرفة","Easting":"031° 33' 51.85\" E","Northing":"30° 16' 36.42\" N","Description":null,"GlobalID":"{42884D5D-2519-49E8-A984-50FC67551976}","sectors":"القطاع الاول","Implementing":"غاز مصر","ID":"2","SHAPE_Length":8.428244733162064,"SHAPE_Area":4.155772599157569,"__networkId":"gas","__networkName":"شبكة الغاز","__layerId":"gas_facilities","__layerName":"منشآت الغاز","__assetName":"منشآت الغاز","__geometryKind":"polygon","__featureIndex":2,"__length_m":8.43,"__area_m2":4.16,"__typeValue":"غرفة"},"geometry":{"type":"Polygon","coordinates":[[[31.56609367289997,30.27694768164515],[31.566083293765175,30.276939120871567],[31.566067177988977,30.276954263393872],[31.56607738734219,30.276962448686884],[31.56609367289997,30.27694768164515]]]}},{"type":"Feature","properties":{"Gas_Facility_Type":"غرفة","Easting":"031° 33' 35.96\" E","Northing":"30° 16' 44.09\" N","Description":null,"GlobalID":"{E5A686A5-1D2A-4E58-8DC5-42ECF751CF79}","sectors":"القطاع الثالث","Implementing":"غاز مصر","ID":"3","SHAPE_Length":12.806048953833402,"SHAPE_Area":9.712354995514357,"__networkId":"gas","__networkName":"شبكة الغاز","__layerId":"gas_facilities","__layerName":"منشآت الغاز","__assetName":"منشآت الغاز","__geometryKind":"polygon","__featureIndex":3,"__length_m":12.81,"__area_m2":9.71,"__typeValue":"غرفة"},"geometry":{"type":"Polygon","coordinates":[[[31.561683631167824,30.279091715703498],[31.56168609434833,30.279073420794337],[31.5616519260282,30.279067245689575],[31.561648445056445,30.279087058775545],[31.561683631167824,30.279091715703498]]]}},{"type":"Feature","properties":{"Gas_Facility_Type":"غرفة","Easting":"031° 33' 10.42\" E","Northing":"30° 16' 6.78\" N","Description":null,"GlobalID":"{5D7A1629-9E46-4A73-9A31-F4137FB649D2}","sectors":"القطاع الثالث","Implementing":"غاز مصر","ID":"4","SHAPE_Length":11.30595828129282,"SHAPE_Area":7.716878057970293,"__networkId":"gas","__networkName":"شبكة الغاز","__layerId":"gas_facilities","__layerName":"منشآت الغاز","__assetName":"منشآت الغاز","__geometryKind":"polygon","__featureIndex":4,"__length_m":11.31,"__area_m2":7.72,"__typeValue":"غرفة"},"geometry":{"type":"Polygon","coordinates":[[[31.554575823771636,30.26873121266146],[31.554586753573687,30.26870675713319],[31.55456723947077,30.268700725684095],[31.554556530654274,30.26872472734238],[31.554575823771636,30.26873121266146]]]}},{"type":"Feature","properties":{"Gas_Facility_Type":"غرفة","Easting":"031° 33' 19.09\" E","Northing":"30° 15' 51.72\" N","Description":null,"GlobalID":"{D9773A5D-814C-47F4-B414-B288200E2422}","sectors":"القطاع الثاني","Implementing":"غاز مصر","ID":"5","SHAPE_Length":12.539927977804252,"SHAPE_Area":9.305925222541493,"__networkId":"gas","__networkName":"شبكة الغاز","__layerId":"gas_facilities","__layerName":"منشآت الغاز","__assetName":"منشآت الغاز","__geometryKind":"polygon","__featureIndex":5,"__length_m":12.54,"__area_m2":9.31,"__typeValue":"غرفة"},"geometry":{"type":"Polygon","coordinates":[[[31.55699864477162,30.264527906771693],[31.556984316642815,30.264515357657633],[31.556958714657238,30.264534363660406],[31.55697368957302,30.264549563183945],[31.55699864477162,30.264527906771693]]]}},{"type":"Feature","properties":{"Gas_Facility_Type":"غرفة","Easting":"031° 30' 40.34\" E","Northing":"30° 16' 10.77\" N","Description":null,"GlobalID":"{361BAB96-092F-45BD-8602-FCEAD66B0C59}","sectors":"القطاع الرابع عشر","Implementing":"غاز مصر","ID":"6","SHAPE_Length":8.420582330746424,"SHAPE_Area":4.347007995155462,"__networkId":"gas","__networkName":"شبكة الغاز","__layerId":"gas_facilities","__layerName":"منشآت الغاز","__assetName":"منشآت الغاز","__geometryKind":"polygon","__featureIndex":6,"__length_m":8.42,"__area_m2":4.35,"__typeValue":"غرفة"},"geometry":{"type":"Polygon","coordinates":[[[31.512877460197377,30.269834768145188],[31.512892775574663,30.269830260515107],[31.51288547316972,30.26981289721523],[31.512869803856216,30.269817342003094],[31.512877460197377,30.269834768145188]]]}},{"type":"Feature","properties":{"Gas_Facility_Type":"غرفة","Easting":"031° 29' 56.96\" E","Northing":"30° 16' 23.34\" N","Description":null,"GlobalID":"{E8696A19-DFB8-4F07-A108-819C08342D05}","sectors":"القطاع الخامس عشر","Implementing":"غاز مصر","ID":"7","SHAPE_Length":8.43456319981923,"SHAPE_Area":4.365700852191495,"__networkId":"gas","__networkName":"شبكة الغاز","__layerId":"gas_facilities","__layerName":"منشآت الغاز","__assetName":"منشآت الغاز","__geometryKind":"polygon","__featureIndex":7,"__length_m":8.43,"__area_m2":4.37,"__typeValue":"غرفة"},"geometry":{"type":"Polygon","coordinates":[[[31.500836505011115,30.273304323498145],[31.500821265990623,30.273309992359962],[31.50082978201951,30.273327061784222],[31.500844634764412,30.273321467401423],[31.500836505011115,30.273304323498145]]]}},{"type":"Feature","properties":{"Gas_Facility_Type":"غرفة","Easting":"031° 31' 13.68\" E","Northing":"30° 16' 24.95\" N","Description":null,"GlobalID":"{BF25AFA3-5384-4584-83EF-F68A247AAEA0}","sectors":"القطاع الثالث عشر","Implementing":"غاز مصر","ID":"8","SHAPE_Length":8.576906578943918,"SHAPE_Area":4.516570976687532,"__networkId":"gas","__networkName":"شبكة الغاز","__layerId":"gas_facilities","__layerName":"منشآت الغاز","__assetName":"منشآت الغاز","__geometryKind":"polygon","__featureIndex":8,"__length_m":8.58,"__area_m2":4.52,"__typeValue":"غرفة"},"geometry":{"type":"Polygon","coordinates":[[[31.52215652438135,30.273759893508505],[31.522135984402386,30.273753129230432],[31.522130016893968,30.27376649409044],[31.522150152631042,30.27377335068883],[31.52215652438135,30.273759893508505]]]}},{"type":"Feature","properties":{"Gas_Facility_Type":"غرفة","Easting":"031° 31' 26.08\" E","Northing":"30° 16' 14.73\" N","Description":null,"GlobalID":"{16723605-69B0-45DF-8DED-1867C30919B9}","sectors":"القطاع السابع عشر","Implementing":"غاز مصر","ID":"9","SHAPE_Length":11.350157429278479,"SHAPE_Area":8.041161467375035,"__networkId":"gas","__networkName":"شبكة الغاز","__layerId":"gas_facilities","__layerName":"منشآت الغاز","__assetName":"منشآت الغاز","__geometryKind":"polygon","__featureIndex":9,"__length_m":11.35,"__area_m2":8.04,"__typeValue":"غرفة"},"geometry":{"type":"Polygon","coordinates":[[[31.52560392696348,30.27091745920603],[31.52557826838402,30.2709115908174],[31.525572735660162,30.270932287669922],[31.52559776092737,30.270938258467027],[31.52560392696348,30.27091745920603]]]}},{"type":"Feature","properties":{"Gas_Facility_Type":"غرفة","Easting":"031° 31' 34.62\" E","Northing":"30° 16' 5.47\" N","Description":null,"GlobalID":"{E6BDEC8A-266C-462D-8257-06624C91D36B}","sectors":"القطاع السابع عشر","Implementing":"غاز مصر","ID":"10","SHAPE_Length":11.384974342586974,"SHAPE_Area":7.897753805780661,"__networkId":"gas","__networkName":"شبكة الغاز","__layerId":"gas_facilities","__layerName":"منشآت الغاز","__assetName":"منشآت الغاز","__geometryKind":"polygon","__featureIndex":10,"__length_m":11.38,"__area_m2":7.9,"__typeValue":"غرفة"},"geometry":{"type":"Polygon","coordinates":[[[31.52797644859576,30.268356644633112],[31.527968075398984,30.268339575896228],[31.527940671392926,30.268349311283412],[31.527949118251534,30.268366460707153],[31.52797644859576,30.268356644633112]]]}},{"type":"Feature","properties":{"Gas_Facility_Type":"غرفة","Easting":"031° 31' 54.29\" E","Northing":"30° 16' 4.67\" N","Description":null,"GlobalID":"{F067A0AA-3747-4887-AC1C-45FE8032F8EC}","sectors":"القطاع السادس عشر","Implementing":"غاز مصر","ID":"11","SHAPE_Length":11.819683412777952,"SHAPE_Area":8.383688726906065,"__networkId":"gas","__networkName":"شبكة الغاز","__layerId":"gas_facilities","__layerName":"منشآت الغاز","__assetName":"منشآت الغاز","__geometryKind":"polygon","__featureIndex":11,"__length_m":11.82,"__area_m2":8.38,"__typeValue":"غرفة"},"geometry":{"type":"Polygon","coordinates":[[[31.53343904544799,30.268120586842347],[31.533407067220484,30.268120202794854],[31.533406769878145,30.268138308109915],[31.53343844986495,30.268139179393216],[31.53343904544799,30.268120586842347]]]}},{"type":"Feature","properties":{"Gas_Facility_Type":"غرفة","Easting":"031° 31' 47.72\" E","Northing":"30° 16' 36.85\" N","Description":null,"GlobalID":"{4C922E53-3420-438B-8C61-453A38B66559}","sectors":"القطاع الثاني عشر","Implementing":"غاز مصر","ID":"12","SHAPE_Length":12.566117230756518,"SHAPE_Area":9.281628068229539,"__networkId":"gas","__networkName":"شبكة الغاز","__layerId":"gas_facilities","__layerName":"منشآت الغاز","__assetName":"منشآت الغاز","__geometryKind":"polygon","__featureIndex":12,"__length_m":12.57,"__area_m2":9.28,"__typeValue":"غرفة"},"geometry":{"type":"Polygon","coordinates":[[[31.531610221954903,30.277084878121922],[31.531617676175124,30.277067880723205],[31.531585198484358,30.27705634871189],[31.531577561007804,30.277073843389303],[31.531610221954903,30.277084878121922]]]}},{"type":"Feature","properties":{"Gas_Facility_Type":"غرفة","Easting":"031° 29' 13.72\" E","Northing":"30° 16' 36.44\" N","Description":null,"GlobalID":"{040158A4-1FF1-42ED-BD04-60A301AFA2CE}","sectors":"القطاع الخامس عشر","Implementing":"غاز مصر","ID":"13","SHAPE_Length":18.17777715214007,"SHAPE_Area":18.527956812913224,"__networkId":"gas","__networkName":"شبكة الغاز","__layerId":"gas_facilities","__layerName":"منشآت الغاز","__assetName":"منشآت الغاز","__geometryKind":"polygon","__featureIndex":13,"__length_m":18.18,"__area_m2":18.53,"__typeValue":"غرفة"},"geometry":{"type":"Polygon","coordinates":[[[31.488799718906083,30.27697479295459],[31.488851233694373,30.276961556535735],[31.48884370850722,30.27693836680975],[31.48879196644517,30.276951928285047],[31.488799718906083,30.27697479295459]]]}},{"type":"Feature","properties":{"Gas_Facility_Type":"غرفة","Easting":"031° 29' 13.49\" E","Northing":"30° 16' 36.51\" N","Description":null,"GlobalID":"{5F768262-3B5E-4B65-94EB-86147A1AD632}","sectors":"القطاع الخامس عشر","Implementing":"غاز مصر","ID":"14","SHAPE_Length":18.12939378846283,"SHAPE_Area":20.434802409152706,"__networkId":"gas","__networkName":"شبكة الغاز","__layerId":"gas_facilities","__layerName":"منشآت الغاز","__assetName":"منشآت الغاز","__geometryKind":"polygon","__featureIndex":14,"__length_m":18.13,"__area_m2":20.43,"__typeValue":"غرفة"},"geometry":{"type":"Polygon","coordinates":[[[31.488779982919286,30.276987431242617],[31.48876781164548,30.2769514589359],[31.48873144874111,30.276960298990495],[31.488743756558808,30.27699669564747],[31.488779982919286,30.276987431242617]]]}}]}