{"type":"FeatureCollection","features":[{"type":"Feature","properties":{"GlobalID":"{A97B0C1E-BA1B-4F94-8504-4436DE507F1C}","Room_Id":1,"Room_type":"غرفة الري","Installation_Date":"2021-09-21 00:00:00+00:00","Room_contents":"غرفة رقم 36","sectors":"القطاع الاول","Implementing":"اولاد حجازي","Start":"21/09/2021","End_":"20/09/2022","shape_room":"مستطيل","SHAPE_Length":76.82855632580119,"SHAPE_Area":366.7125117961363,"__networkId":"irrigation","__networkName":"شبكة الري","__layerId":"irrigation_rooms","__layerName":"غرف شبكة الري","__assetName":"غرف الري","__geometryKind":"polygon","__featureIndex":1,"__length_m":76.83,"__area_m2":366.71,"__typeValue":"غرفة الري"},"geometry":{"type":"Polygon","coordinates":[[[31.56564761444563,30.270896090480292],[31.56576876663474,30.270774373297975],[31.565648619660447,30.27068412609252],[31.565527465674712,30.270805841835035],[31.56564761444563,30.270896090480292]]]}},{"type":"Feature","properties":{"GlobalID":"{3B4432C7-1379-4B6E-9B5A-0905D22E970A}","Room_Id":2,"Room_type":"غرفة الري","Installation_Date":"2021-09-21 00:00:00+00:00","Room_contents":"غرفة رقم 37","sectors":"القطاع الاول","Implementing":"اولاد حجازي","Start":"21/09/2021","End_":"20/09/2022","shape_room":"مستطيل","SHAPE_Length":76.81700679733947,"SHAPE_Area":366.698131060635,"__networkId":"irrigation","__networkName":"شبكة الري","__layerId":"irrigation_rooms","__layerName":"غرف شبكة الري","__assetName":"غرف الري","__geometryKind":"polygon","__featureIndex":2,"__length_m":76.82,"__area_m2":366.7,"__typeValue":"غرفة الري"},"geometry":{"type":"Polygon","coordinates":[[[31.56308729910493,30.269120277488014],[31.563007888033784,30.26923973125492],[31.563168467280736,30.26932001329682],[31.563247878351852,30.269200558851743],[31.56308729910493,30.269120277488014]]]}},{"type":"Feature","properties":{"GlobalID":"{674969BF-9633-427F-8789-74EFDC4C9E09}","Room_Id":3,"Room_type":"غرفة الري","Installation_Date":"2021-09-21 00:00:00+00:00","Room_contents":"غرفة نموذج 1 قفل و تقاطع","sectors":"القطاع الثالث","Implementing":"التوحيد","Start":"15/09/2021","End_":"15/03/2023","shape_room":"مستطيل","SHAPE_Length":48.13794270583726,"SHAPE_Area":144.60598601408344,"__networkId":"irrigation","__networkName":"شبكة الري","__layerId":"irrigation_rooms","__layerName":"غرف شبكة الري","__assetName":"غرف الري","__geometryKind":"polygon","__featureIndex":3,"__length_m":48.14,"__area_m2":144.61,"__typeValue":"غرفة الري"},"geometry":{"type":"Polygon","coordinates":[[[31.564820894889678,30.279076399739164],[31.56475388506106,30.279144958113186],[31.564839403777775,30.279207850245694],[31.56490641360639,30.279139293467235],[31.564820894889678,30.279076399739164]]]}},{"type":"Feature","properties":{"GlobalID":"{9BAAC50D-AD62-4711-A75F-45B8BFF5F74F}","Room_Id":4,"Room_type":"غرفة الري","Installation_Date":"2021-09-21 00:00:00+00:00","Room_contents":"غرفة نموذج 2 تقاطع و هواء","sectors":"القطاع الثالث","Implementing":"التوحيد","Start":"15/09/2021","End_":"15/03/2023","shape_room":"مستطيل","SHAPE_Length":41.33619194118546,"SHAPE_Area":106.69616239940261,"__networkId":"irrigation","__networkName":"شبكة الري","__layerId":"irrigation_rooms","__layerName":"غرف شبكة الري","__assetName":"غرف الري","__geometryKind":"polygon","__featureIndex":4,"__length_m":41.34,"__area_m2":106.7,"__typeValue":"غرفة الري"},"geometry":{"type":"Polygon","coordinates":[[[31.556898679348485,30.276287493696625],[31.556840043614947,30.276346909800832],[31.55691126564392,30.276401549342324],[31.556969904072417,30.276342133271196],[31.556898679348485,30.276287493696625]]]}},{"type":"Feature","properties":{"GlobalID":"{595EC7E2-A4F0-4D20-B013-BEEB79BF7F5C}","Room_Id":5,"Room_type":"غرفة الري","Installation_Date":"2021-09-21 00:00:00+00:00","Room_contents":"غرفة نموذج 4 قفل و تقاطع","sectors":"القطاع الثالث","Implementing":"التوحيد","Start":"15/09/2021","End_":"15/03/2023","shape_room":"مستطيل","SHAPE_Length":39.69771642740402,"SHAPE_Area":97.39540048770567,"__networkId":"irrigation","__networkName":"شبكة الري","__layerId":"irrigation_rooms","__layerName":"غرف شبكة الري","__assetName":"غرف الري","__geometryKind":"polygon","__featureIndex":5,"__length_m":39.7,"__area_m2":97.4,"__typeValue":"غرفة الري"},"geometry":{"type":"Polygon","coordinates":[[[31.557293291286488,30.26921534490348],[31.557267346144453,30.2692804941233],[31.55736009719753,30.269309219754575],[31.557386043237894,30.269244070553817],[31.557293291286488,30.26921534490348]]]}},{"type":"Feature","properties":{"GlobalID":"{91A5C917-FAE4-42B8-B28F-A5D633AEAFB5}","Room_Id":6,"Room_type":"غرفة الري","Installation_Date":"2021-09-21 00:00:00+00:00","Room_contents":"نموذج غرفة قفل و تقاطع 110/160/160","sectors":"القطاع الثاني","Implementing":"عوض خليفة","Start":"18/09/2021","End_":"28/10/2023","shape_room":"مستطيل","SHAPE_Length":39.69729269566869,"SHAPE_Area":97.39315270099114,"__networkId":"irrigation","__networkName":"شبكة الري","__layerId":"irrigation_rooms","__layerName":"غرف شبكة الري","__assetName":"غرف الري","__geometryKind":"polygon","__featureIndex":6,"__length_m":39.7,"__area_m2":97.39,"__typeValue":"غرفة الري"},"geometry":{"type":"Polygon","coordinates":[[[31.554574336161544,30.268273886058868],[31.554548388324548,30.26833903512754],[31.554641136682697,30.268367762586024],[31.55466708541799,30.26830261353636],[31.554574336161544,30.268273886058868]]]}},{"type":"Feature","properties":{"GlobalID":"{B690045B-A9D1-4019-A046-5923A591F542}","Room_Id":7,"Room_type":"غرفة الري","Installation_Date":"2021-09-21 00:00:00+00:00","Room_contents":"نموذج غرفة قفل و مناورة و تقاطع 225/160/160","sectors":"القطاع الثاني","Implementing":"عوض خليفة","Start":"18/09/2021","End_":"28/10/2023","shape_room":"مستطيل","SHAPE_Length":39.693341868028966,"SHAPE_Area":97.3840049251779,"__networkId":"irrigation","__networkName":"شبكة الري","__layerId":"irrigation_rooms","__layerName":"غرف شبكة الري","__assetName":"غرف الري","__geometryKind":"polygon","__featureIndex":7,"__length_m":39.69,"__area_m2":97.38,"__typeValue":"غرفة الري"},"geometry":{"type":"Polygon","coordinates":[[[31.559674148386264,30.26349376873484],[31.559661502802022,30.26356182202629],[31.55975856037859,30.263576266760005],[31.559771204166204,30.26350821503031],[31.559674148386264,30.26349376873484]]]}},{"type":"Feature","properties":{"GlobalID":"{9DC75650-CF0E-4F29-A94C-4CB5ED543AB4}","Room_Id":8,"Room_type":"غرفة الري","Installation_Date":"2021-09-21 00:00:00+00:00","Room_contents":"نموذج غرفة قفل و تقاطع 160/110/110","sectors":"القطاع الثاني","Implementing":"عوض خليفة","Start":"18/09/2021","End_":"28/10/2023","shape_room":"مستطيل","SHAPE_Length":39.698813045993305,"SHAPE_Area":97.38619526069262,"__networkId":"irrigation","__networkName":"شبكة الري","__layerId":"irrigation_rooms","__layerName":"غرف شبكة الري","__assetName":"غرف الري","__geometryKind":"polygon","__featureIndex":8,"__length_m":39.7,"__area_m2":97.39,"__typeValue":"غرفة الري"},"geometry":{"type":"Polygon","coordinates":[[[31.5657868955355,30.265552889469355],[31.56574816916359,30.265613069323656],[31.56583366182919,30.265655489410715],[31.565872385506136,30.265595309582412],[31.5657868955355,30.265552889469355]]]}},{"type":"Feature","properties":{"GlobalID":"{8DD3807A-28D7-4E38-9F24-3AEA23CC6A56}","Room_Id":9,"Room_type":"غرفة الري","Installation_Date":"2021-09-21 00:00:00+00:00","Room_contents":"نموذج غرفة هواء قطر 110مم","sectors":"القطاع الثاني","Implementing":"عوض خليفة","Start":"18/09/2021","End_":"28/10/2023","shape_room":"مستطيل","SHAPE_Length":39.706646347256196,"SHAPE_Area":97.39918538782472,"__networkId":"irrigation","__networkName":"شبكة الري","__layerId":"irrigation_rooms","__layerName":"غرف شبكة الري","__assetName":"غرف الري","__geometryKind":"polygon","__featureIndex":9,"__length_m":39.71,"__area_m2":97.4,"__typeValue":"غرفة الري"},"geometry":{"type":"Polygon","coordinates":[[[31.568758852177073,30.27095824853184],[31.56870453554341,30.271008538663317],[31.56877571175833,30.2710676150462],[31.568830025697036,30.271017324945042],[31.568758852177073,30.27095824853184]]]}},{"type":"Feature","properties":{"GlobalID":"{2A933C3C-E5D6-4058-91E7-7E6B72A8FF13}","Room_Id":10,"Room_type":"غرفة الري","Installation_Date":"2021-09-21 00:00:00+00:00","Room_contents":"نموذج غرفة قفل و تقاطع 110/110/110","sectors":"القطاع الاول","Implementing":"اولاد حجازي","Start":"21/09/2021","End_":"20/09/2022","shape_room":"مستطيل","SHAPE_Length":39.69952992136664,"SHAPE_Area":97.39573305881407,"__networkId":"irrigation","__networkName":"شبكة الري","__layerId":"irrigation_rooms","__layerName":"غرف شبكة الري","__assetName":"غرف الري","__geometryKind":"polygon","__featureIndex":10,"__length_m":39.7,"__area_m2":97.4,"__typeValue":"غرفة الري"},"geometry":{"type":"Polygon","coordinates":[[[31.559187204908433,30.269840080321057],[31.559153546831347,30.269902515240084],[31.559242324635935,30.269939508806996],[31.559275982713014,30.26987707313565],[31.559187204908433,30.269840080321057]]]}},{"type":"Feature","properties":{"GlobalID":"{CD742124-340F-4016-958E-5E05B5B85F83}","Room_Id":11,"Room_type":"غرفة الري","Installation_Date":"2025-03-02 00:00:00+00:00","Room_contents":"نموذج غرفة رقم 10","sectors":"القطاع الخامس","Implementing":"السلام","Start":"1/3/2022","End_":"3/2/2025","shape_room":"مستطيل","SHAPE_Length":13.103896811036536,"SHAPE_Area":10.665822986703901,"__networkId":"irrigation","__networkName":"شبكة الري","__layerId":"irrigation_rooms","__layerName":"غرف شبكة الري","__assetName":"غرف الري","__geometryKind":"polygon","__featureIndex":11,"__length_m":13.1,"__area_m2":10.67,"__typeValue":"غرفة الري"},"geometry":{"type":"Polygon","coordinates":[[[31.552070958738472,30.272971538935817],[31.552043237627107,30.27295819181128],[31.55203012671554,30.272978692726916],[31.552057846928573,30.272992041400215],[31.552070958738472,30.272971538935817]]]}},{"type":"Feature","properties":{"GlobalID":"{CD5A5EC9-7647-49CE-80ED-91613125F22D}","Room_Id":12,"Room_type":"غرفة الري","Installation_Date":"2025-03-02 00:00:00+00:00","Room_contents":"نموذج غرفة رقم 11","sectors":"القطاع الخامس","Implementing":"السلام","Start":"1/3/2022","End_":"3/2/2025","shape_room":"مستطيل","SHAPE_Length":29.36593324007787,"SHAPE_Area":50.6135729440389,"__networkId":"irrigation","__networkName":"شبكة الري","__layerId":"irrigation_rooms","__layerName":"غرف شبكة الري","__assetName":"غرف الري","__geometryKind":"polygon","__featureIndex":12,"__length_m":29.37,"__area_m2":50.61,"__typeValue":"غرفة الري"},"geometry":{"type":"Polygon","coordinates":[[[31.561563115884255,30.281483110942066],[31.561535667860745,30.28146215100857],[31.56146873169399,30.28149743900382],[31.561518331274094,30.281539521758155],[31.561563115884255,30.281483110942066]]]}},{"type":"Feature","properties":{"GlobalID":"{C16186C6-39BA-4EFA-9EB4-CA20E2F5FA4B}","Room_Id":13,"Room_type":"غرفة الري","Installation_Date":"2025-03-02 00:00:00+00:00","Room_contents":"نموذج غرفة رقم 12","sectors":"القطاع الخامس","Implementing":"السلام","Start":"1/3/2022","End_":"3/2/2025","shape_room":"مستطيل","SHAPE_Length":15.078862834204443,"SHAPE_Area":14.20710324597032,"__networkId":"irrigation","__networkName":"شبكة الري","__layerId":"irrigation_rooms","__layerName":"غرف شبكة الري","__assetName":"غرف الري","__geometryKind":"polygon","__featureIndex":13,"__length_m":15.08,"__area_m2":14.21,"__typeValue":"غرفة الري"},"geometry":{"type":"Polygon","coordinates":[[[31.558221428841417,30.28443906912201],[31.558196717984558,30.28441974970186],[31.5581737624358,30.284441867935882],[31.55819847598758,30.284461185800197],[31.558221428841417,30.28443906912201]]]}},{"type":"Feature","properties":{"GlobalID":"{167BB4D1-FC73-4A91-AAD9-5E6025E24752}","Room_Id":14,"Room_type":"غرفة محبس","Installation_Date":null,"Room_contents":"اتنين محبس","sectors":"القطاع الثالث عشر","Implementing":null,"Start":null,"End_":null,"shape_room":"مربعة","SHAPE_Length":97.24172324214942,"SHAPE_Area":590.506615382613,"__networkId":"irrigation","__networkName":"شبكة الري","__layerId":"irrigation_rooms","__layerName":"غرف شبكة الري","__assetName":"غرف الري","__geometryKind":"polygon","__featureIndex":14,"__length_m":97.24,"__area_m2":590.51,"__typeValue":"غرفة محبس"},"geometry":{"type":"Polygon","coordinates":[[[31.516447368729708,30.271532595352067],[31.516243715264938,30.27145070295081],[31.51615491500246,30.27161707428836],[31.516358570263893,30.271698968878272],[31.516447368729708,30.271532595352067]]]}},{"type":"Feature","properties":{"GlobalID":"{BC26A001-99A7-4A60-B642-F331961E072B}","Room_Id":15,"Room_type":"غرفة ربط","Installation_Date":null,"Room_contents":"اتنين محبس","sectors":"القطاع الثالث عشر","Implementing":null,"Start":null,"End_":null,"shape_room":"مربعة","SHAPE_Length":72.05867338172521,"SHAPE_Area":324.37280110858444,"__networkId":"irrigation","__networkName":"شبكة الري","__layerId":"irrigation_rooms","__layerName":"غرف شبكة الري","__assetName":"غرف الري","__geometryKind":"polygon","__featureIndex":15,"__length_m":72.06,"__area_m2":324.37,"__typeValue":"غرفة ربط"},"geometry":{"type":"Polygon","coordinates":[[[31.518366240245207,30.272186902749542],[31.518210911651092,30.27213794220439],[31.518157112447057,30.2722665229336],[31.518312441939468,30.272315485742052],[31.518366240245207,30.272186902749542]]]}},{"type":"Feature","properties":{"GlobalID":"{A22B1DC5-CE10-4DFD-B0AF-024BEFA9CA77}","Room_Id":16,"Room_type":"غرفة محبس","Installation_Date":null,"Room_contents":"اتنين محبس","sectors":"القطاع الثالث عشر","Implementing":null,"Start":null,"End_":null,"shape_room":"مربعة","SHAPE_Length":72.05928901338197,"SHAPE_Area":324.37841589329275,"__networkId":"irrigation","__networkName":"شبكة الري","__layerId":"irrigation_rooms","__layerName":"غرف شبكة الري","__assetName":"غرف الري","__geometryKind":"polygon","__featureIndex":16,"__length_m":72.06,"__area_m2":324.38,"__typeValue":"غرفة محبس"},"geometry":{"type":"Polygon","coordinates":[[[31.520136364224363,30.27281311115079],[31.519981032935316,30.27276415014217],[31.51992723642621,30.272892733930153],[31.52008256502029,30.272941694098822],[31.520136364224363,30.27281311115079]]]}},{"type":"Feature","properties":{"GlobalID":"{D4D668C8-2B62-41DE-A007-E12969523BB5}","Room_Id":17,"Room_type":"غرفة محبس","Installation_Date":null,"Room_contents":"اتنين محبس","sectors":"القطاع الثالث عشر","Implementing":null,"Start":null,"End_":null,"shape_room":"مربعة","SHAPE_Length":72.05987059709743,"SHAPE_Area":324.3835841113209,"__networkId":"irrigation","__networkName":"شبكة الري","__layerId":"irrigation_rooms","__layerName":"غرف شبكة الري","__assetName":"غرف الري","__geometryKind":"polygon","__featureIndex":17,"__length_m":72.06,"__area_m2":324.38,"__typeValue":"غرفة محبس"},"geometry":{"type":"Polygon","coordinates":[[[31.522539537272433,30.273653546342146],[31.522384204186768,30.273604590407608],[31.52233040947428,30.27373317309463],[31.52248574345828,30.273782131292442],[31.522539537272433,30.273653546342146]]]}},{"type":"Feature","properties":{"GlobalID":"{D4B48A3C-F1AD-40C1-9093-04C0793A742F}","Room_Id":18,"Room_type":"غرفة محبس","Installation_Date":null,"Room_contents":"اتنين محبس","sectors":"القطاع الثالث عشر","Implementing":null,"Start":null,"End_":null,"shape_room":"مستطيلة","SHAPE_Length":77.93449794941142,"SHAPE_Area":315.0289634841833,"__networkId":"irrigation","__networkName":"شبكة الري","__layerId":"irrigation_rooms","__layerName":"غرف شبكة الري","__assetName":"غرف الري","__geometryKind":"polygon","__featureIndex":18,"__length_m":77.93,"__area_m2":315.03,"__typeValue":"غرفة محبس"},"geometry":{"type":"Polygon","coordinates":[[[31.52198970363984,30.274872071336276],[31.521763427901252,30.274786081614042],[31.52172238836749,30.274867511958885],[31.521948665004402,30.274953502385582],[31.52198970363984,30.274872071336276]]]}},{"type":"Feature","properties":{"GlobalID":"{2578154F-C5B3-49C5-90F6-ACB7F26B1F17}","Room_Id":19,"Room_type":"غرفة محبس","Installation_Date":null,"Room_contents":"اتنين محبس","sectors":"القطاع الثالث عشر","Implementing":null,"Start":null,"End_":null,"shape_room":"مربعة","SHAPE_Length":72.06069274044091,"SHAPE_Area":324.39102092703195,"__networkId":"irrigation","__networkName":"شبكة الري","__layerId":"irrigation_rooms","__layerName":"غرف شبكة الري","__assetName":"غرف الري","__geometryKind":"polygon","__featureIndex":19,"__length_m":72.06,"__area_m2":324.39,"__typeValue":"غرفة محبس"},"geometry":{"type":"Polygon","coordinates":[[[31.526203037680965,30.274983545991276],[31.526047701002035,30.274934592271684],[31.525993912577764,30.275063178646924],[31.526149248358397,30.275112131526562],[31.526203037680965,30.274983545991276]]]}},{"type":"Feature","properties":{"GlobalID":"{6A7AA16F-8FEB-4FEE-9BF9-C57D82078072}","Room_Id":20,"Room_type":"غرفة محبس","Installation_Date":null,"Room_contents":"اتنين محبس","sectors":"القطاع الثاني عشر","Implementing":null,"Start":null,"End_":null,"shape_room":"مربعة","SHAPE_Length":72.06166658161268,"SHAPE_Area":324.39976041524676,"__networkId":"irrigation","__networkName":"شبكة الري","__layerId":"irrigation_rooms","__layerName":"غرف شبكة الري","__assetName":"غرف الري","__geometryKind":"polygon","__featureIndex":20,"__length_m":72.06,"__area_m2":324.4,"__typeValue":"غرفة محبس"},"geometry":{"type":"Polygon","coordinates":[[[31.528632587062408,30.275846625824475],[31.52847724679023,30.275797675638536],[31.52842345926429,30.275926262434613],[31.528578799536472,30.27597521255636],[31.528632587062408,30.275846625824475]]]}},{"type":"Feature","properties":{"GlobalID":"{103E473B-2D36-42B5-8E59-3FD42C67CBB5}","Room_Id":21,"Room_type":"غرفة محبس","Installation_Date":null,"Room_contents":"اتنين محبس","sectors":"القطاع الثالث عشر","Implementing":null,"Start":null,"End_":null,"shape_room":"مربعة","SHAPE_Length":72.06078725749458,"SHAPE_Area":324.3998311497044,"__networkId":"irrigation","__networkName":"شبكة الري","__layerId":"irrigation_rooms","__layerName":"غرف شبكة الري","__assetName":"غرف الري","__geometryKind":"polygon","__featureIndex":21,"__length_m":72.06,"__area_m2":324.4,"__typeValue":"غرفة محبس"},"geometry":{"type":"Polygon","coordinates":[[[31.51703098979677,30.276021017596964],[31.516867592534794,30.27599953671674],[31.516843987504064,30.276134794267904],[31.517007383867742,30.276156273566915],[31.51703098979677,30.276021017596964]]]}},{"type":"Feature","properties":{"GlobalID":"{CFF179AB-F6BD-4646-B3D4-53F93EF4758F}","Room_Id":22,"Room_type":"غرفة محبس","Installation_Date":null,"Room_contents":"محبس واحد","sectors":"القطاع الثالث عشر","Implementing":null,"Start":null,"End_":null,"shape_room":"مربعة","SHAPE_Length":32.70892132729584,"SHAPE_Area":65.01693568329223,"__networkId":"irrigation","__networkName":"شبكة الري","__layerId":"irrigation_rooms","__layerName":"غرف شبكة الري","__assetName":"غرف الري","__geometryKind":"polygon","__featureIndex":22,"__length_m":32.71,"__area_m2":65.02,"__typeValue":"غرفة محبس"},"geometry":{"type":"Polygon","coordinates":[[[31.518838528607496,30.276325155914336],[31.51875383454422,30.276313988436442],[31.518744682508093,30.27636628046086],[31.5188293774697,30.276377447932866],[31.518838528607496,30.276325155914336]]]}},{"type":"Feature","properties":{"GlobalID":"{361C8BF3-1539-4B04-8EFF-54125FA9A033}","Room_Id":23,"Room_type":"غرفة محبس","Installation_Date":null,"Room_contents":"اتنين محبس","sectors":"القطاع الثالث عشر","Implementing":null,"Start":null,"End_":null,"shape_room":"مربعة","SHAPE_Length":72.06113528889865,"SHAPE_Area":324.4024590249756,"__networkId":"irrigation","__networkName":"شبكة الري","__layerId":"irrigation_rooms","__layerName":"غرف شبكة الري","__assetName":"غرف الري","__geometryKind":"polygon","__featureIndex":23,"__length_m":72.06,"__area_m2":324.4,"__typeValue":"غرفة محبس"},"geometry":{"type":"Polygon","coordinates":[[[31.521387111950638,30.276572554595813],[31.521224188100796,30.276548516842865],[31.521197774038207,30.276683380314033],[31.521360697888014,30.276707420361355],[31.521387111950638,30.276572554595813]]]}},{"type":"Feature","properties":{"GlobalID":"{371EAC01-D70D-46F0-8510-B165F7ED00FB}","Room_Id":24,"Room_type":"غرفة محبس","Installation_Date":null,"Room_contents":"اتنين محبس","sectors":"القطاع الثاني عشر","Implementing":null,"Start":null,"End_":null,"shape_room":"مربعة","SHAPE_Length":72.06212104312316,"SHAPE_Area":324.40387752571263,"__networkId":"irrigation","__networkName":"شبكة الري","__layerId":"irrigation_rooms","__layerName":"غرف شبكة الري","__assetName":"غرف الري","__geometryKind":"polygon","__featureIndex":24,"__length_m":72.06,"__area_m2":324.4,"__typeValue":"غرفة محبس"},"geometry":{"type":"Polygon","coordinates":[[[31.53154583520691,30.276840931421702],[31.531390492239776,30.276791984059077],[31.531336710103716,30.276920572655552],[31.531492051274224,30.276969519178245],[31.53154583520691,30.276840931421702]]]}},{"type":"Feature","properties":{"GlobalID":"{A22B979B-DED6-480D-A74E-CEE596FAF651}","Room_Id":25,"Room_type":"غرفة محبس","Installation_Date":null,"Room_contents":"اتنين محبس","sectors":"القطاع الثالث عشر","Implementing":null,"Start":null,"End_":null,"shape_room":"مربعة","SHAPE_Length":97.24530271558632,"SHAPE_Area":590.5778466536475,"__networkId":"irrigation","__networkName":"شبكة الري","__layerId":"irrigation_rooms","__layerName":"غرف شبكة الري","__assetName":"غرف الري","__geometryKind":"polygon","__featureIndex":25,"__length_m":97.25,"__area_m2":590.58,"__typeValue":"غرفة محبس"},"geometry":{"type":"Polygon","coordinates":[[[31.514630453304044,30.277469389370594],[31.51440958093188,30.277434691846867],[31.51437195409789,30.277615119457],[31.514592826470054,30.277649816916938],[31.514630453304044,30.277469389370594]]]}},{"type":"Feature","properties":{"GlobalID":"{EB13E24A-5245-400A-8C7B-9AAA883AF7DE}","Room_Id":26,"Room_type":"غرفة ربط","Installation_Date":null,"Room_contents":"اتنين محبس","sectors":"القطاع الثالث عشر","Implementing":null,"Start":null,"End_":null,"shape_room":"مربعة","SHAPE_Length":72.06203409120945,"SHAPE_Area":324.41107465521395,"__networkId":"irrigation","__networkName":"شبكة الري","__layerId":"irrigation_rooms","__layerName":"غرف شبكة الري","__assetName":"غرف الري","__geometryKind":"polygon","__featureIndex":26,"__length_m":72.06,"__area_m2":324.41,"__typeValue":"غرفة ربط"},"geometry":{"type":"Polygon","coordinates":[[[31.516756806005755,30.277717789023882],[31.51659340604885,30.277696307739248],[31.51656980191642,30.277831564503526],[31.51673320007673,30.27785304653428],[31.516756806005755,30.277717789023882]]]}},{"type":"Feature","properties":{"GlobalID":"{4D8000FE-3557-4246-A46F-212CD135892D}","Room_Id":27,"Room_type":"غرفة محبس","Installation_Date":null,"Room_contents":"اتنين محبس","sectors":"القطاع الثالث عشر","Implementing":null,"Start":null,"End_":null,"shape_room":"مربعة","SHAPE_Length":72.06226757351192,"SHAPE_Area":324.41308163401646,"__networkId":"irrigation","__networkName":"شبكة الري","__layerId":"irrigation_rooms","__layerName":"غرف شبكة الري","__assetName":"غرف الري","__geometryKind":"polygon","__featureIndex":27,"__length_m":72.06,"__area_m2":324.41,"__typeValue":"غرفة محبس"},"geometry":{"type":"Polygon","coordinates":[[[31.52112981648695,30.278240269980486],[31.520966414733383,30.278218793464887],[31.52094281419424,30.27835405028478],[31.521106215947807,30.278375525995042],[31.52112981648695,30.278240269980486]]]}},{"type":"Feature","properties":{"GlobalID":"{A35A2035-E71C-4DE0-8036-9DBA85962709}","Room_Id":28,"Room_type":"غرفة محبس","Installation_Date":null,"Room_contents":"اتنين محبس","sectors":"القطاع الثاني عشر","Implementing":null,"Start":null,"End_":null,"shape_room":"مربعة","SHAPE_Length":72.06295162697711,"SHAPE_Area":324.4193467981489,"__networkId":"irrigation","__networkName":"شبكة الري","__layerId":"irrigation_rooms","__layerName":"غرف شبكة الري","__assetName":"غرف الري","__geometryKind":"polygon","__featureIndex":28,"__length_m":72.06,"__area_m2":324.42,"__typeValue":"غرفة محبس"},"geometry":{"type":"Polygon","coordinates":[[[31.53041159987131,30.279339904896915],[31.530248197219446,30.27931844025846],[31.530224609256692,30.27945369944155],[31.530388014603517,30.27947516405047],[31.53041159987131,30.279339904896915]]]}},{"type":"Feature","properties":{"GlobalID":"{99AA15E5-E474-4230-85A8-3DD05484B82B}","Room_Id":29,"Room_type":"غرفة ري","Installation_Date":null,"Room_contents":"2 محبس","sectors":"القطاع الرابع عشر","Implementing":null,"Start":null,"End_":null,"shape_room":"مربعة","SHAPE_Length":97.23914541638618,"SHAPE_Area":590.4910675045377,"__networkId":"irrigation","__networkName":"شبكة الري","__layerId":"irrigation_rooms","__layerName":"غرف شبكة الري","__assetName":"غرف الري","__geometryKind":"polygon","__featureIndex":29,"__length_m":97.24,"__area_m2":590.49,"__typeValue":"غرفة ري"},"geometry":{"type":"Polygon","coordinates":[[[31.510680596034067,30.27040677696417],[31.510615667601957,30.270232294529574],[31.510402087753288,30.27029217359441],[31.510467017982023,30.270466658250058],[31.510680596034067,30.27040677696417]]]}},{"type":"Feature","properties":{"GlobalID":"{8F9EB676-2698-4A7B-BDA0-5F638468E41B}","Room_Id":30,"Room_type":"غرفة ري","Installation_Date":null,"Room_contents":"3 محبس","sectors":"القطاع الرابع عشر","Implementing":null,"Start":null,"End_":null,"shape_room":"مربعة","SHAPE_Length":86.34096287729675,"SHAPE_Area":404.8658217908694,"__networkId":"irrigation","__networkName":"شبكة الري","__layerId":"irrigation_rooms","__layerName":"غرف شبكة الري","__assetName":"غرف الري","__geometryKind":"polygon","__featureIndex":30,"__length_m":86.34,"__area_m2":404.87,"__typeValue":"غرفة ري"},"geometry":{"type":"Polygon","coordinates":[[[31.508679371464925,30.270860984096892],[31.50864166018931,30.2707592220639],[31.50838967287064,30.270827488328326],[31.508427385044584,30.270929247963004],[31.508679371464925,30.270860984096892]]]}},{"type":"Feature","properties":{"GlobalID":"{671C8745-F835-4EFD-B04C-686A30592C87}","Room_Id":31,"Room_type":"غرفة ري","Installation_Date":null,"Room_contents":"3 محبس","sectors":"القطاع الرابع عشر","Implementing":null,"Start":null,"End_":null,"shape_room":"مربعة","SHAPE_Length":110.96779169462935,"SHAPE_Area":741.077035030701,"__networkId":"irrigation","__networkName":"شبكة الري","__layerId":"irrigation_rooms","__layerName":"غرف شبكة الري","__assetName":"غرف الري","__geometryKind":"polygon","__featureIndex":31,"__length_m":110.97,"__area_m2":741.08,"__typeValue":"غرفة ري"},"geometry":{"type":"Polygon","coordinates":[[[31.51094750706455,30.271180549477737],[31.51088863956566,30.271014367478823],[31.51060469018919,30.271090148255503],[31.510663559484716,30.271256332453596],[31.51094750706455,30.271180549477737]]]}},{"type":"Feature","properties":{"GlobalID":"{6EFB0A9F-4382-4E7A-B08C-BA83F2ABCF2B}","Room_Id":32,"Room_type":"غرفة ري","Installation_Date":null,"Room_contents":"2 محبس","sectors":"القطاع الرابع عشر","Implementing":null,"Start":null,"End_":null,"shape_room":"مربعة","SHAPE_Length":97.24050729368487,"SHAPE_Area":590.5074649849901,"__networkId":"irrigation","__networkName":"شبكة الري","__layerId":"irrigation_rooms","__layerName":"غرف شبكة الري","__assetName":"غرف الري","__geometryKind":"polygon","__featureIndex":32,"__length_m":97.24,"__area_m2":590.51,"__typeValue":"غرفة ري"},"geometry":{"type":"Polygon","coordinates":[[[31.506920088354647,30.271468293278353],[31.506855166210748,30.27129380652393],[31.506641580972165,30.27135368183789],[31.506706503116064,30.27152816615843],[31.506920088354647,30.271468293278353]]]}},{"type":"Feature","properties":{"GlobalID":"{37EDF3AC-7429-4C9A-B1E9-E75F16091853}","Room_Id":33,"Room_type":"غرفة ري","Installation_Date":null,"Room_contents":"2 محبس","sectors":"القطاع الخامس عشر","Implementing":null,"Start":null,"End_":null,"shape_room":"مربعة","SHAPE_Length":97.24109908024597,"SHAPE_Area":590.5148289458899,"__networkId":"irrigation","__networkName":"شبكة الري","__layerId":"irrigation_rooms","__layerName":"غرف شبكة الري","__assetName":"غرف الري","__geometryKind":"polygon","__featureIndex":33,"__length_m":97.24,"__area_m2":590.51,"__typeValue":"غرفة ري"},"geometry":{"type":"Polygon","coordinates":[[[31.504788521831017,30.272042474967396],[31.504723605077004,30.27186798690615],[31.5045100171435,30.271927856439152],[31.504574935694137,30.272102344393968],[31.504788521831017,30.272042474967396]]]}},{"type":"Feature","properties":{"GlobalID":"{7A2B368A-F6DB-4FD2-B945-39DFDF5EEC91}","Room_Id":34,"Room_type":"غرفة ري","Installation_Date":null,"Room_contents":"2 محبس","sectors":"القطاع الرابع عشر","Implementing":null,"Start":null,"End_":null,"shape_room":"مربعة","SHAPE_Length":97.2413883654195,"SHAPE_Area":590.5181570868,"__networkId":"irrigation","__networkName":"شبكة الري","__layerId":"irrigation_rooms","__layerName":"غرف شبكة الري","__assetName":"غرف الري","__geometryKind":"polygon","__featureIndex":34,"__length_m":97.24,"__area_m2":590.52,"__typeValue":"غرفة ري"},"geometry":{"type":"Polygon","coordinates":[[[31.50739534025906,30.272701268620807],[31.507330418115167,30.272526784058076],[31.507116829283326,30.272586658620018],[31.507181755020476,30.27276114307632],[31.50739534025906,30.272701268620807]]]}},{"type":"Feature","properties":{"GlobalID":"{4279B58E-AF7E-4F33-91EF-F0E516FEA7A3}","Room_Id":35,"Room_type":"غرفة ري","Installation_Date":null,"Room_contents":"2 محبس","sectors":"القطاع الخامس عشر","Implementing":null,"Start":null,"End_":null,"shape_room":"مربعة","SHAPE_Length":38.67385702821905,"SHAPE_Area":93.31402509885767,"__networkId":"irrigation","__networkName":"شبكة الري","__layerId":"irrigation_rooms","__layerName":"غرف شبكة الري","__assetName":"غرف الري","__geometryKind":"polygon","__featureIndex":35,"__length_m":38.67,"__area_m2":93.31,"__typeValue":"غرفة ري"},"geometry":{"type":"Polygon","coordinates":[[[31.501125074423086,30.27290441771476],[31.501099623354456,30.272836003162272],[31.501013541394027,30.27286013104333],[31.501038992462664,30.27292854480318],[31.501125074423086,30.27290441771476]]]}},{"type":"Feature","properties":{"GlobalID":"{AC18691C-AC0B-4782-9A12-3D5F86EE1A5A}","Room_Id":36,"Room_type":"غرفة ري","Installation_Date":null,"Room_contents":"2 محبس","sectors":"القطاع الخامس عشر","Implementing":null,"Start":null,"End_":null,"shape_room":"مربعة","SHAPE_Length":87.01676074543865,"SHAPE_Area":472.4069908360974,"__networkId":"irrigation","__networkName":"شبكة الري","__layerId":"irrigation_rooms","__layerName":"غرف شبكة الري","__assetName":"غرف الري","__geometryKind":"polygon","__featureIndex":36,"__length_m":87.02,"__area_m2":472.41,"__typeValue":"غرفة ري"},"geometry":{"type":"Polygon","coordinates":[[[31.499769559778493,30.273350931199143],[31.49971229487405,30.273196998313345],[31.49951860821734,30.273251281958682],[31.49957587042682,30.2734052132077],[31.499769559778493,30.273350931199143]]]}},{"type":"Feature","properties":{"GlobalID":"{48DE1E2A-119B-4A1E-BF91-1C8EACC4C2AF}","Room_Id":37,"Room_type":"غرفة ري","Installation_Date":null,"Room_contents":"2 محبس","sectors":"القطاع الخامس عشر","Implementing":null,"Start":null,"End_":null,"shape_room":"مربعة","SHAPE_Length":97.25445126558299,"SHAPE_Area":590.5321176979484,"__networkId":"irrigation","__networkName":"شبكة الري","__layerId":"irrigation_rooms","__layerName":"غرف شبكة الري","__assetName":"غرف الري","__geometryKind":"polygon","__featureIndex":37,"__length_m":97.25,"__area_m2":590.53,"__typeValue":"غرفة ري"},"geometry":{"type":"Polygon","coordinates":[[[31.499212787558648,30.273441208536923],[31.49914189521137,30.273256363533214],[31.498941458613604,30.27331427639631],[31.499012350960875,30.273499123618365],[31.499212787558648,30.273441208536923]]]}},{"type":"Feature","properties":{"GlobalID":"{857BAF3F-5CB2-427F-BFA9-A8A6F23BA26E}","Room_Id":38,"Room_type":"غرفة ري","Installation_Date":null,"Room_contents":"3 محبس","sectors":"القطاع الرابع عشر","Implementing":null,"Start":null,"End_":null,"shape_room":"مربعة","SHAPE_Length":111.06676636402113,"SHAPE_Area":741.1129526138941,"__networkId":"irrigation","__networkName":"شبكة الري","__layerId":"irrigation_rooms","__layerName":"غرف شبكة الري","__assetName":"غرف الري","__geometryKind":"polygon","__featureIndex":38,"__length_m":111.07,"__area_m2":741.11,"__typeValue":"غرفة ري"},"geometry":{"type":"Polygon","coordinates":[[[31.509290234841295,30.27326217902637],[31.50909227759372,30.273235621397728],[31.50904689829881,30.27349044694815],[31.50924485644472,30.273517005283658],[31.509290234841295,30.27326217902637]]]}},{"type":"Feature","properties":{"GlobalID":"{D0830954-9A32-4985-B042-079C486E6A7D}","Room_Id":39,"Room_type":"غرفة ري","Installation_Date":null,"Room_contents":"2 محبس","sectors":"القطاع الرابع عشر","Implementing":null,"Start":null,"End_":null,"shape_room":"مربعة","SHAPE_Length":97.25552893821398,"SHAPE_Area":590.5288847935728,"__networkId":"irrigation","__networkName":"شبكة الري","__layerId":"irrigation_rooms","__layerName":"غرف شبكة الري","__assetName":"غرف الري","__geometryKind":"polygon","__featureIndex":39,"__length_m":97.26,"__area_m2":590.53,"__typeValue":"غرفة ري"},"geometry":{"type":"Polygon","coordinates":[[[31.507369555017146,30.273647351501133],[31.50736520806949,30.27345257107034],[31.507153997078195,30.273456121182985],[31.507158343127553,30.273650901606654],[31.507369555017146,30.273647351501133]]]}},{"type":"Feature","properties":{"GlobalID":"{E87ABBD1-C5F1-4928-981D-D36F6ACECF0B}","Room_Id":40,"Room_type":"غرفة ري","Installation_Date":null,"Room_contents":"3 محبس","sectors":"القطاع الرابع عشر","Implementing":null,"Start":null,"End_":null,"shape_room":"مربعة","SHAPE_Length":111.06717625984385,"SHAPE_Area":741.1204270561958,"__networkId":"irrigation","__networkName":"شبكة الري","__layerId":"irrigation_rooms","__layerName":"غرف شبكة الري","__assetName":"غرف الري","__geometryKind":"polygon","__featureIndex":40,"__length_m":111.07,"__area_m2":741.12,"__typeValue":"غرفة ري"},"geometry":{"type":"Polygon","coordinates":[[[31.511101684916785,30.27347857238377],[31.510903725872545,30.27345201481362],[31.510858349272596,30.27370684135389],[31.511056311011764,30.27373339652763],[31.511101684916785,30.27347857238377]]]}},{"type":"Feature","properties":{"GlobalID":"{437411AF-1663-4FB1-9035-53B8C4B25B45}","Room_Id":41,"Room_type":"غرفة ري","Installation_Date":null,"Room_contents":"3 محبس","sectors":"القطاع الخامس عشر","Implementing":null,"Start":null,"End_":null,"shape_room":"مربعة","SHAPE_Length":110.96153204552606,"SHAPE_Area":741.117705769815,"__networkId":"irrigation","__networkName":"شبكة الري","__layerId":"irrigation_rooms","__layerName":"غرف شبكة الري","__assetName":"غرف الري","__geometryKind":"polygon","__featureIndex":41,"__length_m":110.96,"__area_m2":741.12,"__typeValue":"غرفة ري"},"geometry":{"type":"Polygon","coordinates":[[[31.505370613067157,30.27380545054844],[31.505360673208543,30.273631803495793],[31.505063965060067,30.273644595048875],[31.50507390402039,30.273818244406296],[31.505370613067157,30.27380545054844]]]}},{"type":"Feature","properties":{"GlobalID":"{1FC47E4C-96B6-441C-B376-0B60CCCBD6C1}","Room_Id":42,"Room_type":"غرفة ري","Installation_Date":null,"Room_contents":"2 محبس","sectors":"القطاع الخامس عشر","Implementing":null,"Start":null,"End_":null,"shape_room":"مربعة","SHAPE_Length":97.2427299270862,"SHAPE_Area":590.5345157979514,"__networkId":"irrigation","__networkName":"شبكة الري","__layerId":"irrigation_rooms","__layerName":"غرف شبكة الري","__assetName":"غرف الري","__geometryKind":"polygon","__featureIndex":42,"__length_m":97.24,"__area_m2":590.53,"__typeValue":"غرفة ري"},"geometry":{"type":"Polygon","coordinates":[[[31.497829570667324,30.273908471662534],[31.49776466199815,30.27373398148771],[31.4975510668781,30.273793840572885],[31.497615974648944,30.273968329865532],[31.497829570667324,30.273908471662534]]]}},{"type":"Feature","properties":{"GlobalID":"{96A5C643-8F8E-46C3-AAB6-7EE482DFA77C}","Room_Id":43,"Room_type":"غرفة ري","Installation_Date":null,"Room_contents":"3 محبس","sectors":"القطاع الرابع عشر","Implementing":null,"Start":null,"End_":null,"shape_room":"مربعة","SHAPE_Length":111.06712204055466,"SHAPE_Area":741.1186046962298,"__networkId":"irrigation","__networkName":"شبكة الري","__layerId":"irrigation_rooms","__layerName":"غرف شبكة الري","__assetName":"غرف الري","__geometryKind":"polygon","__featureIndex":43,"__length_m":111.07,"__area_m2":741.12,"__typeValue":"غرفة ري"},"geometry":{"type":"Polygon","coordinates":[[[31.513150606434248,30.273721234943235],[31.512952646491712,30.27369468054197],[31.5129072779766,30.273949508003874],[31.51310523791914,30.273976060008724],[31.513150606434248,30.273721234943235]]]}},{"type":"Feature","properties":{"GlobalID":"{9212F3A2-1026-4CC2-9E20-338368CFD37A}","Room_Id":44,"Room_type":"غرفة ري","Installation_Date":null,"Room_contents":"2 محبس","sectors":"القطاع الخامس عشر","Implementing":null,"Start":null,"End_":null,"shape_room":"مربعة","SHAPE_Length":97.25588551380808,"SHAPE_Area":590.5371887189099,"__networkId":"irrigation","__networkName":"شبكة الري","__layerId":"irrigation_rooms","__layerName":"غرف شبكة الري","__assetName":"غرف الري","__geometryKind":"polygon","__featureIndex":44,"__length_m":97.26,"__area_m2":590.54,"__typeValue":"غرفة ري"},"geometry":{"type":"Polygon","coordinates":[[[31.503632786217416,30.2741096678814],[31.503597407866565,30.27391728561377],[31.503388797498037,30.273946185220684],[31.503424173153935,30.274138568207437],[31.503632786217416,30.2741096678814]]]}},{"type":"Feature","properties":{"GlobalID":"{72DB0140-3440-4B54-B019-B9565E3CBC22}","Room_Id":45,"Room_type":"غرفة ري","Installation_Date":null,"Room_contents":"3 محبس","sectors":"القطاع الخامس عشر","Implementing":null,"Start":null,"End_":null,"shape_room":"مربعة","SHAPE_Length":110.97130343490791,"SHAPE_Area":741.1290907190626,"__networkId":"irrigation","__networkName":"شبكة الري","__layerId":"irrigation_rooms","__layerName":"غرف شبكة الري","__assetName":"غرف الري","__geometryKind":"polygon","__featureIndex":45,"__length_m":110.97,"__area_m2":741.13,"__typeValue":"غرفة ري"},"geometry":{"type":"Polygon","coordinates":[[[31.501804698444555,30.27428273611406],[31.501746685243496,30.27411632507364],[31.50146233970998,30.27419100336336],[31.501520354707665,30.27435741505293],[31.501804698444555,30.27428273611406]]]}},{"type":"Feature","properties":{"GlobalID":"{ED6E049F-70A1-4735-9229-DEE6C05B6E18}","Room_Id":46,"Room_type":"غرفة ري","Installation_Date":null,"Room_contents":"2 محبس","sectors":"القطاع الخامس عشر","Implementing":null,"Start":null,"End_":null,"shape_room":"مربعة","SHAPE_Length":97.2562923463152,"SHAPE_Area":590.5497979078151,"__networkId":"irrigation","__networkName":"شبكة الري","__layerId":"irrigation_rooms","__layerName":"غرف شبكة الري","__assetName":"غرف الري","__geometryKind":"polygon","__featureIndex":46,"__length_m":97.26,"__area_m2":590.55,"__typeValue":"غرفة ري"},"geometry":{"type":"Polygon","coordinates":[[[31.498145363523964,30.27487352440985],[31.498085504285008,30.274685761986394],[31.497881901125872,30.274734660748216],[31.4979417594665,30.274922423853926],[31.498145363523964,30.27487352440985]]]}},{"type":"Feature","properties":{"GlobalID":"{30CD13C2-C086-43B5-A8FC-CD21BE60B476}","Room_Id":47,"Room_type":"غرفة ري","Installation_Date":null,"Room_contents":"3 محبس","sectors":"القطاع الرابع عشر","Implementing":null,"Start":null,"End_":null,"shape_room":"مربعة","SHAPE_Length":110.96617208579579,"SHAPE_Area":741.1493868239507,"__networkId":"irrigation","__networkName":"شبكة الري","__layerId":"irrigation_rooms","__layerName":"غرف شبكة الري","__assetName":"غرف الري","__geometryKind":"polygon","__featureIndex":47,"__length_m":110.97,"__area_m2":741.15,"__typeValue":"غرفة ري"},"geometry":{"type":"Polygon","coordinates":[[[31.510915668075928,30.275285229799263],[31.510622073488257,30.275245845688595],[31.510591477768017,30.275417668317157],[31.510885072355684,30.275457053910426],[31.510915668075928,30.275285229799263]]]}},{"type":"Feature","properties":{"GlobalID":"{FD99E033-3BF9-480D-96C8-F1EE95701C6E}","Room_Id":48,"Room_type":"غرفة ري","Installation_Date":null,"Room_contents":"2 محبس","sectors":"القطاع الخامس عشر","Implementing":null,"Start":null,"End_":null,"shape_room":"مربعة","SHAPE_Length":97.25775222086054,"SHAPE_Area":590.5576756488673,"__networkId":"irrigation","__networkName":"شبكة الري","__layerId":"irrigation_rooms","__layerName":"غرف شبكة الري","__assetName":"غرف الري","__geometryKind":"polygon","__featureIndex":48,"__length_m":97.26,"__area_m2":590.56,"__typeValue":"غرفة ري"},"geometry":{"type":"Polygon","coordinates":[[[31.501976852483907,30.275966704451797],[31.501766812895763,30.27594706063426],[31.50174276409727,30.27614075543909],[31.501952804583745,30.27616040076947],[31.501976852483907,30.275966704451797]]]}},{"type":"Feature","properties":{"GlobalID":"{52064B75-BC90-4ABB-A78F-7EA87FDF0EAB}","Room_Id":49,"Room_type":"غرفة ري","Installation_Date":null,"Room_contents":"2 محبس","sectors":"القطاع الخامس عشر","Implementing":null,"Start":null,"End_":null,"shape_room":"مربعة","SHAPE_Length":97.24430002167819,"SHAPE_Area":590.5655622050473,"__networkId":"irrigation","__networkName":"شبكة الري","__layerId":"irrigation_rooms","__layerName":"غرف شبكة الري","__assetName":"غرف الري","__geometryKind":"polygon","__featureIndex":49,"__length_m":97.24,"__area_m2":590.57,"__typeValue":"غرفة ري"},"geometry":{"type":"Polygon","coordinates":[[[31.503417209413833,30.27616154816277],[31.50319637387261,30.27612668415752],[31.503158566477232,30.27630708314082],[31.503379402018464,30.276341947857727],[31.503417209413833,30.27616154816277]]]}},{"type":"Feature","properties":{"GlobalID":"{F9B12677-4BEF-4893-9F62-424056CAEC94}","Room_Id":50,"Room_type":"غرفة ري","Installation_Date":null,"Room_contents":"2 محبس","sectors":"القطاع الرابع عشر","Implementing":null,"Start":null,"End_":null,"shape_room":"مربعة","SHAPE_Length":97.24422888585572,"SHAPE_Area":590.5647797433774,"__networkId":"irrigation","__networkName":"شبكة الري","__layerId":"irrigation_rooms","__layerName":"غرف شبكة الري","__assetName":"غرف الري","__geometryKind":"polygon","__featureIndex":50,"__length_m":97.24,"__area_m2":590.56,"__typeValue":"غرفة ري"},"geometry":{"type":"Polygon","coordinates":[[[31.506971597753015,30.276564576405328],[31.50675076221179,30.276529716422253],[31.50671296200296,30.27671011621627],[31.506933797544185,30.27674497691113],[31.506971597753015,30.276564576405328]]]}},{"type":"Feature","properties":{"GlobalID":"{12FAC6F4-B6D1-4224-A041-DA25A697C548}","Room_Id":51,"Room_type":"غرفة ري","Installation_Date":null,"Room_contents":"2 محبس","sectors":"القطاع الرابع عشر","Implementing":null,"Start":null,"End_":null,"shape_room":"مربعة","SHAPE_Length":97.24483636642529,"SHAPE_Area":590.5720138812677,"__networkId":"irrigation","__networkName":"شبكة الري","__layerId":"irrigation_rooms","__layerName":"غرف شبكة الري","__assetName":"غرف الري","__geometryKind":"polygon","__featureIndex":51,"__length_m":97.24,"__area_m2":590.57,"__typeValue":"غرفة ري"},"geometry":{"type":"Polygon","coordinates":[[[31.5106957721725,30.276992632870144],[31.510474933037983,30.276957780796902],[31.51043713821904,30.277138180579872],[31.51065797825185,30.27717303414063],[31.5106957721725,30.276992632870144]]]}}]}