{"type":"FeatureCollection","features":[{"type":"Feature","properties":{"اسم_القطاع":"القطاع التاسع عشر ","المساحة":"0.942678761208707","المرحلة":"حي 39","Statuse_Sector":"تم التسليم","GlobalID":"{CD55ADAB-D0EB-49E4-A00D-85A0DADD2E5E}","الترتيب":19,"SHAPE_Length":4139.858452556338,"SHAPE_Area":942680.1143553127,"__networkId":"roads","__networkName":"الطرق والقطاعات","__layerId":"sectors_polygons","__layerName":"قطاعات المدينة","__assetName":"قطاعات المدينة","__geometryKind":"polygon","__featureIndex":1,"__length_m":4139.86,"__area_m2":942680.11,"__typeValue":"تم التسليم"},"geometry":{"type":"Polygon","coordinates":[[[31.52627158542534,30.26578579253166],[31.52502426297527,30.262034754098966],[31.52199527678786,30.261199550705935],[31.52199398770543,30.261203071777118],[31.514822639774245,30.259225328753036],[31.513491566491908,30.263130487037298],[31.51348479409299,30.26317916654621],[31.513491925818013,30.263227808012214],[31.513500603543676,30.263251197277903],[31.51352753413756,30.263294357810096],[31.513565804165307,30.263330569440804],[31.513613118431323,30.263357659682733],[31.51363929623701,30.263367252024068],[31.513694730374862,30.2633778111246],[31.513723151273833,30.263378618051206],[31.514208921551926,30.26354478193966],[31.514699062133865,30.263701079350575],[31.51494568740863,30.263775500985684],[31.515441879042314,30.263916839710976],[31.515691377129333,30.263983736638803],[31.515771341562655,30.264026830898693],[31.515847878923193,30.264074342255658],[31.515920662224122,30.26412606742131],[31.51598938064842,30.26418178603785],[31.51605374044696,30.264241260677906],[31.516113468531877,30.26430423762075],[31.516168308883344,30.26437044685226],[31.516218027939367,30.264439607496442],[31.516262413697554,30.264511423936007],[31.51630127751171,30.26458558969197],[31.516334451396826,30.26466178897556],[31.51636179611407,30.264739695136438],[31.516383193984133,30.264818977645863],[31.516398553378874,30.264899297441392],[31.516407809619565,30.26498031158226],[31.516410923180334,30.265061674801288],[31.51694472996992,30.266871981614],[31.517997349768734,30.26659649698274],[31.518334492884758,30.267971018471545],[31.522400205876927,30.266891121384944],[31.525307438003967,30.26604260037171],[31.52627158542534,30.26578579253166]]]}},{"type":"Feature","properties":{"اسم_القطاع":"القطاع السابع","المساحة":"1.79826473338116","المرحلة":"حي 15","Statuse_Sector":"جاري العمل ميدانياً","GlobalID":"{42871C3D-0DEC-4233-847A-61B668AC4815}","الترتيب":7,"SHAPE_Length":5352.21930190155,"SHAPE_Area":1798220.2724990046,"__networkId":"roads","__networkName":"الطرق والقطاعات","__layerId":"sectors_polygons","__layerName":"قطاعات المدينة","__assetName":"قطاعات المدينة","__geometryKind":"polygon","__featureIndex":2,"__length_m":5352.22,"__area_m2":1798220.27,"__typeValue":"جاري العمل ميدانياً"},"geometry":{"type":"Polygon","coordinates":[[[31.591635013232562,30.249828679975565],[31.577614505333365,30.250689677013106],[31.577059528845783,30.259431593125914],[31.588701086768538,30.260012485511893],[31.588866392950486,30.259721536176386],[31.5889982539561,30.259482000894213],[31.589252670319286,30.258999197151287],[31.589504033308835,30.258450495987642],[31.589742126385,30.25789739376319],[31.589966846241506,30.257340129392883],[31.590074159883667,30.257060012035122],[31.59027863800191,30.256496956689578],[31.5903757809184,30.256214080761456],[31.59055981966899,30.2556457844424],[31.590730130365394,30.255074299533693],[31.590886640244097,30.254499875063335],[31.59102928103311,30.25392275928886],[31.591157991647,30.25334320124935],[31.591217105284265,30.25305258444898],[31.591324816880103,30.25246983433759],[31.59141846984173,30.25188527040385],[31.591498023744986,30.251299147139054],[31.591563443555543,30.250711717488407],[31.591590844866673,30.250417592397433],[31.591635013232562,30.249828679975565]]]}},{"type":"Feature","properties":{"اسم_القطاع":"القطاع الخامس عشر","المساحة":"0.809333964056242","المرحلة":"حي 39","Statuse_Sector":"تم التسليم","GlobalID":"{752835B1-8DF7-41D2-BB58-0B937F7256AE}","الترتيب":15,"SHAPE_Length":5055.391256965226,"SHAPE_Area":809339.4228487134,"__networkId":"roads","__networkName":"الطرق والقطاعات","__layerId":"sectors_polygons","__layerName":"قطاعات المدينة","__assetName":"قطاعات المدينة","__geometryKind":"polygon","__featureIndex":3,"__length_m":5055.39,"__area_m2":809339.42,"__typeValue":"تم التسليم"},"geometry":{"type":"Polygon","coordinates":[[[31.50676110810893,30.276761494930508],[31.507348419455134,30.273189591622987],[31.50672493654567,30.271261445940343],[31.501646056863674,30.272557569313157],[31.496842882718813,30.27391646636088],[31.49076546451306,30.27551993987265],[31.48975892110184,30.275858576905822],[31.488931888932132,30.27618630749497],[31.488379575949374,30.276469311299632],[31.48844914867151,30.276537921145326],[31.488494583661943,30.276604904118912],[31.488534783270918,30.276674338530164],[31.48856957053028,30.276745918714475],[31.488598793624792,30.2768193312501],[31.48862232499366,30.276894253406727],[31.488640059533996,30.276970356248686],[31.488651920889,30.277047306962388],[31.48865785695639,30.277124766528896],[31.488656996370374,30.27722041501023],[31.488647111308975,30.277315684817335],[31.48863880368922,30.277362978730682],[31.48861552564527,30.277456493585763],[31.48860059384861,30.277502558596826],[31.501117144095744,30.27611509617869],[31.506004065479644,30.276673206658607],[31.50676110810893,30.276761494930508]]]}},{"type":"Feature","properties":{"اسم_القطاع":"القطاع الثالث عشر","المساحة":"0.789349376475738","المرحلة":"حي 39","Statuse_Sector":"تم التسليم","GlobalID":"{1A4AB30A-46C5-4322-8507-C341E718F729}","الترتيب":13,"SHAPE_Length":3680.195900133451,"SHAPE_Area":789349.3764757382,"__networkId":"roads","__networkName":"الطرق والقطاعات","__layerId":"sectors_polygons","__layerName":"قطاعات المدينة","__assetName":"قطاعات المدينة","__geometryKind":"polygon","__featureIndex":4,"__length_m":3680.2,"__area_m2":789349.38,"__typeValue":"تم التسليم"},"geometry":{"type":"Polygon","coordinates":[[[31.52607966575479,30.27496149699881],[31.52199631344371,30.273525074491715],[31.516258058665056,30.27146556857378],[31.51584744503689,30.272330174347125],[31.51513215969528,30.274177081532727],[31.514592353057918,30.277271300060537],[31.514564443300337,30.277681388755447],[31.51817060514263,30.27810464761396],[31.52174762653538,30.278517782383567],[31.52483134258148,30.278809353264307],[31.52500678355645,30.27758903623115],[31.525160019075926,30.2771836064961],[31.52607966575479,30.27496149699881]]]}},{"type":"Feature","properties":{"اسم_القطاع":"القطاع السادس عشر","المساحة":"1.66179771746059","المرحلة":"حي 39","Statuse_Sector":"تم التسليم","GlobalID":"{4F6FC6DE-027E-4511-921E-A484F212F291}","الترتيب":16,"SHAPE_Length":5623.315295000159,"SHAPE_Area":1661797.7174605918,"__networkId":"roads","__networkName":"الطرق والقطاعات","__layerId":"sectors_polygons","__layerName":"قطاعات المدينة","__assetName":"قطاعات المدينة","__geometryKind":"polygon","__featureIndex":5,"__length_m":5623.32,"__area_m2":1661797.72,"__typeValue":"تم التسليم"},"geometry":{"type":"Polygon","coordinates":[[[31.52736342297451,30.265494965044596],[31.527484717995726,30.265789529130796],[31.528317929676263,30.268357503500813],[31.52862347275556,30.269454673343308],[31.527804625136405,30.271321581952396],[31.526605613183968,30.274006503454142],[31.52607966575479,30.27496149699881],[31.533425834823408,30.2775452761],[31.536457844740045,30.278465052418714],[31.536836872704505,30.26379446678546],[31.536886328554175,30.26308029451238],[31.531898786875324,30.264286779461585],[31.52736342297451,30.265494965044596]]]}},{"type":"Feature","properties":{"اسم_القطاع":"القطاع التاسع","المساحة":"0.487056387128638","المرحلة":"حي 16","Statuse_Sector":"جاري العمل ميدانياً","GlobalID":"{D4DA6FBD-9683-4B64-B06E-6C3D2E97BA38}","الترتيب":9,"SHAPE_Length":3092.902569906054,"SHAPE_Area":487048.6406174312,"__networkId":"roads","__networkName":"الطرق والقطاعات","__layerId":"sectors_polygons","__layerName":"قطاعات المدينة","__assetName":"قطاعات المدينة","__geometryKind":"polygon","__featureIndex":6,"__length_m":3092.9,"__area_m2":487048.64,"__typeValue":"جاري العمل ميدانياً"},"geometry":{"type":"Polygon","coordinates":[[[31.572129652719976,30.25099673624707],[31.57177834766348,30.250998280464714],[31.571427064166578,30.25099467056497],[31.571105157376092,30.25098683074998],[31.570764718341284,30.250973815088273],[31.570434307200014,30.250956539244843],[31.570082472137525,30.250933089627992],[31.56973347754796,30.25090466203305],[31.569383534337458,30.250870966235585],[31.56924018747263,30.250855655956496],[31.568165852698446,30.250712742572542],[31.567803735519217,30.250653234908096],[31.567442903829168,30.250588162569183],[31.56708347171433,30.250517547272608],[31.566697410839502,30.25043517485294],[31.56616552285135,30.25888706032707],[31.568783351031517,30.259017996273705],[31.57064746304388,30.254867990316008],[31.570835899047793,30.254441293863138],[31.57101894875321,30.25401221256844],[31.571260638683786,30.253421247528067],[31.571377479857855,30.25312456130613],[31.571580487433952,30.252590064160362],[31.571698292500315,30.252267761925665],[31.571905059525896,30.25167778740948],[31.57201909076975,30.25133768882278],[31.572129652719976,30.25099673624707]]]}},{"type":"Feature","properties":{"اسم_القطاع":"القطاع الثامن","المساحة":"0.817861848450449","المرحلة":"حي 15","Statuse_Sector":"جاري العمل ميدانياً","GlobalID":"{5C6FCDE9-5021-418E-98DD-96F5A35D7632}","الترتيب":8,"SHAPE_Length":3762.4139562286773,"SHAPE_Area":817880.817058139,"__networkId":"roads","__networkName":"الطرق والقطاعات","__layerId":"sectors_polygons","__layerName":"قطاعات المدينة","__assetName":"قطاعات المدينة","__geometryKind":"polygon","__featureIndex":7,"__length_m":3762.41,"__area_m2":817880.82,"__typeValue":"جاري العمل ميدانياً"},"geometry":{"type":"Polygon","coordinates":[[[31.577614505333365,30.250689677013106],[31.573283240461752,30.250955336461814],[31.57299512290236,30.250970903577738],[31.57270678076415,30.25098299426112],[31.57241827243758,30.250991605409272],[31.572129652719976,30.25099673624707],[31.572019089871414,30.25133768882278],[31.57190505862756,30.25167778740948],[31.571812957954748,30.251944615917896],[31.571636390492394,30.252438292414183],[31.571491641357422,30.252827097437887],[31.571327856921563,30.25325149316489],[31.571123877368308,30.253759235255146],[31.57101894605828,30.254012211792457],[31.57083589814946,30.254441293863138],[31.57064746304388,30.254867990316008],[31.568783351031517,30.259017996273705],[31.577059528845783,30.259431593125914],[31.577614505333365,30.250689677013106]]]}},{"type":"Feature","properties":{"اسم_القطاع":"القطاع الثالث","المساحة":"1.07799371887333","المرحلة":"حي14","Statuse_Sector":"تم التسليم","GlobalID":"{08450900-1FA4-450A-95AF-85401F5CC467}","الترتيب":3,"SHAPE_Length":4821.361935570381,"SHAPE_Area":1078004.3977067317,"__networkId":"roads","__networkName":"الطرق والقطاعات","__layerId":"sectors_polygons","__layerName":"قطاعات المدينة","__assetName":"قطاعات المدينة","__geometryKind":"polygon","__featureIndex":8,"__length_m":4821.36,"__area_m2":1078004.4,"__typeValue":"تم التسليم"},"geometry":{"type":"Polygon","coordinates":[[[31.554345474173218,30.268221067574313],[31.55424905709545,30.268517538280282],[31.554145681667496,30.268812253898577],[31.554035390110194,30.269105092637293],[31.55391822823759,30.269395932705713],[31.553794243660366,30.269684655418033],[31.553663488480883,30.269971139761964],[31.553526016598,30.27025526860576],[31.553381884605606,30.270536924043117],[31.553231152690834,30.2708159904962],[31.553073881939092,30.271092350836867],[31.55291013882573,30.2713658925928],[31.552739990724394,30.271636501741337],[31.552563506805363,30.271904066588014],[31.5523807607305,30.272168476215228],[31.55219182885656,30.272429622809653],[31.55199678754039,30.27268739700699],[31.562483203635928,30.280923046545457],[31.56628017842432,30.277551787212833],[31.558968495679466,30.271852078636627],[31.558580657937014,30.271425956388917],[31.559483731597187,30.269851098022617],[31.554345474173218,30.268221067574313]]]}},{"type":"Feature","properties":{"اسم_القطاع":"القطاع الخامس","المساحة":"1.00619481129555","المرحلة":"بدون","Statuse_Sector":"تم التسليم","GlobalID":"{BA7ED0A2-D21A-4BEE-8A7F-512E7462384D}","الترتيب":5,"SHAPE_Length":4345.366264287153,"SHAPE_Area":1006194.8112955486,"__networkId":"roads","__networkName":"الطرق والقطاعات","__layerId":"sectors_polygons","__layerName":"قطاعات المدينة","__assetName":"قطاعات المدينة","__geometryKind":"polygon","__featureIndex":9,"__length_m":4345.37,"__area_m2":1006194.81,"__typeValue":"تم التسليم"},"geometry":{"type":"Polygon","coordinates":[[[31.55199678754039,30.27268739700699],[31.548735268848453,30.277404060950236],[31.558327002446863,30.284503800205766],[31.561617590621406,30.281686205398383],[31.562480002040235,30.280920532332324],[31.55199678754039,30.27268739700699]]]}},{"type":"Feature","properties":{"اسم_القطاع":"القطاع العاشر","المساحة":"0.667694032940425","المرحلة":"حي 16","Statuse_Sector":"جاري العمل مكتبياً","GlobalID":"{FEA7B62F-F2EA-4112-9A9C-3C1A8D2352B6}","الترتيب":10,"SHAPE_Length":3381.3399178323625,"SHAPE_Area":667708.1246938503,"__networkId":"roads","__networkName":"الطرق والقطاعات","__layerId":"sectors_polygons","__layerName":"قطاعات المدينة","__assetName":"قطاعات المدينة","__geometryKind":"polygon","__featureIndex":10,"__length_m":3381.34,"__area_m2":667708.12,"__typeValue":"جاري العمل مكتبياً"},"geometry":{"type":"Polygon","coordinates":[[[31.56647158964842,30.254023796948417],[31.566697410839502,30.25043517485294],[31.566428748094207,30.250373808515498],[31.56616106271596,30.250309333507094],[31.565894402315436,30.250241761461417],[31.5656288163,30.25017110478806],[31.565364351382048,30.250097375896313],[31.56510105517228,30.250020588747155],[31.564838975281393,30.24994075652541],[31.564578159320117,30.249857893967533],[31.564318654000832,30.249772015033933],[31.56406050603597,30.24968313678868],[31.563803761239537,30.249591273967486],[31.563548466324022,30.24949644441017],[31.563294668001735,30.249398663628103],[31.563042411188473,30.249297949460455],[31.56279174080001,30.249194320522392],[31.562542702650447,30.249087796204687],[31.561317582960896,30.248554668478636],[31.56113741684753,30.24848022211785],[31.5610466214268,30.248445340523265],[31.560862790187077,30.24838012548832],[31.560676196627817,30.248321053304604],[31.560487116531885,30.2482682116724],[31.560295827478658,30.24822167742679],[31.560102611539126,30.248181520417756],[31.559907754377594,30.248147799629987],[31.557992657582933,30.247881383736885],[31.55780448837869,30.24785218002136],[31.557240315837557,30.254170805707865],[31.56175177736527,30.254380761859515],[31.562991893530164,30.25377085846332],[31.56647158964842,30.254023796948417]]]}},{"type":"Feature","properties":{"اسم_القطاع":"القطاع الرابع","المساحة":"0.73223808296861","المرحلة":"حي 16","Statuse_Sector":"تم التسليم","GlobalID":"{343FB65D-A5CF-42D0-B38E-6174F0001177}","الترتيب":4,"SHAPE_Length":3606.1816324447545,"SHAPE_Area":726575.2365388428,"__networkId":"roads","__networkName":"الطرق والقطاعات","__layerId":"sectors_polygons","__layerName":"قطاعات المدينة","__assetName":"قطاعات المدينة","__geometryKind":"polygon","__featureIndex":11,"__length_m":3606.18,"__area_m2":726575.24,"__typeValue":"تم التسليم"},"geometry":{"type":"Polygon","coordinates":[[[31.547824456202083,30.26954749049261],[31.548849277634417,30.270173174972914],[31.54883320138409,30.270202388344472],[31.55199678754039,30.27268739467956],[31.55219182885656,30.272429620482203],[31.552287062853086,30.272299461947863],[31.5523807607305,30.272168473887785],[31.552563506805363,30.271904064260504],[31.552739990724394,30.271636499413876],[31.55291013882573,30.271365890265336],[31.552992815272894,30.27122947869141],[31.553153330739452,30.27095451368112],[31.553231152690834,30.270815988168724],[31.5533073397084,30.270676785934228],[31.553454779297674,30.27039641102672],[31.553526016598,30.27025526627827],[31.553663488480883,30.269971137434414],[31.553794243660366,30.269684653090522],[31.55391822823759,30.269395930378202],[31.553977665268345,30.26925076764415],[31.5540913973732,30.268958913113785],[31.554198236704888,30.268665120420433],[31.55429813834763,30.268369512131212],[31.554345474173218,30.268221065246777],[31.555585604711165,30.26534338548419],[31.55629076873447,30.2629346607832],[31.55186142849505,30.262460030256758],[31.5504279391855,30.262320982217112],[31.550331319088457,30.26275735555023],[31.550227624758605,30.26319251422433],[31.550116876857103,30.26362637213187],[31.55005886455438,30.26384278672938],[31.549937577617975,30.264274534463187],[31.549809293703834,30.264704768883416],[31.549674038863063,30.265133406215277],[31.549531839146855,30.265560361133424],[31.549382722402967,30.265985550641744],[31.549226718275765,30.266408890193574],[31.549146142988047,30.266619840445788],[31.54897986572727,30.267040250711243],[31.54880678013496,30.267458603926794],[31.548626919448775,30.267874818653915],[31.548440320499626,30.268288812679415],[31.548247019220174,30.26870050456718],[31.548047053339616,30.269109813658197],[31.547824456202083,30.26954749049261]]]}},{"type":"Feature","properties":{"اسم_القطاع":"القطاع الحادي عشر","المساحة":"1.54261207554069","المرحلة":null,"Statuse_Sector":"جاري العمل مكتبياً","GlobalID":"{5646C50F-6C15-4C46-8830-AE6B66449567}","الترتيب":11,"SHAPE_Length":6334.860728739079,"SHAPE_Area":1542589.9037976717,"__networkId":"roads","__networkName":"الطرق والقطاعات","__layerId":"sectors_polygons","__layerName":"قطاعات المدينة","__assetName":"قطاعات المدينة","__geometryKind":"polygon","__featureIndex":12,"__length_m":6334.86,"__area_m2":1542589.9,"__typeValue":"جاري العمل مكتبياً"},"geometry":{"type":"Polygon","coordinates":[[[31.56616552285135,30.25888706032707],[31.56647158964842,30.254023796948417],[31.562991893530164,30.25377085846332],[31.56175177736527,30.254380761859515],[31.557240315837557,30.254170805707865],[31.55780448837869,30.24785218002136],[31.55761884254207,30.24781722293047],[31.557434808283098,30.247776399159928],[31.557183610583547,30.24771044025884],[31.557032107914264,30.2476647399653],[31.556841718074637,30.24760072335632],[31.55665439867665,30.24753027430802],[31.556561980898525,30.24749267088653],[31.55637980794878,30.247412779961543],[31.55629012464239,30.247370523494812],[31.554399267987367,30.246458418667956],[31.552881343329304,30.246205078123623],[31.552827866620426,30.24650035347684],[31.552712366631084,30.247089692482774],[31.55258549756351,30.247677281144266],[31.55251781040518,30.247970368373768],[31.552373955992223,30.248555024666352],[31.551935054415754,30.250268337725277],[31.551842025783245,30.250641857320375],[31.551754065445554,30.251016290386023],[31.551671186877442,30.251391586472597],[31.551593400858675,30.251767693579353],[31.551520717270723,30.252144560482225],[31.55145314779168,30.25252213440617],[31.55139070050639,30.25290036490462],[31.551333384398017,30.253279199979897],[31.55128120755137,30.25365858685922],[31.551234176254663,30.254038474322552],[31.551192297694445,30.25441880959857],[31.551155577260563,30.254799540692797],[31.551124020342957,30.255180616387573],[31.55109763143316,30.255561983138172],[31.551076413226145,30.25594358895244],[31.551060369315184,30.2563253818392],[31.551017374149044,30.2575451880391],[31.550990676218806,30.258127030460933],[31.56616552285135,30.25888706032707]]]}},{"type":"Feature","properties":{"اسم_القطاع":"القطاع السادس","المساحة":"2.96674727024326","المرحلة":null,"Statuse_Sector":"تم التسليم","GlobalID":"{871A3370-D458-4865-B005-68E6F15117D6}","الترتيب":6,"SHAPE_Length":7975.415032147321,"SHAPE_Area":2966783.625688492,"__networkId":"roads","__networkName":"الطرق والقطاعات","__layerId":"sectors_polygons","__layerName":"قطاعات المدينة","__assetName":"قطاعات المدينة","__geometryKind":"polygon","__featureIndex":13,"__length_m":7975.42,"__area_m2":2966783.63,"__typeValue":"تم التسليم"},"geometry":{"type":"Polygon","coordinates":[[[31.54970015737997,30.291889419716053],[31.558327002446863,30.284503800205766],[31.548735268848453,30.277404060950236],[31.55199678754039,30.27268739700699],[31.54883320138409,30.27020239067196],[31.548849277634417,30.27017317730041],[31.547824456202083,30.269547492820113],[31.54759848678901,30.269974596123983],[31.547365181733312,30.27039874473987],[31.54712459223898,30.270819845606187],[31.546876771306582,30.27123780488688],[31.546621773733406,30.271652530298716],[31.546359657011596,30.272063929559867],[31.546090478633335,30.27247191271702],[31.54581429788744,30.272876387490765],[31.545531176757663,30.273277266257487],[31.545241177227748,30.273674458291595],[31.544944363976416,30.274067877523155],[31.544640802580652,30.274457435556094],[31.544330560414142,30.27484304709814],[31.544013706647128,30.27522462530658],[31.543690310449893,30.275602087218463],[31.543360444585986,30.275975348319896],[31.543024181818954,30.27634432642526],[31.542681595810613,30.276708939349547],[31.542332763816123,30.27706910645995],[31.54197776129394,30.27742474790015],[31.541616669092438,30.277775785365765],[31.541249566263378,30.278122141328716],[31.54087653365512,30.278463738261426],[31.540497654811016,30.278800500963932],[31.540113012376,30.279132355012468],[31.539722693486762,30.279459226759144],[31.53932678348315,30.279781044107988],[31.538925369501825,30.2800977349632],[31.538518541374263,30.28040922955623],[31.538106389830336,30.280715459670265],[31.537689004701548,30.28101635631262],[31.537266479412736,30.281311853593703],[31.540296854395557,30.284566444550677],[31.540523746378444,30.28480450138468],[31.540701366666305,30.28498339813524],[31.54088255865572,30.28515957566526],[31.54106726575288,30.285332981240707],[31.541255432262194,30.285503565230293],[31.54144699979315,30.285671271021688],[31.54164191354857,30.285836050535316],[31.5418401106463,30.285997851813296],[31.542041532695958,30.286156625224784],[31.542246117713688,30.286312325017686],[31.542453802817505,30.286464901561207],[31.542664526023604,30.28661430832757],[31.542878220856633,30.286760500340225],[31.54309482443457,30.286903433398415],[31.54611880520921,30.28886363740544],[31.54640315972587,30.289059176897208],[31.546679479710615,30.289263208213587],[31.546947426498622,30.28947548308245],[31.547206675798062,30.28969574547498],[31.54970015737997,30.291889419716053]]]}},{"type":"Feature","properties":{"اسم_القطاع":"القطاع الثاني عشر","المساحة":"0.462448855208025","المرحلة":"حي 39","Statuse_Sector":"تم التسليم","GlobalID":"{F19E7EC8-2988-4642-B924-9FEA5767B5CC}","الترتيب":12,"SHAPE_Length":3217.37738056294,"SHAPE_Area":462439.6990186294,"__networkId":"roads","__networkName":"الطرق والقطاعات","__layerId":"sectors_polygons","__layerName":"قطاعات المدينة","__assetName":"قطاعات المدينة","__geometryKind":"polygon","__featureIndex":14,"__length_m":3217.38,"__area_m2":462439.7,"__typeValue":"تم التسليم"},"geometry":{"type":"Polygon","coordinates":[[[31.52607966575479,30.27496149699881],[31.525160019075926,30.2771836064961],[31.52500678355645,30.27758903623115],[31.52483134258148,30.278809353264307],[31.52509461992664,30.27883424380918],[31.528641540570845,30.279320525514656],[31.535145168056406,30.28008186681554],[31.5352219326907,30.28008857014824],[31.535302673268422,30.280090758564008],[31.535390189838346,30.280087521322223],[31.535477159334278,30.28007848683383],[31.535563067919828,30.28006370940035],[31.535647408945216,30.280043275904248],[31.53572968204885,30.280017307360385],[31.5358094021404,30.279985956589112],[31.535886096706122,30.279949409767642],[31.535959313893354,30.2799078825515],[31.536032098092612,30.279859114367774],[31.536066733536703,30.27983287891341],[31.536132211737772,30.279776917833534],[31.536192286572394,30.279716605473787],[31.536220175668713,30.279684937319768],[31.53627143174217,30.27961883306014],[31.536316388828876,30.27954939375032],[31.536354756773,30.27947706699883],[31.536386290334416,30.279402316706456],[31.536408702402436,30.279333386920886],[31.536425327523386,30.279263245341408],[31.53643607856071,30.279192254248038],[31.53644090161546,30.279120779025],[31.536457844740045,30.278465052418714],[31.533425834823408,30.2775452761],[31.52607966575479,30.27496149699881]]]}},{"type":"Feature","properties":{"اسم_القطاع":"القطاع الرابع عشر","المساحة":"0.805885072537266","المرحلة":"حي 39","Statuse_Sector":"تم التسليم","GlobalID":"{2ED71781-A3E7-4985-8B7E-A8EE771915AA}","الترتيب":14,"SHAPE_Length":3601.2286702249935,"SHAPE_Area":805885.0725372656,"__networkId":"roads","__networkName":"الطرق والقطاعات","__layerId":"sectors_polygons","__layerName":"قطاعات المدينة","__assetName":"قطاعات المدينة","__geometryKind":"polygon","__featureIndex":15,"__length_m":3601.23,"__area_m2":805885.07,"__typeValue":"تم التسليم"},"geometry":{"type":"Polygon","coordinates":[[[31.50672493654567,30.271261445940343],[31.507348419455134,30.273189591622987],[31.50676110810893,30.276761494930508],[31.514564443300337,30.277681388755447],[31.514592353057918,30.277271300060537],[31.51513215969528,30.274177081532727],[31.51584744503689,30.272330174347125],[31.516258058665056,30.27146556857378],[31.514435610515573,30.270809391267548],[31.51318251369482,30.269666588404373],[31.512899196732313,30.269624454784214],[31.508457472318405,30.270819252094608],[31.50672493654567,30.271261445940343]]]}},{"type":"Feature","properties":{"اسم_القطاع":"القطاع السابع عشر","المساحة":"1.14078260612579","المرحلة":"حي 39","Statuse_Sector":"تم التسليم","GlobalID":"{15192206-FCD6-4E11-BEB1-821703081615}","الترتيب":17,"SHAPE_Length":4629.640198060186,"SHAPE_Area":1140782.6061257937,"__networkId":"roads","__networkName":"الطرق والقطاعات","__layerId":"sectors_polygons","__layerName":"قطاعات المدينة","__assetName":"قطاعات المدينة","__geometryKind":"polygon","__featureIndex":16,"__length_m":4629.64,"__area_m2":1140782.61,"__typeValue":"تم التسليم"},"geometry":{"type":"Polygon","coordinates":[[[31.52736342297451,30.265494965044596],[31.525307438003967,30.26604260037171],[31.522400205876927,30.266891121384944],[31.514179409199883,30.269074496381762],[31.513963129913773,30.26912193779755],[31.512899196732313,30.269624454784214],[31.51318251369482,30.269666588404373],[31.514435610515573,30.270809391267548],[31.517095430443696,30.271767055273642],[31.52199631344371,30.273525074491715],[31.52607966575479,30.27496149699881],[31.526605613183968,30.274006503454142],[31.527804625136405,30.271321581952396],[31.52862347275556,30.269454673343308],[31.528317929676263,30.268357503500813],[31.527484717995726,30.265789529130796],[31.52736342297451,30.265494965044596]]]}},{"type":"Feature","properties":{"اسم_القطاع":"القطاع الثاني و عشرون","المساحة":"0.894696198523375","المرحلة":"حي 39","Statuse_Sector":"تم التسليم","GlobalID":"{CC5B08FE-BAD7-4CF5-943D-437C4A1EA21A}","الترتيب":22,"SHAPE_Length":3976.1802267347007,"SHAPE_Area":894697.5893986512,"__networkId":"roads","__networkName":"الطرق والقطاعات","__layerId":"sectors_polygons","__layerName":"قطاعات المدينة","__assetName":"قطاعات المدينة","__geometryKind":"polygon","__featureIndex":17,"__length_m":3976.18,"__area_m2":894697.59,"__typeValue":"تم التسليم"},"geometry":{"type":"Polygon","coordinates":[[[31.498988834863358,30.273309368606757],[31.498498895504035,30.272026596207446],[31.497448283439898,30.269295193268412],[31.495456848710727,30.26640787535958],[31.494470900075694,30.266907828821427],[31.494035318672534,30.26713889375783],[31.49384422635034,30.267244593155826],[31.493656238605784,30.267354365702698],[31.49347147042322,30.26746814233327],[31.493290035888656,30.267585853982347],[31.4931836690708,30.267664661696557],[31.49308029723611,30.26774638734362],[31.49298002818242,30.26783094712374],[31.492882965215973,30.2679182541339],[31.492789209846375,30.268008215264253],[31.49269885909174,30.26810073973263],[31.4926120063768,30.268195729774238],[31.492528742431436,30.268293086848768],[31.49231562431681,30.268502495316934],[31.492097389398317,30.268707934871717],[31.491874135592337,30.26890931166049],[31.491645965306777,30.26910653415858],[31.49130898119257,30.269383038187637],[31.490962324917685,30.269650474180175],[31.49006159316544,30.270398650087955],[31.489517974077998,30.270842021989633],[31.489096956162218,30.271197000160612],[31.48899901105015,30.271266560978564],[31.488964558862406,30.271298551490254],[31.488936355355733,30.271334819907654],[31.488924820987467,30.271354280777075],[31.488907249042214,30.271395249137512],[31.488897348709465,30.27143809343126],[31.48889536522931,30.271481749221184],[31.488901348907408,30.271525131900738],[31.488915149725152,30.2715671630719],[31.489010629860044,30.271955337651224],[31.489025527520745,30.27200148748147],[31.48904581686972,30.272095648274014],[31.489051139387783,30.272143337268513],[31.489052046686222,30.2722391116325],[31.489039981413644,30.272334320330163],[31.489022041159107,30.272406116254277],[31.487895607691723,30.2737507614615],[31.48720789523946,30.274524215137642],[31.487197358899508,30.27458425372702],[31.487188362271908,30.274660422751737],[31.487184214750243,30.274736902813626],[31.487184928012606,30.274813463499225],[31.487190500262297,30.27488987594727],[31.487200915329712,30.27496590974575],[31.487216140875454,30.27504133525903],[31.48723613198379,30.275115926731388],[31.487260828467562,30.27518945995908],[31.48729015486834,30.27526171229079],[31.4873240249478,30.275332468057904],[31.48736233450142,30.275401513919874],[31.487404970341423,30.27546864196696],[31.487451803110467,30.275533650496612],[31.48750269267131,30.275596343236973],[31.48755748541207,30.275656533226098],[31.488379575949374,30.276469311299632],[31.488931888932132,30.27618630749497],[31.48975892110184,30.275858576905822],[31.49076546451306,30.27551993987265],[31.496842882718813,30.27391646636088],[31.498988834863358,30.273309368606757]]]}},{"type":"Feature","properties":{"اسم_القطاع":"القطاع الواحد و عشرون","المساحة":"1.57430710715963","المرحلة":"حي 39","Statuse_Sector":"تم التسليم","GlobalID":"{DBAA0902-0993-4C76-8E0F-0400FDB4731B}","الترتيب":21,"SHAPE_Length":5211.355035497029,"SHAPE_Area":1574311.3328296996,"__networkId":"roads","__networkName":"الطرق والقطاعات","__layerId":"sectors_polygons","__layerName":"قطاعات المدينة","__assetName":"قطاعات المدينة","__geometryKind":"polygon","__featureIndex":18,"__length_m":5211.36,"__area_m2":1574311.33,"__typeValue":"تم التسليم"},"geometry":{"type":"Polygon","coordinates":[[[31.513963129913773,30.26912193779755],[31.512228722052015,30.266919268145674],[31.51116767336091,30.26580948377799],[31.50195257551335,30.263209553596234],[31.5013137359041,30.262966981437263],[31.50098070347883,30.263271590819908],[31.50090729944201,30.263350793822024],[31.500830547384133,30.26342759382723],[31.500750553306403,30.263501883768345],[31.500667425904965,30.26357356200958],[31.50058128106247,30.263642530018682],[31.500492235559918,30.263708693919],[31.500400411568215,30.263771961385462],[31.500305936648104,30.26383224630017],[31.49914429910307,30.264527204598625],[31.498140951897618,30.265046354320063],[31.495456848710727,30.26640787535958],[31.497448283439898,30.269295193268412],[31.498498895504035,30.272026596207446],[31.498988834863358,30.273309368606757],[31.501646056863674,30.272557569313157],[31.508457472318405,30.270819252094608],[31.512899196732313,30.269624454784214],[31.513963129913773,30.26912193779755]]]}},{"type":"Feature","properties":{"اسم_القطاع":"القطاع العشرون","المساحة":"1.38607708669065","المرحلة":"حي 39","Statuse_Sector":"تم التسليم","GlobalID":"{F6561E28-F017-49A4-A4F4-067BC64D9472}","الترتيب":20,"SHAPE_Length":5770.088909529963,"SHAPE_Area":1386075.7335440451,"__networkId":"roads","__networkName":"الطرق والقطاعات","__layerId":"sectors_polygons","__layerName":"قطاعات المدينة","__assetName":"قطاعات المدينة","__geometryKind":"polygon","__featureIndex":19,"__length_m":5770.09,"__area_m2":1386075.73,"__typeValue":"تم التسليم"},"geometry":{"type":"Polygon","coordinates":[[[31.518334492884758,30.267971018471545],[31.517997349768734,30.26659649698274],[31.51694472996992,30.266871981614],[31.516410923180334,30.265061674801288],[31.516407809619565,30.26498031158226],[31.516398553378874,30.264899297441392],[31.516383193984133,30.264818977645863],[31.51636179611407,30.264739695136438],[31.516334451396826,30.26466178897556],[31.51630127751171,30.26458558969197],[31.516262413697554,30.264511423936007],[31.516218027939367,30.264439607496442],[31.516168308883344,30.26437044685226],[31.516113468531877,30.26430423762075],[31.51605374044696,30.264241260677906],[31.51598938064842,30.26418178603785],[31.515920662224122,30.26412606742131],[31.515847878923193,30.264074342255658],[31.515771341562655,30.264026830898693],[31.515691377129333,30.263983736638803],[31.515441879042314,30.263916839710976],[31.51494568740863,30.263775500985684],[31.514699062133865,30.263701079350575],[31.514208921551926,30.26354478193966],[31.513723151273833,30.263378618051206],[31.513694730374862,30.2633778111246],[31.51363929623701,30.263367252024068],[31.513613118431323,30.263357659682733],[31.513565804165307,30.263330569440804],[31.51352753413756,30.263294357810096],[31.513500603543676,30.263251197277903],[31.513491925818013,30.263227808012214],[31.51348479409299,30.26317916654621],[31.513491566491908,30.263130487037298],[31.514822639774245,30.259225328753036],[31.51147697678795,30.258302484923128],[31.511478324260892,30.258298979266605],[31.508874621190255,30.25589359527726],[31.506520108982787,30.25782718410317],[31.505247172869,30.258905040092795],[31.5035320401583,30.260712771098692],[31.503218405054923,30.26105700851379],[31.50286099594612,30.26142162157849],[31.502488830212087,30.26180705388246],[31.502158585259142,30.262170507294634],[31.501893516673306,30.26244068478494],[31.5013137359041,30.262966981437263],[31.50195257551335,30.263209553596234],[31.51116767336091,30.26580948377799],[31.512228722052015,30.266919268145674],[31.513963129913773,30.26912193779755],[31.514179409199883,30.269074496381762],[31.518334492884758,30.267971018471545]]]}},{"type":"Feature","properties":{"اسم_القطاع":"القطاع الثامن عشر","المساحة":"0.576365656246332","المرحلة":"حي 39","Statuse_Sector":"تم التسليم","GlobalID":"{7DFAC142-89C9-4EDA-8C94-839FCAD2E598}","الترتيب":18,"SHAPE_Length":3621.770684705166,"SHAPE_Area":576339.9152584797,"__networkId":"roads","__networkName":"الطرق والقطاعات","__layerId":"sectors_polygons","__layerName":"قطاعات المدينة","__assetName":"قطاعات المدينة","__geometryKind":"polygon","__featureIndex":20,"__length_m":3621.77,"__area_m2":576339.92,"__typeValue":"تم التسليم"},"geometry":{"type":"Polygon","coordinates":[[[31.52502426297527,30.262034754098966],[31.52627158542534,30.26578579253166],[31.531898786875324,30.264286779461585],[31.536886328554175,30.26308029451238],[31.537065621505093,30.260491155636373],[31.536527966332812,30.260493354575935],[31.53570537543389,30.26003757868204],[31.535622089928957,30.25999375175699],[31.535536505635186,30.259953362129195],[31.535448813893797,30.25991650058542],[31.53535920874082,30.25988324704918],[31.535267889602313,30.259853677564173],[31.535175059497487,30.259827855759124],[31.53508092414055,30.259805839830946],[31.53498569194066,30.259787679441004],[31.534889575798516,30.25977341338736],[31.53479278771652,30.259763074260366],[31.534695543290386,30.259756685338903],[31.534598059014073,30.25975425981431],[31.53450054958493,30.259755803894272],[31.534403233293567,30.25976131369901],[31.534306325735656,30.259770777589026],[31.53421004160856,30.25978417383743],[31.533584440471675,30.259884403167856],[31.533472141179686,30.259905263735934],[31.533361348362437,30.25993145097809],[31.533252397989838,30.259962882642757],[31.533145625133464,30.25999946483877],[31.533041354085174,30.260041085052443],[31.53293990374687,30.260087616026954],[31.532841583139017,30.260138916538516],[31.532746694095582,30.260194829068723],[31.532655524975695,30.26025518290826],[31.53256835425715,30.260319794157006],[31.53248544784126,30.260388465724272],[31.53240705995127,30.260460987328834],[31.532333429539015,30.26053713860282],[31.532264781183326,30.260616685212053],[31.53220132419163,30.260699386615602],[31.531232298019916,30.26216262104171],[31.52912282915399,30.261374773890182],[31.52903728887771,30.26134475017275],[31.52895028344917,30.261318052760537],[31.528861985344935,30.26129473519373],[31.528772570634843,30.26127484480527],[31.52868221718525,30.261258420392462],[31.52859110555754,30.261245494545275],[31.52849941631313,30.261236093645934],[31.528407333606598,30.261230236317203],[31.528315038897677,30.261227933422443],[31.528222718137634,30.2612291903933],[31.528130553684434,30.26123400490188],[31.52803872969269,30.261242366084968],[31.52794742941879,30.261254259199365],[31.52785683432241,30.261269658638913],[31.527767124964868,30.261288534917433],[31.527678481009257,30.261310850013476],[31.52502426297527,30.262034754098966]]]}},{"type":"Feature","properties":{"اسم_القطاع":"القطاع الثالث و عشرون","المساحة":"0.588778115279918","المرحلة":null,"Statuse_Sector":"لم يتم العمل عليهم","GlobalID":"{DD09087E-B648-4F69-BD26-9D67BF3E4687}","الترتيب":23,"SHAPE_Length":3402.0447686637526,"SHAPE_Area":588778.1152799182,"__networkId":"roads","__networkName":"الطرق والقطاعات","__layerId":"sectors_polygons","__layerName":"قطاعات المدينة","__assetName":"قطاعات المدينة","__geometryKind":"polygon","__featureIndex":21,"__length_m":3402.04,"__area_m2":588778.12,"__typeValue":"لم يتم العمل عليهم"},"geometry":{"type":"Polygon","coordinates":[[[31.536677245671775,30.269973381160344],[31.54092250943137,30.27013619313165],[31.541350773158236,30.260610668784274],[31.537065621505093,30.260491155636373],[31.536836872704505,30.26379446678546],[31.536677245671775,30.269973381160344]]]}},{"type":"Feature","properties":{"اسم_القطاع":"القطاع الاول","المساحة":null,"المرحلة":"حي14","Statuse_Sector":"تم التسليم","GlobalID":"{A23A512D-9589-4FB3-9493-91265341C30E}","الترتيب":1,"SHAPE_Length":3528.803898694324,"SHAPE_Area":695829.3116322053,"__networkId":"roads","__networkName":"الطرق والقطاعات","__layerId":"sectors_polygons","__layerName":"قطاعات المدينة","__assetName":"قطاعات المدينة","__geometryKind":"polygon","__featureIndex":22,"__length_m":3528.8,"__area_m2":695829.31,"__typeValue":"تم التسليم"},"geometry":{"type":"Polygon","coordinates":[[[31.565837073630632,30.27720015780031],[31.56628017842432,30.277551786437044],[31.56673070240393,30.27715175211273],[31.567364056001736,30.276608297408625],[31.568018756265634,30.276083737954416],[31.568693752166748,30.275578931306164],[31.569388251391022,30.275094468927016],[31.569765389300116,30.274849343493514],[31.568570983010133,30.273647682771905],[31.567275775863813,30.27237848621096],[31.566305136317844,30.271455295847463],[31.566005180759664,30.271198340017584],[31.565696639103958,30.270949081311777],[31.565401511990412,30.27072384253837],[31.56522652107139,30.27059600148566],[31.565049198125873,30.270470580871383],[31.564711526800455,30.27024266591519],[31.56439043208698,30.270038496516058],[31.56422746062646,30.269939311743823],[31.562879780189444,30.269207844811326],[31.56262498383889,30.269085181331402],[31.562367277845127,30.268967139417573],[31.562106773599243,30.268853771068386],[31.561843584289,30.268745125954304],[31.561577826695355,30.268641250641945],[31.56130961490434,30.26854219092159],[31.561039067493574,30.2684479894797],[31.56076630034578,30.268358688226197],[31.560132003516927,30.26824897576708],[31.559483731597187,30.269851097246825],[31.558580657937014,30.271425955613072],[31.558968495679466,30.271852077860782],[31.56515421657248,30.276674128292218],[31.565837073630632,30.27720015780031]]]}},{"type":"Feature","properties":{"اسم_القطاع":"القطاع الثاني","المساحة":"1383159.411479","المرحلة":"حي14","Statuse_Sector":"تم التسليم","GlobalID":"{C5C32551-9F78-4117-B6D8-1EBB30FAC369}","الترتيب":2,"SHAPE_Length":5926.633693071376,"SHAPE_Area":1384877.6759006928,"__networkId":"roads","__networkName":"الطرق والقطاعات","__layerId":"sectors_polygons","__layerName":"قطاعات المدينة","__assetName":"قطاعات المدينة","__geometryKind":"polygon","__featureIndex":23,"__length_m":5926.63,"__area_m2":1384877.68,"__typeValue":"تم التسليم"},"geometry":{"type":"Polygon","coordinates":[[[31.559483731597187,30.269851097246825],[31.560132003516927,30.26824897576708],[31.56076630034578,30.268358688226197],[31.561039067493574,30.2684479894797],[31.56130961490434,30.26854219092159],[31.561577826695355,30.268641250641945],[31.561843584289,30.268745125954304],[31.562106773599243,30.268853771068386],[31.562367277845127,30.268967139417573],[31.56262498383889,30.269085181331402],[31.562879780189444,30.269207844811326],[31.56422746062646,30.269939311743823],[31.56455179825809,30.2701396215577],[31.564869587171316,30.27034761173825],[31.565049198125873,30.270470580871383],[31.56522652107139,30.27059600148566],[31.565401511990412,30.27072384253837],[31.56557412596721,30.270854071435142],[31.565851966799748,30.271072734749463],[31.56615624774605,30.271325869178767],[31.566305136317844,30.271455295847463],[31.567275775863813,30.27237848621096],[31.568570983010133,30.273647682771905],[31.569765389300116,30.274849343493514],[31.569965792660195,30.274719088089466],[31.570461835173564,30.274412975029467],[31.570832375855247,30.274188891620806],[31.571323165020818,30.273909707524236],[31.57410918207669,30.27236351599052],[31.570951205899323,30.26918808636774],[31.570162738404775,30.26844270205581],[31.570032576113373,30.268326172280588],[31.56920211327762,30.267631780868147],[31.569120925338876,30.267569502779953],[31.568281658115005,30.266949169124032],[31.56817757032302,30.26687532558495],[31.567198629445542,30.2662372892115],[31.5661395300986,30.265631386138544],[31.565462418664985,30.265292851153294],[31.565099546002596,30.265119296889534],[31.564833700374034,30.264997294004797],[31.564565824552936,30.264878648973248],[31.564295976929806,30.26476338741108],[31.564024213200167,30.264651532606624],[31.56368798906068,30.26451888792049],[31.563349069975327,30.264391461643992],[31.560569356397824,30.263644254043765],[31.559273551871836,30.26330436060425],[31.55907771734326,30.26326727763734],[31.55782271609413,30.263098782496243],[31.55629076873447,30.2629346607832],[31.555892530297655,30.264332452624966],[31.555585604711165,30.26534338548419],[31.554345474173218,30.26822106679845],[31.559483731597187,30.269851097246825]]]}}]}