{"type":"FeatureCollection","features":[{"type":"Feature","properties":{"GlobalID":"{3202E28E-5CE4-41E1-969E-099BAA0D8766}","Station_Id":4,"Rooms_type":"غرفة","Capacity":null,"Status":null,"sectors":"القطاع الاول","Implementing":"اولاد حجازي","Start":"1/3/2022","End_":"3/2/2025","SHAPE_Length":38.00606995918884,"SHAPE_Area":87.96643118999849,"__networkId":"sewer","__networkName":"شبكة الصرف","__layerId":"sewer_rooms","__layerName":"غرف شبكة الصرف","__assetName":"غرف الصرف","__geometryKind":"polygon","__featureIndex":1,"__length_m":38.01,"__area_m2":87.97,"__typeValue":"غرفة"},"geometry":{"type":"Polygon","coordinates":[[[31.565331994065527,30.27251304508466],[31.56533164012931,30.27245112852158],[31.565232627818695,30.272451555997982],[31.565232981754914,30.272513472560753],[31.565331994065527,30.27251304508466]]]}},{"type":"Feature","properties":{"GlobalID":"{775E01D2-2260-404C-9B54-FD6F3089F359}","Station_Id":9,"Rooms_type":"غرفة","Capacity":null,"Status":null,"sectors":"القطاع الاول","Implementing":"اولاد حجازي","Start":"1/3/2022","End_":"3/2/2025","SHAPE_Length":34.50822866311533,"SHAPE_Area":72.67938503800737,"__networkId":"sewer","__networkName":"شبكة الصرف","__layerId":"sewer_rooms","__layerName":"غرف شبكة الصرف","__assetName":"غرف الصرف","__geometryKind":"polygon","__featureIndex":2,"__length_m":34.51,"__area_m2":72.68,"__typeValue":"غرفة"},"geometry":{"type":"Polygon","coordinates":[[[31.566518344264015,30.27367271504742],[31.5665180190739,30.273616039037037],[31.566428649279526,30.273616426166274],[31.56642897446968,30.273673100624794],[31.566518344264015,30.27367271504742]]]}},{"type":"Feature","properties":{"GlobalID":"{C7762C6A-0199-48EE-8D38-F27D337E1F9A}","Station_Id":24,"Rooms_type":"غرفة","Capacity":null,"Status":null,"sectors":"القطاع الاول","Implementing":"اولاد حجازي","Start":"1/3/2022","End_":"3/2/2025","SHAPE_Length":23.2537815113517,"SHAPE_Area":32.791574287356354,"__networkId":"sewer","__networkName":"شبكة الصرف","__layerId":"sewer_rooms","__layerName":"غرف شبكة الصرف","__assetName":"غرف الصرف","__geometryKind":"polygon","__featureIndex":3,"__length_m":23.25,"__area_m2":32.79,"__typeValue":"غرفة"},"geometry":{"type":"Polygon","coordinates":[[[31.564943885031852,30.271408386225296],[31.564946318567955,30.271370507992465],[31.564885847576278,30.271372615916558],[31.56488341404017,30.27141049414858],[31.564943885031852,30.271408386225296]]]}},{"type":"Feature","properties":{"GlobalID":"{2368ABE1-8DFA-464F-B387-29832861E201}","Station_Id":20,"Rooms_type":"غرفة","Capacity":null,"Status":null,"sectors":"القطاع الاول","Implementing":"اولاد حجازي","Start":"1/3/2022","End_":"3/2/2025","SHAPE_Length":34.3074212128673,"SHAPE_Area":69.41498887066204,"__networkId":"sewer","__networkName":"شبكة الصرف","__layerId":"sewer_rooms","__layerName":"غرف شبكة الصرف","__assetName":"غرف الصرف","__geometryKind":"polygon","__featureIndex":4,"__length_m":34.31,"__area_m2":69.41,"__typeValue":"غرفة"},"geometry":{"type":"Polygon","coordinates":[[[31.563539683495463,30.272577988851502],[31.563539394237967,30.27252724799762],[31.56344405424022,30.272527657629862],[31.56344434349775,30.272578398483542],[31.563539683495463,30.272577988851502]]]}},{"type":"Feature","properties":{"GlobalID":"{4377BDA9-16C7-4B46-888A-05CE10CD63BB}","Station_Id":19,"Rooms_type":"غرفة","Capacity":null,"Status":null,"sectors":"القطاع الاول","Implementing":"اولاد حجازي","Start":"1/3/2022","End_":"3/2/2025","SHAPE_Length":34.30732070192202,"SHAPE_Area":69.41519009344407,"__networkId":"sewer","__networkName":"شبكة الصرف","__layerId":"sewer_rooms","__layerName":"غرف شبكة الصرف","__assetName":"غرف الصرف","__geometryKind":"polygon","__featureIndex":5,"__length_m":34.31,"__area_m2":69.42,"__typeValue":"غرفة"},"geometry":{"type":"Polygon","coordinates":[[[31.563241490431857,30.272830985182896],[31.563241201174325,30.272780244459845],[31.56314586117661,30.272780654091033],[31.56314615043411,30.27283139403804],[31.563241490431857,30.272830985182896]]]}},{"type":"Feature","properties":{"GlobalID":"{EE008833-D76A-4F8E-B1B7-D0C346E0949B}","Station_Id":4,"Rooms_type":"غرفة","Capacity":null,"Status":null,"sectors":"القطاع الاول","Implementing":"اولاد حجازي","Start":"1/3/2022","End_":"3/2/2025","SHAPE_Length":34.307220218227485,"SHAPE_Area":69.41334392441948,"__networkId":"sewer","__networkName":"شبكة الصرف","__layerId":"sewer_rooms","__layerName":"غرف شبكة الصرف","__assetName":"غرف الصرف","__geometryKind":"polygon","__featureIndex":6,"__length_m":34.31,"__area_m2":69.41,"__typeValue":"غرفة"},"geometry":{"type":"Polygon","coordinates":[[[31.562779242539495,30.273249531724684],[31.562778953281963,30.273198792769588],[31.56268361238592,30.273199201623257],[31.562683901643418,30.27324994057813],[31.562779242539495,30.273249531724684]]]}},{"type":"Feature","properties":{"GlobalID":"{E30A03FC-2385-498B-B974-660D2DD96788}","Station_Id":3,"Rooms_type":"غرفة","Capacity":null,"Status":null,"sectors":"القطاع الاول","Implementing":"اولاد حجازي","Start":"1/3/2022","End_":"3/2/2025","SHAPE_Length":34.307319725243794,"SHAPE_Area":69.41390269052222,"__networkId":"sewer","__networkName":"شبكة الصرف","__layerId":"sewer_rooms","__layerName":"غرف شبكة الصرف","__assetName":"غرف الصرف","__geometryKind":"polygon","__featureIndex":7,"__length_m":34.31,"__area_m2":69.41,"__typeValue":"غرفة"},"geometry":{"type":"Polygon","coordinates":[[[31.562537461879078,30.273474261201205],[31.562537172621546,30.27342352236229],[31.562441831725504,30.273423931215024],[31.562442120084707,30.27347467005373],[31.562537461879078,30.273474261201205]]]}},{"type":"Feature","properties":{"GlobalID":"{311F7672-92A9-4340-B150-C84FA365C02C}","Station_Id":2,"Rooms_type":"غرفة","Capacity":null,"Status":null,"sectors":"القطاع الاول","Implementing":"اولاد حجازي","Start":"1/3/2022","End_":"3/2/2025","SHAPE_Length":34.30771971991397,"SHAPE_Area":69.4147890516893,"__networkId":"sewer","__networkName":"شبكة الصرف","__layerId":"sewer_rooms","__layerName":"غرف شبكة الصرف","__assetName":"غرف الصرف","__geometryKind":"polygon","__featureIndex":8,"__length_m":34.31,"__area_m2":69.41,"__typeValue":"غرفة"},"geometry":{"type":"Polygon","coordinates":[[[31.562430382697194,30.27358496628836],[31.562430094337994,30.273534227506673],[31.562334750746988,30.273534636358885],[31.562335040004527,30.273585375140364],[31.562430382697194,30.27358496628836]]]}},{"type":"Feature","properties":{"GlobalID":"{D25EAF5D-B830-42AA-BE5D-7F580DE01D9D}","Station_Id":1,"Rooms_type":"غرفة","Capacity":null,"Status":null,"sectors":"القطاع الاول","Implementing":"اولاد حجازي","Start":"1/3/2022","End_":"3/2/2025","SHAPE_Length":34.30731972414363,"SHAPE_Area":69.41365765864312,"__networkId":"sewer","__networkName":"شبكة الصرف","__layerId":"sewer_rooms","__layerName":"غرف شبكة الصرف","__assetName":"غرف الصرف","__geometryKind":"polygon","__featureIndex":9,"__length_m":34.31,"__area_m2":69.41,"__typeValue":"غرفة"},"geometry":{"type":"Polygon","coordinates":[[[31.56216807822749,30.273847227053814],[31.56216778986829,30.273796488407697],[31.56207244807392,30.27379689725888],[31.562072737331448,30.273847635904787],[31.56216807822749,30.273847227053814]]]}},{"type":"Feature","properties":{"GlobalID":"{1543C646-B3EF-4343-8008-B5BCD94B3F73}","Station_Id":3,"Rooms_type":"غرفة","Capacity":null,"Status":null,"sectors":"القطاع الاول","Implementing":"اولاد حجازي","Start":"1/3/2022","End_":"3/2/2025","SHAPE_Length":34.30812767658446,"SHAPE_Area":69.41730923901197,"__networkId":"sewer","__networkName":"شبكة الصرف","__layerId":"sewer_rooms","__layerName":"غرف شبكة الصرف","__assetName":"غرف الصرف","__geometryKind":"polygon","__featureIndex":10,"__length_m":34.31,"__area_m2":69.42,"__typeValue":"غرفة"},"geometry":{"type":"Polygon","coordinates":[[[31.568002806677764,30.276147862451822],[31.568002515623608,30.27609712421922],[31.567907172032605,30.27609753693972],[31.567907463086765,30.27614827594791],[31.568002806677764,30.276147862451822]]]}},{"type":"Feature","properties":{"GlobalID":"{E2700EA3-787C-4EF5-8DB9-9BD82121985E}","Station_Id":4,"Rooms_type":"غرفة","Capacity":null,"Status":null,"sectors":"القطاع الاول","Implementing":"اولاد حجازي","Start":"1/3/2022","End_":"3/2/2025","SHAPE_Length":34.30812865175022,"SHAPE_Area":69.41713090022822,"__networkId":"sewer","__networkName":"شبكة الصرف","__layerId":"sewer_rooms","__layerName":"غرف شبكة الصرف","__assetName":"غرف الصرف","__geometryKind":"polygon","__featureIndex":11,"__length_m":34.31,"__area_m2":69.42,"__typeValue":"غرفة"},"geometry":{"type":"Polygon","coordinates":[[[31.568342331227594,30.275888448784343],[31.56834203927514,30.275837710417697],[31.568246695684138,30.275838123139284],[31.568246987636627,30.275888862281533],[31.568342331227594,30.275888448784343]]]}},{"type":"Feature","properties":{"GlobalID":"{757ADF6D-ADDD-42D6-8F03-3AC51690685C}","Station_Id":2,"Rooms_type":"غرفة","Capacity":null,"Status":null,"sectors":"القطاع الاول","Implementing":"اولاد حجازي","Start":"1/3/2022","End_":"3/2/2025","SHAPE_Length":24.553602606115984,"SHAPE_Area":37.66007014402164,"__networkId":"sewer","__networkName":"شبكة الصرف","__layerId":"sewer_rooms","__layerName":"غرف شبكة الصرف","__assetName":"غرف الصرف","__geometryKind":"polygon","__featureIndex":12,"__length_m":24.55,"__area_m2":37.66,"__typeValue":"غرفة"},"geometry":{"type":"Polygon","coordinates":[[[31.564714970941264,30.272152620750294],[31.564771373462982,30.27215237714234],[31.56477110756168,30.27210584412697],[31.564714705039922,30.272106086959255],[31.564714970941264,30.272152620750294]]]}},{"type":"Feature","properties":{"GlobalID":"{7F742728-3691-4657-927D-5F44FD8ADC8F}","Station_Id":3,"Rooms_type":"غرفة","Capacity":null,"Status":null,"sectors":"القطاع الاول","Implementing":"اولاد حجازي","Start":"1/3/2022","End_":"3/2/2025","SHAPE_Length":34.308126688233536,"SHAPE_Area":69.41707538446151,"__networkId":"sewer","__networkName":"شبكة الصرف","__layerId":"sewer_rooms","__layerName":"غرف شبكة الصرف","__assetName":"غرف الصرف","__geometryKind":"polygon","__featureIndex":13,"__length_m":34.31,"__area_m2":69.42,"__typeValue":"غرفة"},"geometry":{"type":"Polygon","coordinates":[[[31.567294464414992,30.27504866500562],[31.56729417336083,30.274997926204755],[31.567198828871536,30.274998338929887],[31.56719911992569,30.275049076954712],[31.567294464414992,30.27504866500562]]]}}]}