{"type":"FeatureCollection","features":[{"type":"Feature","properties":{"GlobalID":"{00FCD6E8-6F07-4657-A2BF-82561C70BA0D}","ID":"MH-A-23","Easting":"031° 33' 50.13\" E","Northing":"30° 16' 15.9\" N","Implementing":"اولاد حجازي","Start":"1/3/2022","End_":"3/2/2025","sectors":"القطاع الاول","Depth":2.0999999999999943,"GL":164.2,"IL":162.1,"dimention":"2X2م","maintenance":null,"__networkId":"sewer","__networkName":"شبكة الصرف","__layerId":"storm_drains","__layerName":"بلاعات صرف المطر","__assetName":"بلاعات المطر","__geometryKind":"point","__featureIndex":1,"__typeValue":"بلاعات المطر"},"geometry":{"type":"Point","coordinates":[31.56560081221935,30.271250252283984]}},{"type":"Feature","properties":{"GlobalID":"{98CC3A0F-FDE1-4AE9-AF1E-AFEC1C204B49}","ID":"MH-A-24","Easting":"031° 33' 48.38\" E","Northing":"30° 16' 17.24\" N","Implementing":"اولاد حجازي","Start":"1/3/2022","End_":"3/2/2025","sectors":"القطاع الاول","Depth":2.5800000000000125,"GL":162.81,"IL":160.23,"dimention":"2X2م","maintenance":null,"__networkId":"sewer","__networkName":"شبكة الصرف","__layerId":"storm_drains","__layerName":"بلاعات صرف المطر","__assetName":"بلاعات المطر","__geometryKind":"point","__featureIndex":2,"__typeValue":"بلاعات المطر"},"geometry":{"type":"Point","coordinates":[31.565115206332962,30.271621789757702]}},{"type":"Feature","properties":{"GlobalID":"{B8C3EF11-6418-405E-8CEA-B59C24C66B7C}","ID":"MH-A-21","Easting":"031° 33' 52.26\" E","Northing":"30° 16' 18.01\" N","Implementing":"اولاد حجازي","Start":"1/3/2022","End_":"3/2/2025","sectors":"القطاع الاول","Depth":2.4000000000000057,"GL":166.65,"IL":164.25,"dimention":"2X2م","maintenance":null,"__networkId":"sewer","__networkName":"شبكة الصرف","__layerId":"storm_drains","__layerName":"بلاعات صرف المطر","__assetName":"بلاعات المطر","__geometryKind":"point","__featureIndex":3,"__typeValue":"بلاعات المطر"},"geometry":{"type":"Point","coordinates":[31.56619419977016,30.271834558977886]}},{"type":"Feature","properties":{"GlobalID":"{16B2DBCF-9F3A-49F6-A08B-2D1D45AADDA1}","ID":"MH-A-22","Easting":"031° 33' 51.59\" E","Northing":"30° 16' 18.33\" N","Implementing":"اولاد حجازي","Start":"1/3/2022","End_":"3/2/2025","sectors":"القطاع الاول","Depth":1.5999999999999943,"GL":164.6,"IL":163.0,"dimention":"2X2م","maintenance":null,"__networkId":"sewer","__networkName":"شبكة الصرف","__layerId":"storm_drains","__layerName":"بلاعات صرف المطر","__assetName":"بلاعات المطر","__geometryKind":"point","__featureIndex":4,"__typeValue":"بلاعات المطر"},"geometry":{"type":"Point","coordinates":[31.56600764214354,30.271924933912427]}},{"type":"Feature","properties":{"GlobalID":"{5ED45154-9AAA-401A-91AF-64B73CD8CBDB}","ID":"MH-A-28","Easting":"031° 33' 49.98\" E","Northing":"30° 16' 19.75\" N","Implementing":"اولاد حجازي","Start":"1/3/2022","End_":"3/2/2025","sectors":"القطاع الاول","Depth":1.5300000000000011,"GL":163.6,"IL":162.07,"dimention":"2X2م","maintenance":null,"__networkId":"sewer","__networkName":"شبكة الصرف","__layerId":"storm_drains","__layerName":"بلاعات صرف المطر","__assetName":"بلاعات المطر","__geometryKind":"point","__featureIndex":5,"__typeValue":"بلاعات المطر"},"geometry":{"type":"Point","coordinates":[31.56556175347079,30.272318447048185]}},{"type":"Feature","properties":{"GlobalID":"{0452AB24-DEC1-42A1-821E-E2D1ABDBFE74}","ID":"MH-A-20","Easting":"031° 33' 53.73\" E","Northing":"30° 16' 20.43\" N","Implementing":"اولاد حجازي","Start":"1/3/2022","End_":"3/2/2025","sectors":"القطاع الاول","Depth":2.5,"GL":166.65,"IL":164.15,"dimention":"2X2م","maintenance":null,"__networkId":"sewer","__networkName":"شبكة الصرف","__layerId":"storm_drains","__layerName":"بلاعات صرف المطر","__assetName":"بلاعات المطر","__geometryKind":"point","__featureIndex":6,"__typeValue":"بلاعات المطر"},"geometry":{"type":"Point","coordinates":[31.566601033287604,30.272509238917717]}},{"type":"Feature","properties":{"GlobalID":"{DBD279EF-7AB4-4EA9-96F3-65A9A15CEB45}","ID":"MH-A-25","Easting":"031° 33' 43.81\" E","Northing":"30° 16' 21.04\" N","Implementing":"اولاد حجازي","Start":"1/3/2022","End_":"3/2/2025","sectors":"القطاع الاول","Depth":2.0,"GL":165.35,"IL":163.35,"dimention":"2X2م","maintenance":null,"__networkId":"sewer","__networkName":"شبكة الصرف","__layerId":"storm_drains","__layerName":"بلاعات صرف المطر","__assetName":"بلاعات المطر","__geometryKind":"point","__featureIndex":7,"__typeValue":"بلاعات المطر"},"geometry":{"type":"Point","coordinates":[31.56384747865118,30.272676160843247]}},{"type":"Feature","properties":{"GlobalID":"{3CC67192-40C3-4EAB-9ABE-78BC184A9EEE}","ID":"MH-A-19","Easting":"031° 33' 55.85\" E","Northing":"30° 16' 22.53\" N","Implementing":"اولاد حجازي","Start":"1/3/2022","End_":"3/2/2025","sectors":"القطاع الاول","Depth":1.4300000000000068,"GL":165.77,"IL":164.34,"dimention":"2X2م","maintenance":null,"__networkId":"sewer","__networkName":"شبكة الصرف","__layerId":"storm_drains","__layerName":"بلاعات صرف المطر","__assetName":"بلاعات المطر","__geometryKind":"point","__featureIndex":8,"__typeValue":"بلاعات المطر"},"geometry":{"type":"Point","coordinates":[31.567191654027347,30.273090804148264]}},{"type":"Feature","properties":{"GlobalID":"{19FF2097-3F2E-45C3-8139-C70C5A98CC3D}","ID":"MH-A-27","Easting":"031° 33' 46.0\" E","Northing":"30° 16' 22.95\" N","Implementing":"اولاد حجازي","Start":"1/3/2022","End_":"3/2/2025","sectors":"القطاع الاول","Depth":1.6999999999999886,"GL":166.0,"IL":164.3,"dimention":"2X2م","maintenance":null,"__networkId":"sewer","__networkName":"شبكة الصرف","__layerId":"storm_drains","__layerName":"بلاعات صرف المطر","__assetName":"بلاعات المطر","__geometryKind":"point","__featureIndex":9,"__typeValue":"بلاعات المطر"},"geometry":{"type":"Point","coordinates":[31.56445541351969,30.27320828484538]}},{"type":"Feature","properties":{"GlobalID":"{8A732956-F703-4D28-90FF-D50C3BC1BDDF}","ID":"MH-A-05","Easting":"031° 33' 40.26\" E","Northing":"30° 16' 23.43\" N","Implementing":"اولاد حجازي","Start":"1/3/2022","End_":"3/2/2025","sectors":"القطاع الاول","Depth":1.4000000000000057,"GL":166.49,"IL":165.09,"dimention":"2X2م","maintenance":null,"__networkId":"sewer","__networkName":"شبكة الصرف","__layerId":"storm_drains","__layerName":"بلاعات صرف المطر","__assetName":"بلاعات المطر","__geometryKind":"point","__featureIndex":10,"__typeValue":"بلاعات المطر"},"geometry":{"type":"Point","coordinates":[31.562861355742978,30.273340007763657]}},{"type":"Feature","properties":{"GlobalID":"{5AA6346A-9541-4418-950D-52FE0A7E11ED}","ID":"MH-A-29","Easting":"031° 33' 51.59\" E","Northing":"30° 16' 24.22\" N","Implementing":"اولاد حجازي","Start":"1/3/2022","End_":"3/2/2025","sectors":"القطاع الاول","Depth":1.5900000000000034,"GL":165.3,"IL":163.71,"dimention":"2X2م","maintenance":null,"__networkId":"sewer","__networkName":"شبكة الصرف","__layerId":"storm_drains","__layerName":"بلاعات صرف المطر","__assetName":"بلاعات المطر","__geometryKind":"point","__featureIndex":11,"__typeValue":"بلاعات المطر"},"geometry":{"type":"Point","coordinates":[31.56600829791369,30.273560361461993]}},{"type":"Feature","properties":{"GlobalID":"{9AAD11A6-B1C3-42AF-85A5-7982E9DFFD7B}","ID":"MH-A-29","Easting":"031° 33' 50.95\" E","Northing":"30° 16' 24.72\" N","Implementing":"اولاد حجازي","Start":"1/3/2022","End_":"3/2/2025","sectors":"القطاع الاول","Depth":1.490000000000009,"GL":165.3,"IL":163.81,"dimention":"2X2م","maintenance":null,"__networkId":"sewer","__networkName":"شبكة الصرف","__layerId":"storm_drains","__layerName":"بلاعات صرف المطر","__assetName":"بلاعات المطر","__geometryKind":"point","__featureIndex":12,"__typeValue":"بلاعات المطر"},"geometry":{"type":"Point","coordinates":[31.565829847582485,30.273698389686746]}},{"type":"Feature","properties":{"GlobalID":"{54C2E2AB-2E3B-4EB9-B900-AB68142E4486}","ID":"MH-A-04","Easting":"031° 33' 38.66\" E","Northing":"30° 16' 24.97\" N","Implementing":"اولاد حجازي","Start":"1/3/2022","End_":"3/2/2025","sectors":"القطاع الاول","Depth":1.5,"GL":167.75,"IL":166.25,"dimention":"2X2م","maintenance":null,"__networkId":"sewer","__networkName":"شبكة الصرف","__layerId":"storm_drains","__layerName":"بلاعات صرف المطر","__assetName":"بلاعات المطر","__geometryKind":"point","__featureIndex":13,"__typeValue":"بلاعات المطر"},"geometry":{"type":"Point","coordinates":[31.562415146371663,30.273768341291298]}},{"type":"Feature","properties":{"GlobalID":"{4D9747C6-A911-4EC8-A109-DBB97C0FB122}","ID":"MH-A-17","Easting":"031° 33' 57.64\" E","Northing":"30° 16' 25.11\" N","Implementing":"اولاد حجازي","Start":"1/3/2022","End_":"3/2/2025","sectors":"القطاع الاول","Depth":2.180000000000007,"GL":167.68,"IL":165.5,"dimention":"2X2م","maintenance":null,"__networkId":"sewer","__networkName":"شبكة الصرف","__layerId":"storm_drains","__layerName":"بلاعات صرف المطر","__assetName":"بلاعات المطر","__geometryKind":"point","__featureIndex":14,"__typeValue":"بلاعات المطر"},"geometry":{"type":"Point","coordinates":[31.56768740818152,30.273809078229093]}},{"type":"Feature","properties":{"GlobalID":"{68CE33C7-2D7D-405D-B598-9FE4DA754628}","ID":"MH-A-31","Easting":"031° 33' 50.31\" E","Northing":"30° 16' 25.21\" N","Implementing":"اولاد حجازي","Start":"1/3/2022","End_":"3/2/2025","sectors":"القطاع الاول","Depth":1.3900000000000148,"GL":165.3,"IL":163.91,"dimention":"2X2م","maintenance":null,"__networkId":"sewer","__networkName":"شبكة الصرف","__layerId":"storm_drains","__layerName":"بلاعات صرف المطر","__assetName":"بلاعات المطر","__geometryKind":"point","__featureIndex":15,"__typeValue":"بلاعات المطر"},"geometry":{"type":"Point","coordinates":[31.56565176915384,30.273836780795644]}},{"type":"Feature","properties":{"GlobalID":"{05DABA2F-CD17-4431-84C3-968AF23C462E}","ID":"MH-A-18","Easting":"031° 34' 0.57\" E","Northing":"30° 16' 25.34\" N","Implementing":"اولاد حجازي","Start":"1/3/2022","End_":"3/2/2025","sectors":"القطاع الاول","Depth":1.5600000000000023,"GL":166.98,"IL":165.42,"dimention":"2X2م","maintenance":null,"__networkId":"sewer","__networkName":"شبكة الصرف","__layerId":"storm_drains","__layerName":"بلاعات صرف المطر","__assetName":"بلاعات المطر","__geometryKind":"point","__featureIndex":16,"__typeValue":"بلاعات المطر"},"geometry":{"type":"Point","coordinates":[31.568502280755514,30.27387161923686]}},{"type":"Feature","properties":{"GlobalID":"{77BD5085-5F24-4B71-95AA-F5EC13A798D7}","ID":"MH-A-29","Easting":"031° 33' 56.4\" E","Northing":"30° 16' 26.06\" N","Implementing":"اولاد حجازي","Start":"1/3/2022","End_":"3/2/2025","sectors":"القطاع الاول","Depth":1.5300000000000011,"GL":166.55,"IL":165.02,"dimention":"2X2م","maintenance":null,"__networkId":"sewer","__networkName":"شبكة الصرف","__layerId":"storm_drains","__layerName":"بلاعات صرف المطر","__assetName":"بلاعات المطر","__geometryKind":"point","__featureIndex":17,"__typeValue":"بلاعات المطر"},"geometry":{"type":"Point","coordinates":[31.567344983869926,30.27407144002641]}},{"type":"Feature","properties":{"GlobalID":"{1225DC7F-545A-41A8-AF6B-AEC5265F9703}","ID":"MH-A-03","Easting":"031° 33' 40.89\" E","Northing":"30° 16' 26.98\" N","Implementing":"اولاد حجازي","Start":"1/3/2022","End_":"3/2/2025","sectors":"القطاع الاول","Depth":1.0999999999999943,"GL":168.54,"IL":167.44,"dimention":"2X2م","maintenance":null,"__networkId":"sewer","__networkName":"شبكة الصرف","__layerId":"storm_drains","__layerName":"بلاعات صرف المطر","__assetName":"بلاعات المطر","__geometryKind":"point","__featureIndex":18,"__typeValue":"بلاعات المطر"},"geometry":{"type":"Point","coordinates":[31.563035958589786,30.27432793759285]}},{"type":"Feature","properties":{"GlobalID":"{4FD0E376-465C-46DC-84B8-A71B1B55808A}","ID":"MH-A-15","Easting":"031° 33' 59.96\" E","Northing":"30° 16' 27.55\" N","Implementing":"اولاد حجازي","Start":"1/3/2022","End_":"3/2/2025","sectors":"القطاع الاول","Depth":2.0,"GL":168.81,"IL":166.81,"dimention":"2X2م","maintenance":null,"__networkId":"sewer","__networkName":"شبكة الصرف","__layerId":"storm_drains","__layerName":"بلاعات صرف المطر","__assetName":"بلاعات المطر","__geometryKind":"point","__featureIndex":19,"__typeValue":"بلاعات المطر"},"geometry":{"type":"Point","coordinates":[31.56833174278534,30.274486537488553]}},{"type":"Feature","properties":{"GlobalID":"{2A2A33E8-F6E1-475D-9821-5A36854219A8}","ID":"MH-A-14","Easting":"031° 34' 2.81\" E","Northing":"30° 16' 27.55\" N","Implementing":"اولاد حجازي","Start":"1/3/2022","End_":"3/2/2025","sectors":"القطاع الاول","Depth":0.8199999999999932,"GL":168.66,"IL":167.84,"dimention":"2X2م","maintenance":null,"__networkId":"sewer","__networkName":"شبكة الصرف","__layerId":"storm_drains","__layerName":"بلاعات صرف المطر","__assetName":"بلاعات المطر","__geometryKind":"point","__featureIndex":20,"__typeValue":"بلاعات المطر"},"geometry":{"type":"Point","coordinates":[31.569125339660182,30.274485576268404]}},{"type":"Feature","properties":{"GlobalID":"{045BFB5E-F105-4DF3-8E40-0E671008B7B0}","ID":"MH-A-10","Easting":"031° 33' 53.3\" E","Northing":"30° 16' 28.66\" N","Implementing":"اولاد حجازي","Start":"1/3/2022","End_":"3/2/2025","sectors":"القطاع الاول","Depth":1.3300000000000125,"GL":166.5,"IL":165.17,"dimention":"2X2م","maintenance":null,"__networkId":"sewer","__networkName":"شبكة الصرف","__layerId":"storm_drains","__layerName":"بلاعات صرف المطر","__assetName":"بلاعات المطر","__geometryKind":"point","__featureIndex":21,"__typeValue":"بلاعات المطر"},"geometry":{"type":"Point","coordinates":[31.566482615570223,30.27479442302381]}},{"type":"Feature","properties":{"GlobalID":"{A7A5D34B-0FD0-4370-ADCE-3B270A3695EF}","ID":"MH-A-02","Easting":"031° 33' 43.3\" E","Northing":"30° 16' 28.85\" N","Implementing":"اولاد حجازي","Start":"1/3/2022","End_":"3/2/2025","sectors":"القطاع الاول","Depth":1.4000000000000057,"GL":168.9,"IL":167.5,"dimention":"2X2م","maintenance":null,"__networkId":"sewer","__networkName":"شبكة الصرف","__layerId":"storm_drains","__layerName":"بلاعات صرف المطر","__assetName":"بلاعات المطر","__geometryKind":"point","__featureIndex":22,"__typeValue":"بلاعات المطر"},"geometry":{"type":"Point","coordinates":[31.56370379312148,30.2748482209105]}},{"type":"Feature","properties":{"GlobalID":"{3E273CDC-B2E1-4E00-891F-1EAF4B5DFD85}","ID":"MH-A-12","Easting":"031° 33' 56.79\" E","Northing":"30° 16' 29.58\" N","Implementing":"اولاد حجازي","Start":"1/3/2022","End_":"3/2/2025","sectors":"القطاع الاول","Depth":1.8000000000000114,"GL":168.56,"IL":166.76,"dimention":"2X2م","maintenance":null,"__networkId":"sewer","__networkName":"شبكة الصرف","__layerId":"storm_drains","__layerName":"بلاعات صرف المطر","__assetName":"بلاعات المطر","__geometryKind":"point","__featureIndex":23,"__typeValue":"بلاعات المطر"},"geometry":{"type":"Point","coordinates":[31.56745242327624,30.275050775953922]}},{"type":"Feature","properties":{"GlobalID":"{D3C16C82-B465-433D-A1E5-7BD3CF14E84E}","ID":"MH-A-13","Easting":"031° 33' 59.53\" E","Northing":"30° 16' 30.03\" N","Implementing":"اولاد حجازي","Start":"1/3/2022","End_":"3/2/2025","sectors":"القطاع الاول","Depth":1.0600000000000023,"GL":168.66,"IL":167.6,"dimention":"2X2م","maintenance":null,"__networkId":"sewer","__networkName":"شبكة الصرف","__layerId":"storm_drains","__layerName":"بلاعات صرف المطر","__assetName":"بلاعات المطر","__geometryKind":"point","__featureIndex":24,"__typeValue":"بلاعات المطر"},"geometry":{"type":"Point","coordinates":[31.568213859565567,30.275175958752445]}},{"type":"Feature","properties":{"GlobalID":"{72FEBD1F-DF1D-421D-8FB9-8A4E877E1FB2}","ID":"MH-A-11","Easting":"031° 33' 55.27\" E","Northing":"30° 16' 30.34\" N","Implementing":"اولاد حجازي","Start":"1/3/2022","End_":"3/2/2025","sectors":"القطاع الاول","Depth":1.25,"GL":167.7,"IL":166.45,"dimention":"2X2م","maintenance":null,"__networkId":"sewer","__networkName":"شبكة الصرف","__layerId":"storm_drains","__layerName":"بلاعات صرف المطر","__assetName":"بلاعات المطر","__geometryKind":"point","__featureIndex":25,"__typeValue":"بلاعات المطر"},"geometry":{"type":"Point","coordinates":[31.56703063370762,30.27525985968743]}},{"type":"Feature","properties":{"GlobalID":"{5C5A953E-098A-451C-A2A9-81377B615216}","ID":"MH-A-01","Easting":"031° 33' 45.68\" E","Northing":"30° 16' 30.75\" N","Implementing":"اولاد حجازي","Start":"1/3/2022","End_":"3/2/2025","sectors":"القطاع الاول","Depth":1.5,"GL":169.78,"IL":168.28,"dimention":"2X2م","maintenance":null,"__networkId":"sewer","__networkName":"شبكة الصرف","__layerId":"storm_drains","__layerName":"بلاعات صرف المطر","__assetName":"بلاعات المطر","__geometryKind":"point","__featureIndex":26,"__typeValue":"بلاعات المطر"},"geometry":{"type":"Point","coordinates":[31.564365089714496,30.2753744215707]}},{"type":"Feature","properties":{"GlobalID":"{6B5C47C3-C935-4DA1-8EF5-6AB5F5FF8D2B}","ID":"MH-A-06","Easting":"031° 33' 45.5\" E","Northing":"30° 16' 31.15\" N","Implementing":"اولاد حجازي","Start":"1/3/2022","End_":"3/2/2025","sectors":"القطاع الاول","Depth":1.5,"GL":169.46,"IL":167.96,"dimention":"2X2م","maintenance":null,"__networkId":"sewer","__networkName":"شبكة الصرف","__layerId":"storm_drains","__layerName":"بلاعات صرف المطر","__assetName":"بلاعات المطر","__geometryKind":"point","__featureIndex":27,"__typeValue":"بلاعات المطر"},"geometry":{"type":"Point","coordinates":[31.564314988874475,30.275486222264924]}},{"type":"Feature","properties":{"GlobalID":"{89729707-02E6-4200-9FD4-CC3660DAF693}","ID":"MH-A-07","Easting":"031° 33' 48.15\" E","Northing":"30° 16' 32.37\" N","Implementing":"اولاد حجازي","Start":"1/3/2022","End_":"3/2/2025","sectors":"القطاع الاول","Depth":1.3499999999999943,"GL":167.38,"IL":166.03,"dimention":"2X2م","maintenance":null,"__networkId":"sewer","__networkName":"شبكة الصرف","__layerId":"storm_drains","__layerName":"بلاعات صرف المطر","__assetName":"بلاعات المطر","__geometryKind":"point","__featureIndex":28,"__typeValue":"بلاعات المطر"},"geometry":{"type":"Point","coordinates":[31.56505247518002,30.27582385631458]}},{"type":"Feature","properties":{"GlobalID":"{04359F81-B760-4AEE-97D6-8D02B8652B54}","ID":"MH-A-08","Easting":"031° 33' 51.03\" E","Northing":"30° 16' 33.78\" N","Implementing":"اولاد حجازي","Start":"1/3/2022","End_":"3/2/2025","sectors":"القطاع الاول","Depth":1.4599999999999795,"GL":167.92,"IL":166.46,"dimention":"2X2م","maintenance":null,"__networkId":"sewer","__networkName":"شبكة الصرف","__layerId":"storm_drains","__layerName":"بلاعات صرف المطر","__assetName":"بلاعات المطر","__geometryKind":"point","__featureIndex":29,"__typeValue":"بلاعات المطر"},"geometry":{"type":"Point","coordinates":[31.56585341757893,30.276215425206367]}},{"type":"Feature","properties":{"GlobalID":"{DAD8861A-3F03-459D-AEEE-5481C57973BA}","ID":"MH-A-09","Easting":"031° 33' 53.4\" E","Northing":"30° 16' 35.66\" N","Implementing":"اولاد حجازي","Start":"1/3/2022","End_":"3/2/2025","sectors":"القطاع الاول","Depth":1.2199999999999989,"GL":168.25,"IL":167.03,"dimention":"2X2م","maintenance":null,"__networkId":"sewer","__networkName":"شبكة الصرف","__layerId":"storm_drains","__layerName":"بلاعات صرف المطر","__assetName":"بلاعات المطر","__geometryKind":"point","__featureIndex":30,"__typeValue":"بلاعات المطر"},"geometry":{"type":"Point","coordinates":[31.566509771641282,30.27673805302696]}}]}