{"type":"FeatureCollection","features":[{"type":"Feature","properties":{"Telecom_Facility_Type":"كبينة","Easting":"031° 33' 29.41\" E","Northing":"30° 15' 49.19\" N","Description":null,"ID":"4-4","GlobalID":"{D418E378-1D7E-47C4-853C-32A5E3383493}","sectors":"القطاع الثاني","number_boxs":30.0,"SHAPE_Length":21.707268004722785,"SHAPE_Area":32.404727828306726,"__networkId":"telecom","__networkName":"شبكة الاتصالات","__layerId":"telecom_facilities","__layerName":"منشآت شبكة الاتصالات","__assetName":"منشآت الاتصالات","__geometryKind":"polygon","__featureIndex":1,"__length_m":21.71,"__area_m2":32.4,"__typeValue":"كبينة"},"geometry":{"type":"Polygon","coordinates":[[[31.55986712267898,30.263840023018844],[31.559873705533377,30.263808973556014],[31.55982716292019,30.263801537449467],[31.559820189844036,30.26383542753117],[31.559826079254286,30.263849919213836],[31.559837109451596,30.263855999108248],[31.559850194011737,30.263856087861715],[31.55986133340513,30.263850158345143],[31.55986712267898,30.263840023018844]]]}},{"type":"Feature","properties":{"Telecom_Facility_Type":"كبينة","Easting":"031° 33' 17.67\" E","Northing":"30° 15' 52.74\" N","Description":null,"ID":"4-3","GlobalID":"{23CD0A5B-7D86-42E7-86F7-BC007BB3EA25}","sectors":"القطاع الثاني","number_boxs":23.0,"SHAPE_Length":4.3074011321035615,"SHAPE_Area":1.0969364745361447,"__networkId":"telecom","__networkName":"شبكة الاتصالات","__layerId":"telecom_facilities","__layerName":"منشآت شبكة الاتصالات","__assetName":"منشآت الاتصالات","__geometryKind":"polygon","__featureIndex":2,"__length_m":4.31,"__area_m2":1.1,"__typeValue":"كبينة"},"geometry":{"type":"Polygon","coordinates":[[[31.556581845344407,30.26481357674804],[31.556574491735468,30.26480689720028],[31.55656860956701,30.264810539179365],[31.556573986882302,30.264818706087993],[31.556581845344407,30.26481357674804]]]}},{"type":"Feature","properties":{"Telecom_Facility_Type":"كبينة","Easting":"031° 33' 42.29\" E","Northing":"30° 15' 52.8\" N","Description":null,"ID":"12-1","GlobalID":"{9FD65E82-AA69-4C6B-B1B8-F13C214134FF}","sectors":"القطاع الثاني","number_boxs":34.0,"SHAPE_Length":21.704274308094803,"SHAPE_Area":32.40089412478222,"__networkId":"telecom","__networkName":"شبكة الاتصالات","__layerId":"telecom_facilities","__layerName":"منشآت شبكة الاتصالات","__assetName":"منشآت الاتصالات","__geometryKind":"polygon","__featureIndex":3,"__length_m":21.7,"__area_m2":32.4,"__typeValue":"كبينة"},"geometry":{"type":"Polygon","coordinates":[[[31.563441679992923,30.2648471901745],[31.563455629930985,30.264818032624508],[31.563411924197467,30.264802277612684],[31.563396904581545,30.26483414006425],[31.563399135996466,30.26484937468043],[31.563408434401065,30.264857323498212],[31.563421200410083,30.26485979489501],[31.563433537481078,30.26485603453133],[31.563441679992923,30.2648471901745]]]}},{"type":"Feature","properties":{"Telecom_Facility_Type":"كبينة","Easting":"031° 33' 30.17\" E","Northing":"30° 15' 57.28\" N","Description":null,"ID":"9-1","GlobalID":"{F4916A3D-0EB2-4978-9797-E08D0DBBC4B9}","sectors":"القطاع الثاني","number_boxs":24.0,"SHAPE_Length":4.656835520113743,"SHAPE_Area":1.3509184246909738,"__networkId":"telecom","__networkName":"شبكة الاتصالات","__layerId":"telecom_facilities","__layerName":"منشآت شبكة الاتصالات","__assetName":"منشآت الاتصالات","__geometryKind":"polygon","__featureIndex":4,"__length_m":4.66,"__area_m2":1.35,"__typeValue":"كبينة"},"geometry":{"type":"Polygon","coordinates":[[[31.560061526191312,30.26606308954176],[31.560050880256874,30.266062160825683],[31.560049439359165,30.266070231422415],[31.560059771781543,30.266072486875508],[31.560061526191312,30.26606308954176]]]}},{"type":"Feature","properties":{"Telecom_Facility_Type":"كبينة","Easting":"031° 33' 56.36\" E","Northing":"30° 15' 59.69\" N","Description":null,"ID":"12-2","GlobalID":"{24640847-BF85-4271-BD7C-40E0F7AA38C7}","sectors":"القطاع الثاني","number_boxs":30.0,"SHAPE_Length":21.699241570151184,"SHAPE_Area":32.39591293447267,"__networkId":"telecom","__networkName":"شبكة الاتصالات","__layerId":"telecom_facilities","__layerName":"منشآت شبكة الاتصالات","__assetName":"منشآت الاتصالات","__geometryKind":"polygon","__featureIndex":5,"__length_m":21.7,"__area_m2":32.4,"__typeValue":"كبينة"},"geometry":{"type":"Polygon","coordinates":[[[31.56734642925922,30.266765326726055],[31.567368541289937,30.26674026087866],[31.56733096386329,30.26671528657687],[31.56730701841483,30.266742733119667],[31.56730465848952,30.266757950046927],[31.56731127796149,30.26676769346805],[31.567322872580746,30.26677292197219],[31.567335912864483,30.26677204396909],[31.56734642925922,30.266765326726055]]]}},{"type":"Feature","properties":{"Telecom_Facility_Type":"كبينة","Easting":"031° 33' 40.81\" E","Northing":"30° 16' 1.2\" N","Description":null,"ID":"11-2","GlobalID":"{ECBE28FB-6979-46F8-9BF9-EE49E290D2DE}","sectors":"القطاع الثاني","number_boxs":24.0,"SHAPE_Length":4.252784291076549,"SHAPE_Area":1.1266273526489776,"__networkId":"telecom","__networkName":"شبكة الاتصالات","__layerId":"telecom_facilities","__layerName":"منشآت شبكة الاتصالات","__assetName":"منشآت الاتصالات","__geometryKind":"polygon","__featureIndex":6,"__length_m":4.25,"__area_m2":1.13,"__typeValue":"كبينة"},"geometry":{"type":"Polygon","coordinates":[[[31.56301702479856,30.267150678313364],[31.563007716455573,30.267147453058595],[31.56300393364993,30.267154757791133],[31.56301223498147,30.26715804123531],[31.56301702479856,30.267150678313364]]]}},{"type":"Feature","properties":{"Telecom_Facility_Type":"كبينة","Easting":"031° 33' 22.13\" E","Northing":"30° 16' 3.72\" N","Description":null,"ID":"7-2","GlobalID":"{B5E33DB0-B2B1-4F9E-89E8-54AB600D7EE3}","sectors":"القطاع الثاني","number_boxs":28.0,"SHAPE_Length":4.226743627414217,"SHAPE_Area":1.0962835268004252,"__networkId":"telecom","__networkName":"شبكة الاتصالات","__layerId":"telecom_facilities","__layerName":"منشآت شبكة الاتصالات","__assetName":"منشآت الاتصالات","__geometryKind":"polygon","__featureIndex":7,"__length_m":4.23,"__area_m2":1.1,"__typeValue":"كبينة"},"geometry":{"type":"Polygon","coordinates":[[[31.55783446066815,30.26786508787483],[31.55782493672952,30.267860681015502],[31.557822037866092,30.26786800043631],[31.557831544736736,30.267871432820787],[31.55783446066815,30.26786508787483]]]}},{"type":"Feature","properties":{"Telecom_Facility_Type":"كبينة","Easting":"031° 33' 11.38\" E","Northing":"30° 16' 4.15\" N","Description":null,"ID":"4-2","GlobalID":"{7E91EA9F-9077-4F2E-8E1C-F198516C1354}","sectors":"القطاع الثاني","number_boxs":30.0,"SHAPE_Length":4.319802143404541,"SHAPE_Area":1.1629736011119127,"__networkId":"telecom","__networkName":"شبكة الاتصالات","__layerId":"telecom_facilities","__layerName":"منشآت شبكة الاتصالات","__assetName":"منشآت الاتصالات","__geometryKind":"polygon","__featureIndex":8,"__length_m":4.32,"__area_m2":1.16,"__typeValue":"كبينة"},"geometry":{"type":"Polygon","coordinates":[[[31.55484865829311,30.26798549281491],[31.554840118908,30.26798234517301],[31.554835415329165,30.26798857994009],[31.554845895075275,30.267993063603242],[31.55484865829311,30.26798549281491]]]}},{"type":"Feature","properties":{"Telecom_Facility_Type":"كبينة","Easting":"031° 33' 32.98\" E","Northing":"30° 16' 4.94\" N","Description":null,"ID":"9-4","GlobalID":"{6ABCFFD8-2C8C-4E38-A95F-12436CACFEDA}","sectors":"القطاع الثاني","number_boxs":27.0,"SHAPE_Length":21.705853493459124,"SHAPE_Area":32.40500846894181,"__networkId":"telecom","__networkName":"شبكة الاتصالات","__layerId":"telecom_facilities","__layerName":"منشآت شبكة الاتصالات","__assetName":"منشآت الاتصالات","__geometryKind":"polygon","__featureIndex":9,"__length_m":21.71,"__area_m2":32.41,"__typeValue":"كبينة"},"geometry":{"type":"Polygon","coordinates":[[[31.56086379270694,30.268206868693397],[31.56086511273917,30.268195625927902],[31.56085931865395,30.2681854939242],[31.560848179359077,30.2681795659371],[31.560835095626725,30.268179651751996],[31.56082118473211,30.268189216851734],[31.560806422699606,30.26822117153855],[31.560850451826646,30.26823623859643],[31.56086379270694,30.268206868693397]]]}},{"type":"Feature","properties":{"Telecom_Facility_Type":"كبينة","Easting":"031° 34' 3.61\" E","Northing":"30° 16' 5.09\" N","Description":null,"ID":"12-3","GlobalID":"{9364C8D8-67DC-4554-B54D-EEB80AC2BF8D}","sectors":"القطاع الثاني","number_boxs":30.0,"SHAPE_Length":21.69584601027115,"SHAPE_Area":32.3927988371258,"__networkId":"telecom","__networkName":"شبكة الاتصالات","__layerId":"telecom_facilities","__layerName":"منشآت شبكة الاتصالات","__assetName":"منشآت الاتصالات","__geometryKind":"polygon","__featureIndex":10,"__length_m":21.7,"__area_m2":32.39,"__typeValue":"كبينة"},"geometry":{"type":"Polygon","coordinates":[[[31.569356611828386,30.26826620822456],[31.56938281568522,30.26824431366958],[31.569349993041374,30.26821471721995],[31.569321565804458,30.26823872846848],[31.569316598550596,30.268253467408268],[31.569321448318732,30.268263957072115],[31.569331996783873,30.268270633701015],[31.56934503886989,30.268271468649207],[31.569356611828386,30.26826620822456]]]}},{"type":"Feature","properties":{"Telecom_Facility_Type":"كبينة","Easting":"031° 33' 50.85\" E","Northing":"30° 16' 6.32\" N","Description":null,"ID":"11-3","GlobalID":"{911272E3-0A38-4A89-8522-AA8CF24A9371}","sectors":"القطاع الثاني","number_boxs":32.0,"SHAPE_Length":4.185721108820991,"SHAPE_Area":1.1145033898258736,"__networkId":"telecom","__networkName":"شبكة الاتصالات","__layerId":"telecom_facilities","__layerName":"منشآت شبكة الاتصالات","__assetName":"منشآت الاتصالات","__geometryKind":"polygon","__featureIndex":11,"__length_m":4.19,"__area_m2":1.11,"__typeValue":"كبينة"},"geometry":{"type":"Polygon","coordinates":[[[31.56581258735262,30.26858026808752],[31.565805610137833,30.26857590548373],[31.565800275941665,30.26858263055024],[31.56580803648739,30.268587711590598],[31.56581258735262,30.26858026808752]]]}},{"type":"Feature","properties":{"Telecom_Facility_Type":"كبينة","Easting":"031° 33' 50.42\" E","Northing":"30° 16' 7.11\" N","Description":null,"ID":"11-4","GlobalID":"{2B958923-8C74-43B5-8460-39089BBF0093}","sectors":"القطاع الثاني","number_boxs":30.0,"SHAPE_Length":21.700561956068224,"SHAPE_Area":32.397512307023824,"__networkId":"telecom","__networkName":"شبكة الاتصالات","__layerId":"telecom_facilities","__layerName":"منشآت شبكة الاتصالات","__assetName":"منشآت الاتصالات","__geometryKind":"polygon","__featureIndex":12,"__length_m":21.7,"__area_m2":32.4,"__typeValue":"كبينة"},"geometry":{"type":"Polygon","coordinates":[[[31.565696018368097,30.268826155542186],[31.565716772146107,30.268800228253735],[31.565677904738727,30.268776787552184],[31.56565544688416,30.268805167305892],[31.56565390047281,30.268820461619356],[31.565661034074136,30.268829930390716],[31.56567289681807,30.268834689208223],[31.565685875856307,30.268833288754543],[31.565696018368097,30.268826155542186]]]}},{"type":"Feature","properties":{"Telecom_Facility_Type":"كبينة","Easting":"031° 33' 18.67\" E","Northing":"30° 16' 11.26\" N","Description":null,"ID":"7-1","GlobalID":"{C5D39E61-8340-4A6C-B967-6F8119D0FFD0}","sectors":"القطاع الثالث","number_boxs":30.0,"SHAPE_Length":4.4695737563842375,"SHAPE_Area":1.2531232834656054,"__networkId":"telecom","__networkName":"شبكة الاتصالات","__layerId":"telecom_facilities","__layerName":"منشآت شبكة الاتصالات","__assetName":"منشآت الاتصالات","__geometryKind":"polygon","__featureIndex":13,"__length_m":4.47,"__area_m2":1.25,"__typeValue":"كبينة"},"geometry":{"type":"Polygon","coordinates":[[[31.556869209217275,30.269961455740987],[31.55685891721906,30.269958955212083],[31.556856478293074,30.269966894371677],[31.556867308382117,30.269968923190348],[31.556869209217275,30.269961455740987]]]}},{"type":"Feature","properties":{"Telecom_Facility_Type":"كبينة","Easting":"031° 33' 48.63\" E","Northing":"30° 16' 12.68\" N","Description":null,"ID":"10-2","GlobalID":"{C60064C2-AA8A-42EF-8164-62A7B6A50FC1}","sectors":"القطاع الثاني","number_boxs":29.0,"SHAPE_Length":21.699612719162126,"SHAPE_Area":32.39730054267658,"__networkId":"telecom","__networkName":"شبكة الاتصالات","__layerId":"telecom_facilities","__layerName":"منشآت شبكة الاتصالات","__assetName":"منشآت الاتصالات","__geometryKind":"polygon","__featureIndex":14,"__length_m":21.7,"__area_m2":32.4,"__typeValue":"كبينة"},"geometry":{"type":"Polygon","coordinates":[[[31.565208363424528,30.27036200737181],[31.565213237380686,30.270351524554368],[31.565210933063785,30.270340404837885],[31.565202151838403,30.270332032725307],[31.565189566441063,30.270328956432937],[31.565173111570875,30.270334763860802],[31.565148673967155,30.270361881686426],[31.565186130121262,30.27038699393513],[31.565208363424528,30.27036200737181]]]}},{"type":"Feature","properties":{"Telecom_Facility_Type":"كبينة","Easting":"031° 33' 25.19\" E","Northing":"30° 16' 13.92\" N","Description":null,"ID":"9-3","GlobalID":"{A30077FD-FDC0-4B20-BA02-575C8BD74554}","sectors":"القطاع الثالث","number_boxs":22.0,"SHAPE_Length":4.311134028817908,"SHAPE_Area":1.1516389405565088,"__networkId":"telecom","__networkName":"شبكة الاتصالات","__layerId":"telecom_facilities","__layerName":"منشآت شبكة الاتصالات","__assetName":"منشآت الاتصالات","__geometryKind":"polygon","__featureIndex":15,"__length_m":4.31,"__area_m2":1.15,"__typeValue":"كبينة"},"geometry":{"type":"Polygon","coordinates":[[[31.55867942770251,30.270700577634436],[31.558670022341467,30.270696774500596],[31.558665615206674,30.270703964921616],[31.55867497565196,30.270707181525417],[31.55867942770251,30.270700577634436]]]}},{"type":"Feature","properties":{"Telecom_Facility_Type":"كبينة","Easting":"031° 33' 35.78\" E","Northing":"30° 16' 14.08\" N","Description":null,"ID":"10-1","GlobalID":"{FACB0CCE-C4A0-4755-BB75-B686E145E2C3}","sectors":"القطاع الاول","number_boxs":27.0,"SHAPE_Length":21.69581044088708,"SHAPE_Area":32.394069041364546,"__networkId":"telecom","__networkName":"شبكة الاتصالات","__layerId":"telecom_facilities","__layerName":"منشآت شبكة الاتصالات","__assetName":"منشآت الاتصالات","__geometryKind":"polygon","__featureIndex":16,"__length_m":21.7,"__area_m2":32.39,"__typeValue":"كبينة"},"geometry":{"type":"Polygon","coordinates":[[[31.561637120894,30.270733768543984],[31.561610576575674,30.270712184872526],[31.561578219259122,30.270742163054777],[31.561607334078705,30.27076554672857],[31.561624654025493,30.27076899355374],[31.56163650526715,30.270764217482316],[31.56164362665729,30.270754744050308],[31.561643854985036,30.270743450929462],[31.561637120894,30.270733768543984]]]}},{"type":"Feature","properties":{"Telecom_Facility_Type":"كبينة","Easting":"031° 33' 6.61\" E","Northing":"30° 16' 14.66\" N","Description":null,"ID":"4-1","GlobalID":"{AC6E7136-C292-434A-AC00-1257539455CC}","sectors":"القطاع الثالث","number_boxs":26.0,"SHAPE_Length":4.262869439743776,"SHAPE_Area":1.079489948516275,"__networkId":"telecom","__networkName":"شبكة الاتصالات","__layerId":"telecom_facilities","__layerName":"منشآت شبكة الاتصالات","__assetName":"منشآت الاتصالات","__geometryKind":"polygon","__featureIndex":17,"__length_m":4.26,"__area_m2":1.08,"__typeValue":"كبينة"},"geometry":{"type":"Polygon","coordinates":[[[31.553518627056476,30.270901831633527],[31.55350712412928,30.270900075150983],[31.553505899725533,30.27090600715852],[31.553515997687636,30.270909157810014],[31.553518627056476,30.270901831633527]]]}},{"type":"Feature","properties":{"Telecom_Facility_Type":"كبينة","Easting":"031° 34' 10.93\" E","Northing":"30° 16' 15.56\" N","Description":null,"ID":"12-4","GlobalID":"{CA695FF8-950D-495D-B459-0C2342E13AE0}","sectors":"القطاع الثاني","number_boxs":28.0,"SHAPE_Length":21.684671866751977,"SHAPE_Area":32.381645798739314,"__networkId":"telecom","__networkName":"شبكة الاتصالات","__layerId":"telecom_facilities","__layerName":"منشآت شبكة الاتصالات","__assetName":"منشآت الاتصالات","__geometryKind":"polygon","__featureIndex":18,"__length_m":21.68,"__area_m2":32.38,"__typeValue":"كبينة"},"geometry":{"type":"Polygon","coordinates":[[[31.571373277538935,30.271175617530794],[31.571409601815766,30.27117396501431],[31.571407126058833,30.271132939925913],[31.57136752068065,30.27113495326743],[31.57135265101641,30.271143348634215],[31.571348407115238,30.271154025555678],[31.571351336660516,30.271165026883835],[31.571360554850134,30.27117302991984],[31.571373277538935,30.271175617530794]]]}},{"type":"Feature","properties":{"Telecom_Facility_Type":"كبينة","Easting":"031° 34' 3.0\" E","Northing":"30° 16' 15.59\" N","Description":null,"ID":"10-4","GlobalID":"{EE1B59B2-8AC8-402F-A1FF-2A6F7D5446ED}","sectors":"القطاع الثاني","number_boxs":28.0,"SHAPE_Length":4.236563982431224,"SHAPE_Area":1.112248184655244,"__networkId":"telecom","__networkName":"شبكة الاتصالات","__layerId":"telecom_facilities","__layerName":"منشآت شبكة الاتصالات","__assetName":"منشآت الاتصالات","__geometryKind":"polygon","__featureIndex":19,"__length_m":4.24,"__area_m2":1.11,"__typeValue":"كبينة"},"geometry":{"type":"Polygon","coordinates":[[[31.569190798098276,30.271163031250783],[31.569187944150634,30.27115458246791],[31.569179450579608,30.271157875864102],[31.569181166361833,30.271165165557516],[31.569190798098276,30.271163031250783]]]}},{"type":"Feature","properties":{"Telecom_Facility_Type":"كبينة","Easting":"031° 33' 48.43\" E","Northing":"30° 16' 17.24\" N","Description":null,"ID":"7-2","GlobalID":"{6E4801DC-5D55-4E32-BB08-3AD6F06A1527}","sectors":"القطاع الاول","number_boxs":24.0,"SHAPE_Length":4.645179146629435,"SHAPE_Area":1.3382275062821163,"__networkId":"telecom","__networkName":"شبكة الاتصالات","__layerId":"telecom_facilities","__layerName":"منشآت شبكة الاتصالات","__assetName":"منشآت الاتصالات","__geometryKind":"polygon","__featureIndex":20,"__length_m":4.65,"__area_m2":1.34,"__typeValue":"كبينة"},"geometry":{"type":"Polygon","coordinates":[[[31.565133954172918,30.271631202075916],[31.565125665417803,30.27162607619519],[31.565118984647018,30.271631905749864],[31.565125736384704,30.27163853362879],[31.565133954172918,30.271631202075916]]]}},{"type":"Feature","properties":{"Telecom_Facility_Type":"كبينة","Easting":"031° 33' 42.71\" E","Northing":"30° 16' 19.4\" N","Description":null,"ID":"7-1","GlobalID":"{6B57265F-3BD7-4045-8044-0E47848851A2}","sectors":"القطاع الاول","number_boxs":24.0,"SHAPE_Length":21.69593229248607,"SHAPE_Area":32.39424065067252,"__networkId":"telecom","__networkName":"شبكة الاتصالات","__layerId":"telecom_facilities","__layerName":"منشآت شبكة الاتصالات","__assetName":"منشآت الاتصالات","__geometryKind":"polygon","__featureIndex":21,"__length_m":21.7,"__area_m2":32.39,"__typeValue":"كبينة"},"geometry":{"type":"Polygon","coordinates":[[[31.56357745046664,30.27222307230945],[31.563549298675646,30.27220088685134],[31.563538827317803,30.272196826779535],[31.563521430001344,30.27219996917074],[31.5635145532366,30.272206077242487],[31.56351114660782,30.27221407254603],[31.563515382766564,30.272228980298948],[31.563545572850472,30.27225343716483],[31.56357745046664,30.27222307230945]]]}},{"type":"Feature","properties":{"Telecom_Facility_Type":"كبينة","Easting":"031° 33' 17.27\" E","Northing":"30° 16' 20.58\" N","Description":null,"ID":"5-4","GlobalID":"{19B44B41-25D4-4973-B92E-B869113CAF75}","sectors":"القطاع الثالث","number_boxs":28.0,"SHAPE_Length":4.392131101746037,"SHAPE_Area":1.2192845743438556,"__networkId":"telecom","__networkName":"شبكة الاتصالات","__layerId":"telecom_facilities","__layerName":"منشآت شبكة الاتصالات","__assetName":"منشآت الاتصالات","__geometryKind":"polygon","__featureIndex":22,"__length_m":4.39,"__area_m2":1.22,"__typeValue":"كبينة"},"geometry":{"type":"Polygon","coordinates":[[[31.556472892276847,30.27255036273568],[31.556465544956158,30.272544945970996],[31.55645889742303,30.272551279753134],[31.55646606957226,30.27255690521257],[31.556472892276847,30.27255036273568]]]}},{"type":"Feature","properties":{"Telecom_Facility_Type":"كبينة","Easting":"031° 33' 19.17\" E","Northing":"30° 16' 23.59\" N","Description":null,"ID":"5-3","GlobalID":"{5DDBAB42-3842-427E-8020-872414C1C5B2}","sectors":"القطاع الثالث","number_boxs":32.0,"SHAPE_Length":4.5533268099074045,"SHAPE_Area":1.2376797046192245,"__networkId":"telecom","__networkName":"شبكة الاتصالات","__layerId":"telecom_facilities","__layerName":"منشآت شبكة الاتصالات","__assetName":"منشآت الاتصالات","__geometryKind":"polygon","__featureIndex":23,"__length_m":4.55,"__area_m2":1.24,"__typeValue":"كبينة"},"geometry":{"type":"Polygon","coordinates":[[[31.557013680772837,30.273377199418757],[31.55700801330172,30.27337116205013],[31.556999327491212,30.273378848019075],[31.557005215947925,30.27338368520629],[31.557013680772837,30.273377199418757]]]}},{"type":"Feature","properties":{"Telecom_Facility_Type":"كبينة","Easting":"031° 33' 54.38\" E","Northing":"30° 16' 24.97\" N","Description":null,"ID":"7-3","GlobalID":"{8E47A43F-FBBF-4E3C-85EA-69F59A0C75FA}","sectors":"القطاع الاول","number_boxs":18.0,"SHAPE_Length":21.69604315592012,"SHAPE_Area":32.39503071595878,"__networkId":"telecom","__networkName":"شبكة الاتصالات","__layerId":"telecom_facilities","__layerName":"منشآت شبكة الاتصالات","__assetName":"منشآت الاتصالات","__geometryKind":"polygon","__featureIndex":24,"__length_m":21.7,"__area_m2":32.4,"__typeValue":"كبينة"},"geometry":{"type":"Polygon","coordinates":[[[31.566806301024965,30.27377868592581],[31.56681318551965,30.273769083099864],[31.56681313383707,30.27375778872861],[31.566806161676613,30.273748233191835],[31.566794386654497,30.273743318746142],[31.5667770139821,30.273746561405314],[31.56674753503571,30.273769599653253],[31.56677942073672,30.273799956272182],[31.566806301024965,30.27377868592581]]]}},{"type":"Feature","properties":{"Telecom_Facility_Type":"كبينة","Easting":"031° 33' 38.9\" E","Northing":"30° 16' 25.06\" N","Description":null,"ID":"6-4","GlobalID":"{DF0E06E5-6DC9-44A3-93ED-B66C6651CF9D}","sectors":"القطاع الاول","number_boxs":24.0,"SHAPE_Length":21.696362869421776,"SHAPE_Area":32.39579410911434,"__networkId":"telecom","__networkName":"شبكة الاتصالات","__layerId":"telecom_facilities","__layerName":"منشآت شبكة الاتصالات","__assetName":"منشآت الاتصالات","__geometryKind":"polygon","__featureIndex":25,"__length_m":21.7,"__area_m2":32.4,"__typeValue":"كبينة"},"geometry":{"type":"Polygon","coordinates":[[[31.562504648218372,30.27378357895152],[31.562477710437943,30.27376236290822],[31.56244590558531,30.273792786248965],[31.562475449638296,30.27381576389382],[31.56249283100514,30.27381897018974],[31.562504592116582,30.273814031482686],[31.562511537796436,30.273804461845785],[31.562511558603543,30.273793167630267],[31.562504648218372,30.27378357895152]]]}},{"type":"Feature","properties":{"Telecom_Facility_Type":"كبينة","Easting":"031° 33' 36.21\" E","Northing":"30° 16' 26.44\" N","Description":null,"ID":"6-3","GlobalID":"{B96FE9FE-2810-40DA-A916-EF1AC4DA821D}","sectors":"القطاع الثالث","number_boxs":27.0,"SHAPE_Length":21.699737898393998,"SHAPE_Area":32.4004634127168,"__networkId":"telecom","__networkName":"شبكة الاتصالات","__layerId":"telecom_facilities","__layerName":"منشآت شبكة الاتصالات","__assetName":"منشآت الاتصالات","__geometryKind":"polygon","__featureIndex":26,"__length_m":21.7,"__area_m2":32.4,"__typeValue":"كبينة"},"geometry":{"type":"Polygon","coordinates":[[[31.561759135465763,30.274184612277487],[31.561764690804758,30.274174385511234],[31.561763123710527,30.27416317064453],[31.56175491083184,30.274154378793497],[31.561742550198367,30.274150684090102],[31.56172573479446,30.274155663273554],[31.56169954751803,30.27418152457135],[31.561735291483174,30.27420845433069],[31.561759135465763,30.274184612277487]]]}},{"type":"Feature","properties":{"Telecom_Facility_Type":"كبينة","Easting":"031° 34' 4.47\" E","Northing":"30° 16' 27.36\" N","Description":null,"ID":"10-3","GlobalID":"{448A8B55-A48D-4D31-999A-34785073EBBD}","sectors":"القطاع الثاني","number_boxs":26.0,"SHAPE_Length":21.695665284235957,"SHAPE_Area":32.39532660352108,"__networkId":"telecom","__networkName":"شبكة الاتصالات","__layerId":"telecom_facilities","__layerName":"منشآت شبكة الاتصالات","__assetName":"منشآت الاتصالات","__geometryKind":"polygon","__featureIndex":27,"__length_m":21.7,"__area_m2":32.4,"__typeValue":"كبينة"},"geometry":{"type":"Polygon","coordinates":[[[31.569606154831153,30.274444948223916],[31.569613426136897,30.2744355608865],[31.569613836266065,30.274424272367494],[31.5696072607064,30.27441450981135],[31.569595695768598,30.27440923708837],[31.569578200519526,30.274411941985814],[31.569547795778718,30.27443405594227],[31.56957842024507,30.274465377455066],[31.569606154831153,30.274444948223916]]]}},{"type":"Feature","properties":{"Telecom_Facility_Type":"كبينة","Easting":"031° 33' 11.82\" E","Northing":"30° 16' 28.32\" N","Description":null,"ID":"3-1","GlobalID":"{49DE01CB-D115-4421-85B7-E182AD9F1F69}","sectors":"القطاع الثالث","number_boxs":32.0,"SHAPE_Length":4.292489839784696,"SHAPE_Area":1.137844511719806,"__networkId":"telecom","__networkName":"شبكة الاتصالات","__layerId":"telecom_facilities","__layerName":"منشآت شبكة الاتصالات","__assetName":"منشآت الاتصالات","__geometryKind":"polygon","__featureIndex":28,"__length_m":4.29,"__area_m2":1.14,"__typeValue":"كبينة"},"geometry":{"type":"Polygon","coordinates":[[[31.554968941811328,30.274688582800934],[31.55496047878304,30.27468442372866],[31.554955416776398,30.274689695300363],[31.554963589648857,30.274695893954608],[31.554968941811328,30.274688582800934]]]}},{"type":"Feature","properties":{"Telecom_Facility_Type":"كبينة","Easting":"031° 33' 52.59\" E","Northing":"30° 16' 28.82\" N","Description":null,"ID":"7-4","GlobalID":"{61744423-8433-41BE-9FCE-0B4AC5F91382}","sectors":"القطاع الاول","number_boxs":20.0,"SHAPE_Length":21.69685108923167,"SHAPE_Area":32.39684039631984,"__networkId":"telecom","__networkName":"شبكة الاتصالات","__layerId":"telecom_facilities","__layerName":"منشآت شبكة الاتصالات","__assetName":"منشآت الاتصالات","__geometryKind":"polygon","__featureIndex":29,"__length_m":21.7,"__area_m2":32.4,"__typeValue":"كبينة"},"geometry":{"type":"Polygon","coordinates":[[[31.56630688982928,30.274829035367123],[31.56628031945983,30.27480747587015],[31.566247995380937,30.27483748383371],[31.5662771421632,30.274860840906133],[31.56629446689252,30.27486427150478],[31.566306312464963,30.274859484418187],[31.56631342215258,30.274850004457246],[31.56631363629015,30.274838711287796],[31.56630688982928,30.274829035367123]]]}},{"type":"Feature","properties":{"Telecom_Facility_Type":"كبينة","Easting":"031° 33' 29.06\" E","Northing":"30° 16' 29.91\" N","Description":null,"ID":"5-1","GlobalID":"{AF28B4B8-DF6A-4230-B777-49BBBCF5741C}","sectors":"القطاع الثالث","number_boxs":32.0,"SHAPE_Length":4.588901104819128,"SHAPE_Area":1.3228666555821162,"__networkId":"telecom","__networkName":"شبكة الاتصالات","__layerId":"telecom_facilities","__layerName":"منشآت شبكة الاتصالات","__assetName":"منشآت الاتصالات","__geometryKind":"polygon","__featureIndex":30,"__length_m":4.59,"__area_m2":1.32,"__typeValue":"كبينة"},"geometry":{"type":"Polygon","coordinates":[[[31.559757372805763,30.275140839159562],[31.559749665260632,30.275134251082804],[31.559742337702875,30.27514142643863],[31.559749755092174,30.275146346549324],[31.559757372805763,30.275140839159562]]]}},{"type":"Feature","properties":{"Telecom_Facility_Type":"كبينة","Easting":"031° 33' 11.71\" E","Northing":"30° 16' 30.63\" N","Description":null,"ID":"3-2","GlobalID":"{93048D14-A5A4-407A-98BF-76C9C3B4AC37}","sectors":"القطاع الخامس","number_boxs":24.0,"SHAPE_Length":4.90662384850809,"SHAPE_Area":1.4878531184857882,"__networkId":"telecom","__networkName":"شبكة الاتصالات","__layerId":"telecom_facilities","__layerName":"منشآت شبكة الاتصالات","__assetName":"منشآت الاتصالات","__geometryKind":"polygon","__featureIndex":31,"__length_m":4.91,"__area_m2":1.49,"__typeValue":"كبينة"},"geometry":{"type":"Polygon","coordinates":[[[31.554943345215637,30.27533513679777],[31.554934822000206,30.275330458745046],[31.554927913057366,30.275337877686585],[31.55493357873186,30.275343803995376],[31.554943345215637,30.27533513679777]]]}},{"type":"Feature","properties":{"Telecom_Facility_Type":"كبينة","Easting":"031° 33' 29.97\" E","Northing":"30° 16' 32.68\" N","Description":null,"ID":"5-2","GlobalID":"{5CE04C7E-6280-4E2B-AB82-92C435169E4F}","sectors":"القطاع الثالث","number_boxs":28.0,"SHAPE_Length":21.699214436086162,"SHAPE_Area":32.400230069672716,"__networkId":"telecom","__networkName":"شبكة الاتصالات","__layerId":"telecom_facilities","__layerName":"منشآت شبكة الاتصالات","__assetName":"منشآت الاتصالات","__geometryKind":"polygon","__featureIndex":32,"__length_m":21.7,"__area_m2":32.4,"__typeValue":"كبينة"},"geometry":{"type":"Polygon","coordinates":[[[31.5600147545077,30.275930900893584],[31.560039362058294,30.275907649636448],[31.56000450473032,30.275879859989896],[31.559977825840438,30.27590533957512],[31.55997390880145,30.27592031389656],[31.55997949461429,30.275930527948763],[31.55999050019646,30.275936632190838],[31.560003579115225,30.275936770526627],[31.5600147545077,30.275930900893584]]]}},{"type":"Feature","properties":{"Telecom_Facility_Type":"كبينة","Easting":"031° 33' 48.13\" E","Northing":"30° 16' 33.88\" N","Description":null,"ID":"6-2","GlobalID":"{DA765586-4623-45A5-AD7C-110791F152D2}","sectors":"القطاع الاول","number_boxs":18.0,"SHAPE_Length":21.699451820931742,"SHAPE_Area":32.400399882000755,"__networkId":"telecom","__networkName":"شبكة الاتصالات","__layerId":"telecom_facilities","__layerName":"منشآت شبكة الاتصالات","__assetName":"منشآت الاتصالات","__geometryKind":"polygon","__featureIndex":33,"__length_m":21.7,"__area_m2":32.4,"__typeValue":"كبينة"},"geometry":{"type":"Polygon","coordinates":[[[31.56506982074984,30.27625343578109],[31.565075643784063,30.276243320908506],[31.56507437296674,30.276232078354386],[31.56506639475431,30.276223126979023],[31.565054135320693,30.276219188897375],[31.565037191906505,30.276223833180612],[31.565010330718454,30.276249168940456],[31.565045356929716,30.276276799445714],[31.56506982074984,30.27625343578109]]]}},{"type":"Feature","properties":{"Telecom_Facility_Type":"كبينة","Easting":"031° 33' 40.83\" E","Northing":"30° 16' 37.06\" N","Description":null,"ID":"6-1","GlobalID":"{805B4786-0FBB-48D6-9E46-78F4015588A5}","sectors":"القطاع الثالث","number_boxs":28.0,"SHAPE_Length":4.239759313747438,"SHAPE_Area":1.1022670010398998,"__networkId":"telecom","__networkName":"شبكة الاتصالات","__layerId":"telecom_facilities","__layerName":"منشآت شبكة الاتصالات","__assetName":"منشآت الاتصالات","__geometryKind":"polygon","__featureIndex":34,"__length_m":4.24,"__area_m2":1.1,"__typeValue":"كبينة"},"geometry":{"type":"Polygon","coordinates":[[[31.563018210574732,30.277121360844536],[31.5630130605332,30.277113028941912],[31.563005488633667,30.2771156681536],[31.56300855368543,30.277123088511782],[31.563018210574732,30.277121360844536]]]}},{"type":"Feature","properties":{"Telecom_Facility_Type":"كبينة","Easting":"031° 33' 7.37\" E","Northing":"30° 16' 37.73\" N","Description":null,"ID":"3-3","GlobalID":"{EFE64E11-C974-430C-BC5E-0ECDBB56C95A}","sectors":"القطاع الخامس","number_boxs":24.0,"SHAPE_Length":4.43761044646866,"SHAPE_Area":1.2203467708148914,"__networkId":"telecom","__networkName":"شبكة الاتصالات","__layerId":"telecom_facilities","__layerName":"منشآت شبكة الاتصالات","__assetName":"منشآت الاتصالات","__geometryKind":"polygon","__featureIndex":35,"__length_m":4.44,"__area_m2":1.22,"__typeValue":"كبينة"},"geometry":{"type":"Polygon","coordinates":[[[31.55373497461457,30.27730280763101],[31.553727156576628,30.27729690471398],[31.55372062941779,30.277304283942065],[31.55372747278361,30.27730872916645],[31.55373497461457,30.27730280763101]]]}},{"type":"Feature","properties":{"Telecom_Facility_Type":"كبينة","Easting":"031° 33' 25.89\" E","Northing":"30° 16' 39.32\" N","Description":null,"ID":"8.2","GlobalID":"{72168AC3-023A-4041-9C97-9F5C78FF5633}","sectors":"القطاع الثالث","number_boxs":32.0,"SHAPE_Length":4.145273783123029,"SHAPE_Area":1.0675244482493058,"__networkId":"telecom","__networkName":"شبكة الاتصالات","__layerId":"telecom_facilities","__layerName":"منشآت شبكة الاتصالات","__assetName":"منشآت الاتصالات","__geometryKind":"polygon","__featureIndex":36,"__length_m":4.15,"__area_m2":1.07,"__typeValue":"كبينة"},"geometry":{"type":"Polygon","coordinates":[[[31.55887402704754,30.277752414300206],[31.558868090980152,30.27774664872284],[31.55886073647292,30.27775281382554],[31.558866720151016,30.277757885081904],[31.55887402704754,30.277752414300206]]]}},{"type":"Feature","properties":{"Telecom_Facility_Type":"كبينة","Easting":"031° 33' 24.53\" E","Northing":"30° 16' 40.55\" N","Description":null,"ID":"8.1","GlobalID":"{A623BA0D-D7B6-4F5D-B1AE-121C3CB2BAB5}","sectors":"القطاع الخامس","number_boxs":32.0,"SHAPE_Length":4.300795131338804,"SHAPE_Area":1.126739871255194,"__networkId":"telecom","__networkName":"شبكة الاتصالات","__layerId":"telecom_facilities","__layerName":"منشآت شبكة الاتصالات","__assetName":"منشآت الاتصالات","__geometryKind":"polygon","__featureIndex":37,"__length_m":4.3,"__area_m2":1.13,"__typeValue":"كبينة"},"geometry":{"type":"Polygon","coordinates":[[[31.55848405400968,30.27810245372345],[31.55847785293925,30.278097555482667],[31.558470741875464,30.27810446841001],[31.558478012839366,30.278109515599194],[31.55848405400968,30.27810245372345]]]}},{"type":"Feature","properties":{"Telecom_Facility_Type":"كبينة","Easting":"031° 33' 42.85\" E","Northing":"30° 16' 44.05\" N","Description":null,"ID":"8.3","GlobalID":"{538B3FC6-56B5-4FBA-A736-C9CEBD4C49CA}","sectors":"القطاع الثالث","number_boxs":32.0,"SHAPE_Length":4.328099509127216,"SHAPE_Area":1.1276036813307353,"__networkId":"telecom","__networkName":"شبكة الاتصالات","__layerId":"telecom_facilities","__layerName":"منشآت شبكة الاتصالات","__assetName":"منشآت الاتصالات","__geometryKind":"polygon","__featureIndex":38,"__length_m":4.33,"__area_m2":1.13,"__typeValue":"كبينة"},"geometry":{"type":"Polygon","coordinates":[[[31.563584249815033,30.279068271253497],[31.563579346810208,30.2790595423235],[31.563571626688653,30.279063616651715],[31.56357513910144,30.279070763792657],[31.563584249815033,30.279068271253497]]]}},{"type":"Feature","properties":{"Telecom_Facility_Type":"كبينة","Easting":"031° 33' 17.15\" E","Northing":"30° 16' 45.39\" N","Description":null,"ID":"1-2","GlobalID":"{6618A658-01FD-401F-97CD-6E5DA5AAC66A}","sectors":"القطاع الخامس","number_boxs":32.0,"SHAPE_Length":4.324063500699933,"SHAPE_Area":1.168151385563215,"__networkId":"telecom","__networkName":"شبكة الاتصالات","__layerId":"telecom_facilities","__layerName":"منشآت شبكة الاتصالات","__assetName":"منشآت الاتصالات","__geometryKind":"polygon","__featureIndex":39,"__length_m":4.32,"__area_m2":1.17,"__typeValue":"كبينة"},"geometry":{"type":"Polygon","coordinates":[[[31.55645429984542,30.279428823793282],[31.556447301969367,30.279424623030668],[31.556440098379078,30.279431770921033],[31.55644686628644,30.27943584600963],[31.55645429984542,30.279428823793282]]]}},{"type":"Feature","properties":{"Telecom_Facility_Type":"باسيف","Easting":"031° 33' 17.68\" E","Northing":"30° 16' 32.81\" N","Description":null,"ID":"2","GlobalID":"{30C44041-70D5-40BC-9F95-97E8B1FEEF43}","sectors":"القطاع الثالث","number_boxs":null,"SHAPE_Length":6.41916097360839,"SHAPE_Area":2.0170878454695185,"__networkId":"telecom","__networkName":"شبكة الاتصالات","__layerId":"telecom_facilities","__layerName":"منشآت شبكة الاتصالات","__assetName":"منشآت الاتصالات","__geometryKind":"polygon","__featureIndex":40,"__length_m":6.42,"__area_m2":2.02,"__typeValue":"باسيف"},"geometry":{"type":"Polygon","coordinates":[[[31.55658271132035,30.275969113284287],[31.556587963769807,30.275964500428266],[31.55657453485463,30.27595117000239],[31.556568083154243,30.27595525687236],[31.55658271132035,30.275969113284287]]]}},{"type":"Feature","properties":{"Telecom_Facility_Type":"باسيف","Easting":"031° 33' 17.64\" E","Northing":"30° 16' 32.77\" N","Description":null,"ID":"1","GlobalID":"{CB0A64E8-02E4-4203-B1AD-E2B4FC68121A}","sectors":"القطاع الثالث","number_boxs":null,"SHAPE_Length":14.735639272289024,"SHAPE_Area":10.464218626973052,"__networkId":"telecom","__networkName":"شبكة الاتصالات","__layerId":"telecom_facilities","__layerName":"منشآت شبكة الاتصالات","__assetName":"منشآت الاتصالات","__geometryKind":"polygon","__featureIndex":41,"__length_m":14.74,"__area_m2":10.46,"__typeValue":"باسيف"},"geometry":{"type":"Polygon","coordinates":[[[31.556566232624757,30.275956900774606],[31.55659908670963,30.27592559059894],[31.556586354887138,30.27591552702737],[31.556553500802224,30.275946837982048],[31.556566232624757,30.275956900774606]]]}},{"type":"Feature","properties":{"Telecom_Facility_Type":"باسيف","Easting":"031° 33' 10.33\" E","Northing":"30° 16' 29.57\" N","Description":null,"ID":"2","GlobalID":"{16F6051F-C583-43F5-8F0F-76E02F5A7EAB}","sectors":"القطاع الخامس","number_boxs":null,"SHAPE_Length":4.575073478309677,"SHAPE_Area":1.299501600195459,"__networkId":"telecom","__networkName":"شبكة الاتصالات","__layerId":"telecom_facilities","__layerName":"منشآت شبكة الاتصالات","__assetName":"منشآت الاتصالات","__geometryKind":"polygon","__featureIndex":42,"__length_m":4.58,"__area_m2":1.3,"__typeValue":"باسيف"},"geometry":{"type":"Polygon","coordinates":[[[31.554560860533947,30.275032724668055],[31.55455454358086,30.27504031973846],[31.55456155762663,30.275045684386903],[31.554568405484037,30.275038194825548],[31.554560860533947,30.275032724668055]]]}},{"type":"Feature","properties":{"Telecom_Facility_Type":"باسيف","Easting":"031° 33' 18.37\" E","Northing":"30° 16' 8.82\" N","Description":null,"ID":"3","GlobalID":"{2C5120BC-2C97-4E64-94CC-0D5DA4F70285}","sectors":"القطاع الثالث","number_boxs":null,"SHAPE_Length":77.409386787285,"SHAPE_Area":288.3032146384115,"__networkId":"telecom","__networkName":"شبكة الاتصالات","__layerId":"telecom_facilities","__layerName":"منشآت شبكة الاتصالات","__assetName":"منشآت الاتصالات","__geometryKind":"polygon","__featureIndex":43,"__length_m":77.41,"__area_m2":288.3,"__typeValue":"باسيف"},"geometry":{"type":"Polygon","coordinates":[[[31.556778337439756,30.26916536807067],[31.556694043126754,30.269375282079938],[31.55677939565517,30.269401104477684],[31.556863689968175,30.269191190523685],[31.556778337439756,30.26916536807067]]]}},{"type":"Feature","properties":{"Telecom_Facility_Type":"باسيف","Easting":"031° 33' 18.06\" E","Northing":"30° 16' 8.72\" N","Description":null,"ID":"3","GlobalID":"{B13520C1-8053-4BA7-AE2C-34BA39A0948A}","sectors":"القطاع الثالث","number_boxs":null,"SHAPE_Length":77.4092031269993,"SHAPE_Area":288.3008663937495,"__networkId":"telecom","__networkName":"شبكة الاتصالات","__layerId":"telecom_facilities","__layerName":"منشآت شبكة الاتصالات","__assetName":"منشآت الاتصالات","__geometryKind":"polygon","__featureIndex":44,"__length_m":77.41,"__area_m2":288.3,"__typeValue":"باسيف"},"geometry":{"type":"Polygon","coordinates":[[[31.556693758360808,30.26913762306594],[31.556609463149506,30.269347537134532],[31.556694815677886,30.26937336109123],[31.556779108194267,30.269163447077926],[31.556693758360808,30.26913762306594]]]}},{"type":"Feature","properties":{"Telecom_Facility_Type":"باسيف","Easting":"031° 33' 10.15\" E","Northing":"30° 16' 29.4\" N","Description":null,"ID":"6","GlobalID":"{9E09FE8E-8C74-4764-850D-E39891D43ABE}","sectors":"القطاع الخامس","number_boxs":null,"SHAPE_Length":6.37374090686232,"SHAPE_Area":1.997175461110335,"__networkId":"telecom","__networkName":"شبكة الاتصالات","__layerId":"telecom_facilities","__layerName":"منشآت شبكة الاتصالات","__assetName":"منشآت الاتصالات","__geometryKind":"polygon","__featureIndex":45,"__length_m":6.37,"__area_m2":2.0,"__typeValue":"باسيف"},"geometry":{"type":"Polygon","coordinates":[[[31.55449361085514,30.27498296336601],[31.554487629871996,30.274989483958418],[31.554504578386464,30.275000254377876],[31.55450776560907,30.274995847838916],[31.55449361085514,30.27498296336601]]]}},{"type":"Feature","properties":{"Telecom_Facility_Type":"باسيف","Easting":"031° 33' 31.88\" E","Northing":"30° 15' 57.73\" N","Description":null,"ID":"4","GlobalID":"{E87512E9-81B1-4B29-933D-CCB4A5FC4F6E}","sectors":"القطاع الثاني","number_boxs":null,"SHAPE_Length":11.541303020946696,"SHAPE_Area":6.410222910200833,"__networkId":"telecom","__networkName":"شبكة الاتصالات","__layerId":"telecom_facilities","__layerName":"منشآت شبكة الاتصالات","__assetName":"منشآت الاتصالات","__geometryKind":"polygon","__featureIndex":46,"__length_m":11.54,"__area_m2":6.41,"__typeValue":"باسيف"},"geometry":{"type":"Polygon","coordinates":[[[31.560534214303907,30.266185273431354],[31.56051911092904,30.266215387997065],[31.56053146815408,30.266220058725548],[31.560546711666163,30.266189664848476],[31.560534214303907,30.266185273431354]]]}},{"type":"Feature","properties":{"Telecom_Facility_Type":"باسيف","Easting":"031° 33' 31.84\" E","Northing":"30° 15' 57.71\" N","Description":null,"ID":"5","GlobalID":"{BE8A5638-B329-4843-B616-05B0351C41FE}","sectors":"القطاع الثاني","number_boxs":null,"SHAPE_Length":11.541303006229247,"SHAPE_Area":6.410222890337026,"__networkId":"telecom","__networkName":"شبكة الاتصالات","__layerId":"telecom_facilities","__layerName":"منشآت شبكة الاتصالات","__assetName":"منشآت الاتصالات","__geometryKind":"polygon","__featureIndex":47,"__length_m":11.54,"__area_m2":6.41,"__typeValue":"باسيف"},"geometry":{"type":"Polygon","coordinates":[[[31.56051911092904,30.266215387997065],[31.560534214303907,30.266185273431354],[31.560521857078868,30.26618060270128],[31.560506613566822,30.266210996581087],[31.56051911092904,30.266215387997065]]]}},{"type":"Feature","properties":{"Telecom_Facility_Type":"كبينة","Easting":"031° 33' 31.54\" E","Northing":"30° 15' 57.64\" N","Description":null,"ID":null,"GlobalID":"{E1E64DC3-573E-47E2-A10E-4D9701BBDEB4}","sectors":"القطاع الثاني","number_boxs":25.0,"SHAPE_Length":4.3434473264310585,"SHAPE_Area":1.1620555930682408,"__networkId":"telecom","__networkName":"شبكة الاتصالات","__layerId":"telecom_facilities","__layerName":"منشآت شبكة الاتصالات","__assetName":"منشآت الاتصالات","__geometryKind":"polygon","__featureIndex":48,"__length_m":4.34,"__area_m2":1.16,"__typeValue":"كبينة"},"geometry":{"type":"Polygon","coordinates":[[[31.560438281418076,30.266175038945907],[31.56042850505286,30.2661731078083],[31.560426133500496,30.266180539080004],[31.560434049454784,30.26618399092024],[31.560438281418076,30.266175038945907]]]}},{"type":"Feature","properties":{"Telecom_Facility_Type":"كبينة","Easting":"031° 33' 17.65\" E","Northing":"30° 16' 8.45\" N","Description":null,"ID":"3","GlobalID":"{092BD465-AE31-4072-AFA0-41A41F74C6A3}","sectors":"القطاع الثالث","number_boxs":30.0,"SHAPE_Length":23.327452594470643,"SHAPE_Area":18.86833115900408,"__networkId":"telecom","__networkName":"شبكة الاتصالات","__layerId":"telecom_facilities","__layerName":"منشآت شبكة الاتصالات","__assetName":"منشآت الاتصالات","__geometryKind":"polygon","__featureIndex":49,"__length_m":23.33,"__area_m2":18.87,"__typeValue":"كبينة"},"geometry":{"type":"Polygon","coordinates":[[[31.556579793592302,30.269195587237252],[31.556512992172813,30.269149180834763],[31.556506669829844,30.26916696476015],[31.556576102414795,30.269209851146147],[31.556579793592302,30.269195587237252]]]}},{"type":"Feature","properties":{"Telecom_Facility_Type":"كبينة","Easting":"031° 33' 10.09\" E","Northing":"30° 16' 29.33\" N","Description":null,"ID":"1","GlobalID":"{38F55AB4-D5FC-4C77-ABC6-5A1A4F7B9062}","sectors":"القطاع الخامس","number_boxs":28.0,"SHAPE_Length":4.551899208599093,"SHAPE_Area":1.264575642697171,"__networkId":"telecom","__networkName":"شبكة الاتصالات","__layerId":"telecom_facilities","__layerName":"منشآت شبكة الاتصالات","__assetName":"منشآت الاتصالات","__geometryKind":"polygon","__featureIndex":50,"__length_m":4.55,"__area_m2":1.26,"__typeValue":"كبينة"},"geometry":{"type":"Polygon","coordinates":[[[31.55449050178595,30.27497707737704],[31.554481179069942,30.274969611860243],[31.55447618084369,30.274977102202637],[31.554483284720973,30.274981916037056],[31.55449050178595,30.27497707737704]]]}},{"type":"Feature","properties":{"Telecom_Facility_Type":"كبينة","Easting":"031° 33' 17.75\" E","Northing":"30° 16' 32.89\" N","Description":null,"ID":"2","GlobalID":"{319AE0D0-FB1E-4AA7-A568-5E3B767215CD}","sectors":"القطاع الثالث","number_boxs":23.0,"SHAPE_Length":3.969107782936505,"SHAPE_Area":0.930531544288314,"__networkId":"telecom","__networkName":"شبكة الاتصالات","__layerId":"telecom_facilities","__layerName":"منشآت شبكة الاتصالات","__assetName":"منشآت الاتصالات","__geometryKind":"polygon","__featureIndex":51,"__length_m":3.97,"__area_m2":0.93,"__typeValue":"كبينة"},"geometry":{"type":"Polygon","coordinates":[[[31.556605811497874,30.275974102398926],[31.556600156603146,30.275969712971047],[31.556591843593502,30.275975957316106],[31.556598970826975,30.275979155903993],[31.556605811497874,30.275974102398926]]]}}]}